{
"type": "FeatureCollection",
"name": "healthcare_facilities_accra_emoc",
"crs": { "type": "name", "properties": { "name": "urn:ogc:def:crs:OGC:1.3:CRS84" } },
"features": [
{ "type": "Feature", "properties": { "Region": "Greater Accra", "District": "Ga East", "FacilityName": "Achimota Hospital", "Type": "Hospital", "Town": "Atomic", "Ownership": "Government", "Latitude": 5.62922, "Longitude": -0.21476, "EmOC_Type": "Comprehensive", "Ownership_Type": "Public", "Local_Validation": "Public Comprehensive EmOC", "hcf_id": 0 }, "geometry": { "type": "Point", "coordinates": [ -0.21476, 5.62922 ] } },
{ "type": "Feature", "properties": { "Region": "Greater Accra", "District": "Accra Metropolitan", "FacilityName": "Adabraka Polyclinic", "Type": "Polyclinic", "Town": "Adabraka", "Ownership": "Government", "Latitude": 5.56129, "Longitude": -0.20477, "EmOC_Type": "Basic", "Ownership_Type": "Public", "Local_Validation": "Public Basic EmOC", "hcf_id": 1 }, "geometry": { "type": "Point", "coordinates": [ -0.20477, 5.56129 ] } },
{ "type": "Feature", "properties": { "Region": "Greater Accra", "District": "Tema Metropolitan", "FacilityName": "Afenyo Memorial Hospital", "Type": "Hospital", "Town": "Ashaiman", "Ownership": "Private", "Latitude": 5.69028, "Longitude": -0.03417, "EmOC_Type": "Comprehensive", "Ownership_Type": "Private", "Local_Validation": "Private Comprehensive EmOC", "hcf_id": 2 }, "geometry": { "type": "Point", "coordinates": [ -0.03417, 5.69028 ] } },
{ "type": "Feature", "properties": { "Region": "Greater Accra", "District": "Accra Metropolitan", "FacilityName": "Al-ayar Clinic & Maternity Home", "Type": "Hospital", "Town": "Akweteman", "Ownership": "Private", "Latitude": 5.61371, "Longitude": -0.24046, "EmOC_Type": "Comprehensive", "Ownership_Type": "Private", "Local_Validation": "Private Comprehensive EmOC", "hcf_id": 3 }, "geometry": { "type": "Point", "coordinates": [ -0.24046, 5.61371 ] } },
{ "type": "Feature", "properties": { "Region": "Greater Accra", "District": "Ga West", "FacilityName": "Amoah Memorial Hospital", "Type": "Hospital", "Town": "Awoshie (last stop)", "Ownership": "Private", "Latitude": 5.59055, "Longitude": -0.28732, "EmOC_Type": "Comprehensive", "Ownership_Type": "Private", "Local_Validation": "Private Comprehensive EmOC", "hcf_id": 4 }, "geometry": { "type": "Point", "coordinates": [ -0.28732, 5.59055 ] } },
{ "type": "Feature", "properties": { "Region": "Greater Accra", "District": "Tema Metropolitan", "FacilityName": "Apenyo Memorial Hospital", "Type": "Hospital", "Town": "Ashaiman", "Ownership": "Private", "Latitude": 5.69028, "Longitude": -0.03417, "EmOC_Type": "Comprehensive", "Ownership_Type": "Private", "Local_Validation": "Private Comprehensive EmOC", "hcf_id": 5 }, "geometry": { "type": "Point", "coordinates": [ -0.03417, 5.69028 ] } },
{ "type": "Feature", "properties": { "Region": "Greater Accra", "District": "Accra Metropolitan", "FacilityName": "Asamoah Clinic", "Type": "Hospital", "Town": "Abelemkpe", "Ownership": "Private", "Latitude": 5.61148, "Longitude": -0.22208, "EmOC_Type": "Comprehensive", "Ownership_Type": "Private", "Local_Validation": "Private Comprehensive EmOC", "hcf_id": 6 }, "geometry": { "type": "Point", "coordinates": [ -0.22208, 5.61148 ] } },
{ "type": "Feature", "properties": { "Region": "Greater Accra", "District": "Accra Metropolitan", "FacilityName": "Asare Odei Hospital", "Type": "Hospital", "Town": "East Legon", "Ownership": "Private", "Latitude": 5.64073, "Longitude": -0.16868, "EmOC_Type": "Comprehensive", "Ownership_Type": "Private", "Local_Validation": "Private Comprehensive EmOC", "hcf_id": 7 }, "geometry": { "type": "Point", "coordinates": [ -0.16868, 5.64073 ] } },
{ "type": "Feature", "properties": { "Region": "Greater Accra", "District": "Accra Metropolitan", "FacilityName": "Bart-Plange Memorial Clinic", "Type": "Hospital", "Town": "Agbogbloshie", "Ownership": "Private", "Latitude": 5.55005, "Longitude": -0.22199, "EmOC_Type": "Comprehensive", "Ownership_Type": "Private", "Local_Validation": "Private Comprehensive EmOC", "hcf_id": 8 }, "geometry": { "type": "Point", "coordinates": [ -0.22199, 5.55005 ] } },
{ "type": "Feature", "properties": { "Region": "Greater Accra", "District": "Tema Metropolitan", "FacilityName": "Bengali Hospital", "Type": "Hospital", "Town": "Tema Community 11", "Ownership": "Private", "Latitude": 5.6681, "Longitude": -0.02051, "EmOC_Type": "Comprehensive", "Ownership_Type": "Private", "Local_Validation": "Private Comprehensive EmOC", "hcf_id": 9 }, "geometry": { "type": "Point", "coordinates": [ -0.02051, 5.6681 ] } },
{ "type": "Feature", "properties": { "Region": "Greater Accra", "District": "Accra Metropolitan", "FacilityName": "Bennette Memorial Clinic", "Type": "Hospital", "Town": "New Town", "Ownership": "Private", "Latitude": 5.58418, "Longitude": -0.20844, "EmOC_Type": "Comprehensive", "Ownership_Type": "Private", "Local_Validation": "Private Comprehensive EmOC", "hcf_id": 10 }, "geometry": { "type": "Point", "coordinates": [ -0.20844, 5.58418 ] } },
{ "type": "Feature", "properties": { "Region": "Greater Accra", "District": "Ga East", "FacilityName": "Bennette Memorial Clinic", "Type": "Hospital", "Town": "Madina", "Ownership": "Private", "Latitude": 5.6667, "Longitude": -0.15996, "EmOC_Type": "Comprehensive", "Ownership_Type": "Private", "Local_Validation": "Private Comprehensive EmOC", "hcf_id": 11 }, "geometry": { "type": "Point", "coordinates": [ -0.15996, 5.6667 ] } },
{ "type": "Feature", "properties": { "Region": "Greater Accra", "District": "Accra Metropolitan", "FacilityName": "Biomedical Department", "Type": "Hospital", "Town": "Korle-bu", "Ownership": "Government", "Latitude": 5.53599, "Longitude": -0.22959, "EmOC_Type": "Comprehensive", "Ownership_Type": "Public", "Local_Validation": "Public Comprehensive EmOC", "hcf_id": 12 }, "geometry": { "type": "Point", "coordinates": [ -0.22959, 5.53599 ] } },
{ "type": "Feature", "properties": { "Region": "Greater Accra", "District": "Tema Metropolitan", "FacilityName": "Bukom Ellphkwei Hospital", "Type": "Hospital", "Town": "Ashaiman", "Ownership": "Private", "Latitude": 5.69263, "Longitude": -0.02201, "EmOC_Type": "Comprehensive", "Ownership_Type": "Private", "Local_Validation": "Private Comprehensive EmOC", "hcf_id": 13 }, "geometry": { "type": "Point", "coordinates": [ -0.02201, 5.69263 ] } },
{ "type": "Feature", "properties": { "Region": "Greater Accra", "District": "Accra Metropolitan", "FacilityName": "Clecom Memorial Specialist Hospital", "Type": "Hospital", "Town": "Dzorwulu", "Ownership": "Private", "Latitude": 5.61495, "Longitude": -0.19474, "EmOC_Type": "Comprehensive", "Ownership_Type": "Private", "Local_Validation": "Private Comprehensive EmOC", "hcf_id": 14 }, "geometry": { "type": "Point", "coordinates": [ -0.19474, 5.61495 ] } },
{ "type": "Feature", "properties": { "Region": "Greater Accra", "District": "Tema Metropolitan", "FacilityName": "Caiquo Hospital", "Type": "Hospital", "Town": "Tema Community 10", "Ownership": "Private", "Latitude": 5.65332, "Longitude": -0.02255, "EmOC_Type": "Comprehensive", "Ownership_Type": "Private", "Local_Validation": "Private Comprehensive EmOC", "hcf_id": 15 }, "geometry": { "type": "Point", "coordinates": [ -0.02255, 5.65332 ] } },
{ "type": "Feature", "properties": { "Region": "Greater Accra", "District": "Accra Metropolitan", "FacilityName": "Cocoa Clinic", "Type": "Hospital", "Town": "North Kaneshie", "Ownership": "Quasi-Government", "Latitude": 5.57172, "Longitude": -0.2357, "EmOC_Type": "Comprehensive", "Ownership_Type": "Public", "Local_Validation": "Public Comprehensive EmOC", "hcf_id": 16 }, "geometry": { "type": "Point", "coordinates": [ -0.2357, 5.57172 ] } },
{ "type": "Feature", "properties": { "Region": "Greater Accra", "District": "Tema Metropolitan", "FacilityName": "Binney Medical Centre", "Type": "Hospital", "Town": "Tema Community 2", "Ownership": "Private", "Latitude": 5.63344, "Longitude": -0.00936, "EmOC_Type": "Comprehensive", "Ownership_Type": "Private", "Local_Validation": "Private Comprehensive EmOC", "hcf_id": 17 }, "geometry": { "type": "Point", "coordinates": [ -0.00936, 5.63344 ] } },
{ "type": "Feature", "properties": { "Region": "Greater Accra", "District": "Accra Metropolitan", "FacilityName": "Blessings Clinic", "Type": "Hospital", "Town": "Tesano", "Ownership": "Private", "Latitude": 5.59917, "Longitude": -0.2325, "EmOC_Type": "Comprehensive", "Ownership_Type": "Private", "Local_Validation": "Private Comprehensive EmOC", "hcf_id": 18 }, "geometry": { "type": "Point", "coordinates": [ -0.2325, 5.59917 ] } },
{ "type": "Feature", "properties": { "Region": "Greater Accra", "District": "Dangme East", "FacilityName": "Dangme East District Hospital", "Type": "District Hospital", "Town": "Ada", "Ownership": "Government", "Latitude": 5.88888, "Longitude": 0.56949, "EmOC_Type": "Comprehensive", "Ownership_Type": "Public", "Local_Validation": "Public Comprehensive EmOC", "hcf_id": 19 }, "geometry": { "type": "Point", "coordinates": [ 0.56949, 5.88888 ] } },
{ "type": "Feature", "properties": { "Region": "Greater Accra", "District": "Tema Metropolitan", "FacilityName": "Darben Clinic", "Type": "Hospital", "Town": "Ashaiman", "Ownership": "Private", "Latitude": 5.6831, "Longitude": 0.03603, "EmOC_Type": "Comprehensive", "Ownership_Type": "Private", "Local_Validation": "Private Comprehensive EmOC", "hcf_id": 20 }, "geometry": { "type": "Point", "coordinates": [ 0.03603, 5.6831 ] } },
{ "type": "Feature", "properties": { "Region": "Greater Accra", "District": "Ga West", "FacilityName": "Deseret Hospital", "Type": "Hospital", "Town": "Antiaku (near north kwashieman)", "Ownership": "Private", "Latitude": 5.60821, "Longitude": -0.27876, "EmOC_Type": "Comprehensive", "Ownership_Type": "Private", "Local_Validation": "Private Comprehensive EmOC", "hcf_id": 21 }, "geometry": { "type": "Point", "coordinates": [ -0.27876, 5.60821 ] } },
{ "type": "Feature", "properties": { "Region": "Greater Accra", "District": "Accra Metropolitan", "FacilityName": "East Legon Clinic", "Type": "Hospital", "Town": "East Legon", "Ownership": "Private", "Latitude": 5.63002, "Longitude": -0.17534, "EmOC_Type": "Comprehensive", "Ownership_Type": "Private", "Local_Validation": "Private Comprehensive EmOC", "hcf_id": 22 }, "geometry": { "type": "Point", "coordinates": [ -0.17534, 5.63002 ] } },
{ "type": "Feature", "properties": { "Region": "Greater Accra", "District": "Accra Metropolitan", "FacilityName": "Eden Specialist Hospital", "Type": "Hospital", "Town": "North Kaneshie", "Ownership": "Private", "Latitude": 5.5803, "Longitude": -0.22805, "EmOC_Type": "Comprehensive", "Ownership_Type": "Private", "Local_Validation": "Private Comprehensive EmOC", "hcf_id": 23 }, "geometry": { "type": "Point", "coordinates": [ -0.22805, 5.5803 ] } },
{ "type": "Feature", "properties": { "Region": "Greater Accra", "District": "Accra Metropolitan", "FacilityName": "El-Rapha Clinic", "Type": "Hospital", "Town": "Mataheko", "Ownership": "Private", "Latitude": 5.56096, "Longitude": -0.24662, "EmOC_Type": "Comprehensive", "Ownership_Type": "Private", "Local_Validation": "Private Comprehensive EmOC", "hcf_id": 24 }, "geometry": { "type": "Point", "coordinates": [ -0.24662, 5.56096 ] } },
{ "type": "Feature", "properties": { "Region": "Greater Accra", "District": "Accra Metropolitan", "FacilityName": "Eye Gye Nyame Clinic", "Type": "Hospital", "Town": "Nima (Mallam atta gutter. market road)", "Ownership": "Private", "Latitude": 5.57916, "Longitude": -0.20364, "EmOC_Type": "Comprehensive", "Ownership_Type": "Private", "Local_Validation": "Private Comprehensive EmOC", "hcf_id": 25 }, "geometry": { "type": "Point", "coordinates": [ -0.20364, 5.57916 ] } },
{ "type": "Feature", "properties": { "Region": "Greater Accra", "District": "Accra Metropolitan", "FacilityName": "Faith Evangelical Hospital", "Type": "Hospital", "Town": "Bubuashie", "Ownership": "Private", "Latitude": 5.57727, "Longitude": -0.23709, "EmOC_Type": "Comprehensive", "Ownership_Type": "Private", "Local_Validation": "Private Comprehensive EmOC", "hcf_id": 26 }, "geometry": { "type": "Point", "coordinates": [ -0.23709, 5.57727 ] } },
{ "type": "Feature", "properties": { "Region": "Greater Accra", "District": "Accra Metropolitan", "FacilityName": "Family Health Hospital", "Type": "Hospital", "Town": "Korle-bu (before mortuary turn right to korlebu flats)", "Ownership": "Private", "Latitude": 5.54547, "Longitude": -0.22981, "EmOC_Type": "Comprehensive", "Ownership_Type": "Private", "Local_Validation": "Private Comprehensive EmOC", "hcf_id": 27 }, "geometry": { "type": "Point", "coordinates": [ -0.22981, 5.54547 ] } },
{ "type": "Feature", "properties": { "Region": "Greater Accra", "District": "Ga East", "FacilityName": "Doku Memorial Clinic", "Type": "Hospital", "Town": "Madina", "Ownership": "Private", "Latitude": 5.68042, "Longitude": -0.16565, "EmOC_Type": "Comprehensive", "Ownership_Type": "Private", "Local_Validation": "Private Comprehensive EmOC", "hcf_id": 28 }, "geometry": { "type": "Point", "coordinates": [ -0.16565, 5.68042 ] } },
{ "type": "Feature", "properties": { "Region": "Greater Accra", "District": "Accra Metropolitan", "FacilityName": "Egon German Clinic", "Type": "Hospital", "Town": "Abelemkpe", "Ownership": "Private", "Latitude": 5.61261, "Longitude": -0.21417, "EmOC_Type": "Comprehensive", "Ownership_Type": "Private", "Local_Validation": "Private Comprehensive EmOC", "hcf_id": 29 }, "geometry": { "type": "Point", "coordinates": [ -0.21417, 5.61261 ] } },
{ "type": "Feature", "properties": { "Region": "Greater Accra", "District": "Accra Metropolitan", "FacilityName": "Faith Medical Centre", "Type": "Hospital", "Town": "Alajo (near T junction)", "Ownership": "Private", "Latitude": 5.59978, "Longitude": -0.21767, "EmOC_Type": "Comprehensive", "Ownership_Type": "Private", "Local_Validation": "Private Comprehensive EmOC", "hcf_id": 30 }, "geometry": { "type": "Point", "coordinates": [ -0.21767, 5.59978 ] } },
{ "type": "Feature", "properties": { "Region": "Greater Accra", "District": "Accra Metropolitan", "FacilityName": "Fire Medical Centre (Old site)", "Type": "Hospital", "Town": "James Town", "Ownership": "Government", "Latitude": 5.53282, "Longitude": -0.2177, "EmOC_Type": "Comprehensive", "Ownership_Type": "Public", "Local_Validation": "Public Comprehensive EmOC", "hcf_id": 31 }, "geometry": { "type": "Point", "coordinates": [ -0.2177, 5.53282 ] } },
{ "type": "Feature", "properties": { "Region": "Greater Accra", "District": "Accra Metropolitan", "FacilityName": "Gak Clinic", "Type": "Hospital", "Town": "Osu (Nyaniba Estate)", "Ownership": "Private", "Latitude": 5.55989, "Longitude": -0.174, "EmOC_Type": "Comprehensive", "Ownership_Type": "Private", "Local_Validation": "Private Comprehensive EmOC", "hcf_id": 32 }, "geometry": { "type": "Point", "coordinates": [ -0.174, 5.55989 ] } },
{ "type": "Feature", "properties": { "Region": "Greater Accra", "District": "Tema Metropolitan", "FacilityName": "Gloria Family Health Centre", "Type": "Hospital", "Town": "Adenta", "Ownership": "Private", "Latitude": 5.69705, "Longitude": -0.17367, "EmOC_Type": "Comprehensive", "Ownership_Type": "Private", "Local_Validation": "Private Comprehensive EmOC", "hcf_id": 33 }, "geometry": { "type": "Point", "coordinates": [ -0.17367, 5.69705 ] } },
{ "type": "Feature", "properties": { "Region": "Greater Accra", "District": "Ga East", "FacilityName": "Greater Grace Hospital", "Type": "Hospital", "Town": "Pantang hosp road", "Ownership": "Private", "Latitude": 5.71866, "Longitude": -0.17425, "EmOC_Type": "Comprehensive", "Ownership_Type": "Private", "Local_Validation": "Private Comprehensive EmOC", "hcf_id": 34 }, "geometry": { "type": "Point", "coordinates": [ -0.17425, 5.71866 ] } },
{ "type": "Feature", "properties": { "Region": "Greater Accra", "District": "Ga East", "FacilityName": "Harmony Clinic", "Type": "Hospital", "Town": "Madina", "Ownership": "Private", "Latitude": 5.67152, "Longitude": -0.17373, "EmOC_Type": "Comprehensive", "Ownership_Type": "Private", "Local_Validation": "Private Comprehensive EmOC", "hcf_id": 35 }, "geometry": { "type": "Point", "coordinates": [ -0.17373, 5.67152 ] } },
{ "type": "Feature", "properties": { "Region": "Greater Accra", "District": "Accra Metropolitan", "FacilityName": "Holy Trinity Medical Centre", "Type": "Hospital", "Town": "North Kaneshie", "Ownership": "Private", "Latitude": 5.5867, "Longitude": -0.23519, "EmOC_Type": "Comprehensive", "Ownership_Type": "Private", "Local_Validation": "Private Comprehensive EmOC", "hcf_id": 36 }, "geometry": { "type": "Point", "coordinates": [ -0.23519, 5.5867 ] } },
{ "type": "Feature", "properties": { "Region": "Greater Accra", "District": "Accra Metropolitan", "FacilityName": "Johpat Hospital", "Type": "Hospital", "Town": "Dzorwulu", "Ownership": "Private", "Latitude": 5.61151, "Longitude": -0.19963, "EmOC_Type": "Comprehensive", "Ownership_Type": "Private", "Local_Validation": "Private Comprehensive EmOC", "hcf_id": 37 }, "geometry": { "type": "Point", "coordinates": [ -0.19963, 5.61151 ] } },
{ "type": "Feature", "properties": { "Region": "Greater Accra", "District": "Tema Metropolitan", "FacilityName": "Jubail Specialist Hospital", "Type": "Hospital", "Town": "Sakumano Estate", "Ownership": "Private", "Latitude": 5.62549, "Longitude": -0.05216, "EmOC_Type": "Comprehensive", "Ownership_Type": "Private", "Local_Validation": "Private Comprehensive EmOC", "hcf_id": 38 }, "geometry": { "type": "Point", "coordinates": [ -0.05216, 5.62549 ] } },
{ "type": "Feature", "properties": { "Region": "Greater Accra", "District": "Accra Metropolitan", "FacilityName": "Kaneshie Polyclinic", "Type": "Polyclinic", "Town": "Kaneshie", "Ownership": "Government", "Latitude": 5.57446, "Longitude": -0.23074, "EmOC_Type": "Basic", "Ownership_Type": "Public", "Local_Validation": "Public Basic EmOC", "hcf_id": 39 }, "geometry": { "type": "Point", "coordinates": [ -0.23074, 5.57446 ] } },
{ "type": "Feature", "properties": { "Region": "Greater Accra", "District": "Accra Metropolitan", "FacilityName": "Karikari Brobbey Hospital", "Type": "Hospital", "Town": "Agege (Agege road -Karikari area)", "Ownership": "Private", "Latitude": 5.53092, "Longitude": -0.26149, "EmOC_Type": "Comprehensive", "Ownership_Type": "Private", "Local_Validation": "Private Comprehensive EmOC", "hcf_id": 40 }, "geometry": { "type": "Point", "coordinates": [ -0.26149, 5.53092 ] } },
{ "type": "Feature", "properties": { "Region": "Greater Accra", "District": "Accra Metropolitan", "FacilityName": "King David Hospital", "Type": "Hospital", "Town": "Kotobabi", "Ownership": "Private", "Latitude": 5.59277, "Longitude": -0.20588, "EmOC_Type": "Comprehensive", "Ownership_Type": "Private", "Local_Validation": "Private Comprehensive EmOC", "hcf_id": 41 }, "geometry": { "type": "Point", "coordinates": [ -0.20588, 5.59277 ] } },
{ "type": "Feature", "properties": { "Region": "Greater Accra", "District": "Accra Metropolitan", "FacilityName": "Korle-Bu Polyclinic", "Type": "Polyclinic", "Town": "Korle-Bu", "Ownership": "Government", "Latitude": 5.580728, "Longitude": -0.210467, "EmOC_Type": "Basic", "Ownership_Type": "Public", "Local_Validation": "Public Basic EmOC", "hcf_id": 42 }, "geometry": { "type": "Point", "coordinates": [ -0.210467, 5.580728 ] } },
{ "type": "Feature", "properties": { "Region": "Greater Accra", "District": "Ga East", "FacilityName": "Korle-Gonno Polyclinic", "Type": "Polyclinic", "Town": "Korle-bu", "Ownership": "Government", "Latitude": 5.53736, "Longitude": -0.22312, "EmOC_Type": "Basic", "Ownership_Type": "Public", "Local_Validation": "Public Basic EmOC", "hcf_id": 43 }, "geometry": { "type": "Point", "coordinates": [ -0.22312, 5.53736 ] } },
{ "type": "Feature", "properties": { "Region": "Greater Accra", "District": "Accra Metropolitan", "FacilityName": "Kumorji Hospital", "Type": "Hospital", "Town": "Cantoments", "Ownership": "Private", "Latitude": 5.57419, "Longitude": -0.18263, "EmOC_Type": "Comprehensive", "Ownership_Type": "Private", "Local_Validation": "Private Comprehensive EmOC", "hcf_id": 44 }, "geometry": { "type": "Point", "coordinates": [ -0.18263, 5.57419 ] } },
{ "type": "Feature", "properties": { "Region": "Greater Accra", "District": "Accra Metropolitan", "FacilityName": "La General Hospital", "Type": "Hospital", "Town": "La", "Ownership": "Government", "Latitude": 5.55538, "Longitude": -0.16657, "EmOC_Type": "Comprehensive", "Ownership_Type": "Public", "Local_Validation": "Public Comprehensive EmOC", "hcf_id": 45 }, "geometry": { "type": "Point", "coordinates": [ -0.16657, 5.55538 ] } },
{ "type": "Feature", "properties": { "Region": "Greater Accra", "District": "Accra Metropolitan", "FacilityName": "Lakeside Clinic", "Type": "Hospital", "Town": "Tesano", "Ownership": "Private", "Latitude": 5.5923, "Longitude": -0.23136, "EmOC_Type": "Comprehensive", "Ownership_Type": "Private", "Local_Validation": "Private Comprehensive EmOC", "hcf_id": 46 }, "geometry": { "type": "Point", "coordinates": [ -0.23136, 5.5923 ] } },
{ "type": "Feature", "properties": { "Region": "Greater Accra", "District": "Accra Metropolitan", "FacilityName": "Lapaz Community Clinic", "Type": "Hospital", "Town": "Abaka Lapas", "Ownership": "Private", "Latitude": 5.60851, "Longitude": -0.25349, "EmOC_Type": "Comprehensive", "Ownership_Type": "Private", "Local_Validation": "Private Comprehensive EmOC", "hcf_id": 47 }, "geometry": { "type": "Point", "coordinates": [ -0.25349, 5.60851 ] } },
{ "type": "Feature", "properties": { "Region": "Greater Accra", "District": "Accra Metropolitan", "FacilityName": "Link Road Hospital", "Type": "Hospital", "Town": "Lartebiokorshie", "Ownership": "Private", "Latitude": 5.54944, "Longitude": -0.24093, "EmOC_Type": "Comprehensive", "Ownership_Type": "Private", "Local_Validation": "Private Comprehensive EmOC", "hcf_id": 48 }, "geometry": { "type": "Point", "coordinates": [ -0.24093, 5.54944 ] } },
{ "type": "Feature", "properties": { "Region": "Greater Accra", "District": "Accra Metropolitan", "FacilityName": "Maamobi Polyclinic", "Type": "Polyclinic", "Town": "Maamobi", "Ownership": "Government", "Latitude": 5.59184, "Longitude": -0.19929, "EmOC_Type": "Basic", "Ownership_Type": "Public", "Local_Validation": "Public Basic EmOC", "hcf_id": 49 }, "geometry": { "type": "Point", "coordinates": [ -0.19929, 5.59184 ] } },
{ "type": "Feature", "properties": { "Region": "Greater Accra", "District": "Accra Metropolitan", "FacilityName": "Megavest Medical Centre", "Type": "Hospital", "Town": "North Kaneshie", "Ownership": "Private", "Latitude": 5.59342, "Longitude": -0.24423, "EmOC_Type": "Comprehensive", "Ownership_Type": "Private", "Local_Validation": "Private Comprehensive EmOC", "hcf_id": 50 }, "geometry": { "type": "Point", "coordinates": [ -0.24423, 5.59342 ] } },
{ "type": "Feature", "properties": { "Region": "Greater Accra", "District": "Accra Metropolitan", "FacilityName": "Mab Medicare Centre", "Type": "Hospital", "Town": "Nyamekye (Darkuman)", "Ownership": "Private", "Latitude": 5.59958, "Longitude": -0.25417, "EmOC_Type": "Comprehensive", "Ownership_Type": "Private", "Local_Validation": "Private Comprehensive EmOC", "hcf_id": 51 }, "geometry": { "type": "Point", "coordinates": [ -0.25417, 5.59958 ] } },
{ "type": "Feature", "properties": { "Region": "Greater Accra", "District": "Accra Metropolitan", "FacilityName": "Mamprobi Polyclinic", "Type": "Polyclinic", "Town": "Mamprobi", "Ownership": "Government", "Latitude": 5.53807, "Longitude": -0.24556, "EmOC_Type": "Basic", "Ownership_Type": "Public", "Local_Validation": "Public Basic EmOC", "hcf_id": 52 }, "geometry": { "type": "Point", "coordinates": [ -0.24556, 5.53807 ] } },
{ "type": "Feature", "properties": { "Region": "Greater Accra", "District": "Accra Metropolitan", "FacilityName": "Martin Memorial Hospital", "Type": "Hospital", "Town": "Dzorwulu", "Ownership": "Private", "Latitude": 5.61023, "Longitude": -0.20448, "EmOC_Type": "Comprehensive", "Ownership_Type": "Private", "Local_Validation": "Private Comprehensive EmOC", "hcf_id": 53 }, "geometry": { "type": "Point", "coordinates": [ -0.20448, 5.61023 ] } },
{ "type": "Feature", "properties": { "Region": "Greater Accra", "District": "Accra Metropolitan", "FacilityName": "Medifem Hospital", "Type": "Hospital", "Town": "Dzorwulu", "Ownership": "Private", "Latitude": 5.61284, "Longitude": -0.20209, "EmOC_Type": "Comprehensive", "Ownership_Type": "Private", "Local_Validation": "Private Comprehensive EmOC", "hcf_id": 54 }, "geometry": { "type": "Point", "coordinates": [ -0.20209, 5.61284 ] } },
{ "type": "Feature", "properties": { "Region": "Greater Accra", "District": "Accra Metropolitan", "FacilityName": "Midway Clinic Ltd", "Type": "Hospital", "Town": "Abofu (Achimota)", "Ownership": "Private", "Latitude": 5.61731, "Longitude": -0.22646, "EmOC_Type": "Comprehensive", "Ownership_Type": "Private", "Local_Validation": "Private Comprehensive EmOC", "hcf_id": 55 }, "geometry": { "type": "Point", "coordinates": [ -0.22646, 5.61731 ] } },
{ "type": "Feature", "properties": { "Region": "Greater Accra", "District": "Ga East", "FacilityName": "Modern Atomic Clinic", "Type": "Hospital", "Town": "Atomic Road", "Ownership": "Private", "Latitude": 5.66743, "Longitude": -0.20819, "EmOC_Type": "Comprehensive", "Ownership_Type": "Private", "Local_Validation": "Private Comprehensive EmOC", "hcf_id": 56 }, "geometry": { "type": "Point", "coordinates": [ -0.20819, 5.66743 ] } },
{ "type": "Feature", "properties": { "Region": "Greater Accra", "District": "Accra Metropolitan", "FacilityName": "Motorway Clinic", "Type": "Hospital", "Town": "Abeka Lapas", "Ownership": "Private", "Latitude": 5.60616, "Longitude": -0.25137, "EmOC_Type": "Comprehensive", "Ownership_Type": "Private", "Local_Validation": "Private Comprehensive EmOC", "hcf_id": 57 }, "geometry": { "type": "Point", "coordinates": [ -0.25137, 5.60616 ] } },
{ "type": "Feature", "properties": { "Region": "Greater Accra", "District": "Accra Metropolitan", "FacilityName": "Mercy Clinic", "Type": "Hospital", "Town": "Mataheko", "Ownership": "Private", "Latitude": 5.56431, "Longitude": -0.24764, "EmOC_Type": "Comprehensive", "Ownership_Type": "Private", "Local_Validation": "Private Comprehensive EmOC", "hcf_id": 58 }, "geometry": { "type": "Point", "coordinates": [ -0.24764, 5.56431 ] } },
{ "type": "Feature", "properties": { "Region": "Greater Accra", "District": "Tema Metropolitan", "FacilityName": "Narh Bita Hospital", "Type": "Hospital", "Town": "Tema Community 4", "Ownership": "Private", "Latitude": 5.65793, "Longitude": -0.01062, "EmOC_Type": "Comprehensive", "Ownership_Type": "Private", "Local_Validation": "Private Comprehensive EmOC", "hcf_id": 59 }, "geometry": { "type": "Point", "coordinates": [ -0.01062, 5.65793 ] } },
{ "type": "Feature", "properties": { "Region": "Greater Accra", "District": "Accra Metropolitan", "FacilityName": "New Achimota Clinic", "Type": "Hospital", "Town": "New Achimota (mile 7)", "Ownership": "Private", "Latitude": 5.6293, "Longitude": -0.24781, "EmOC_Type": "Comprehensive", "Ownership_Type": "Private", "Local_Validation": "Private Comprehensive EmOC", "hcf_id": 60 }, "geometry": { "type": "Point", "coordinates": [ -0.24781, 5.6293 ] } },
{ "type": "Feature", "properties": { "Region": "Greater Accra", "District": "Accra Metropolitan", "FacilityName": "Nightingale Clinic", "Type": "Hospital", "Town": "Dansoman (Sahara)", "Ownership": "Private", "Latitude": 5.55031, "Longitude": -0.26737, "EmOC_Type": "Comprehensive", "Ownership_Type": "Private", "Local_Validation": "Private Comprehensive EmOC", "hcf_id": 61 }, "geometry": { "type": "Point", "coordinates": [ -0.26737, 5.55031 ] } },
{ "type": "Feature", "properties": { "Region": "Greater Accra", "District": "Ga East", "FacilityName": "North Legon Hospital", "Type": "Hospital", "Town": "North Legon (off Atomic Energy Road)", "Ownership": "Private", "Latitude": 5.66923, "Longitude": -0.18228, "EmOC_Type": "Comprehensive", "Ownership_Type": "Private", "Local_Validation": "Private Comprehensive EmOC", "hcf_id": 62 }, "geometry": { "type": "Point", "coordinates": [ -0.18228, 5.66923 ] } },
{ "type": "Feature", "properties": { "Region": "Greater Accra", "District": "Accra Metropolitan", "FacilityName": "North Ridge Clinic", "Type": "Hospital", "Town": "North Ridge", "Ownership": "Private", "Latitude": 5.57275, "Longitude": -0.19852, "EmOC_Type": "Comprehensive", "Ownership_Type": "Private", "Local_Validation": "Private Comprehensive EmOC", "hcf_id": 63 }, "geometry": { "type": "Point", "coordinates": [ -0.19852, 5.57275 ] } },
{ "type": "Feature", "properties": { "Region": "Greater Accra", "District": "Accra Metropolitan", "FacilityName": "Opoku Ware Clinic", "Type": "Hospital", "Town": "Dansoman", "Ownership": "Private", "Latitude": 5.56451, "Longitude": -0.27354, "EmOC_Type": "Comprehensive", "Ownership_Type": "Private", "Local_Validation": "Private Comprehensive EmOC", "hcf_id": 64 }, "geometry": { "type": "Point", "coordinates": [ -0.27354, 5.56451 ] } },
{ "type": "Feature", "properties": { "Region": "Greater Accra", "District": "Tema Metropolitan", "FacilityName": "Port Medical Centre", "Type": "Hospital", "Town": "Tema Community 1", "Ownership": "Private", "Latitude": 5.64266, "Longitude": 0.00126, "EmOC_Type": "Comprehensive", "Ownership_Type": "Private", "Local_Validation": "Private Comprehensive EmOC", "hcf_id": 65 }, "geometry": { "type": "Point", "coordinates": [ 0.00126, 5.64266 ] } },
{ "type": "Feature", "properties": { "Region": "Greater Accra", "District": "Ga East", "FacilityName": "Pantang Hospital", "Type": "Hospital", "Town": "Pantang", "Ownership": "Government", "Latitude": 5.71511, "Longitude": -0.18802, "EmOC_Type": "Comprehensive", "Ownership_Type": "Public", "Local_Validation": "Public Comprehensive EmOC", "hcf_id": 66 }, "geometry": { "type": "Point", "coordinates": [ -0.18802, 5.71511 ] } },
{ "type": "Feature", "properties": { "Region": "Greater Accra", "District": "Accra Metropolitan", "FacilityName": "PML Hospital", "Type": "Hospital", "Town": "Paladium", "Ownership": "Government", "Latitude": 5.5446, "Longitude": -0.21302, "EmOC_Type": "Comprehensive", "Ownership_Type": "Public", "Local_Validation": "Public Comprehensive EmOC", "hcf_id": 67 }, "geometry": { "type": "Point", "coordinates": [ -0.21302, 5.5446 ] } },
{ "type": "Feature", "properties": { "Region": "Greater Accra", "District": "Accra Metropolitan", "FacilityName": "Police Hospital", "Type": "Hospital", "Town": "Cantoments", "Ownership": "Quasi-Government", "Latitude": 5.56835, "Longitude": -0.18145, "EmOC_Type": "Comprehensive", "Ownership_Type": "Public", "Local_Validation": "Public Comprehensive EmOC", "hcf_id": 68 }, "geometry": { "type": "Point", "coordinates": [ -0.18145, 5.56835 ] } },
{ "type": "Feature", "properties": { "Region": "Greater Accra", "District": "Accra Metropolitan", "FacilityName": "Queen's Medical Centre", "Type": "Hospital", "Town": "Kokomlemle", "Ownership": "Private", "Latitude": 5.57571, "Longitude": -0.20762, "EmOC_Type": "Comprehensive", "Ownership_Type": "Private", "Local_Validation": "Private Comprehensive EmOC", "hcf_id": 69 }, "geometry": { "type": "Point", "coordinates": [ -0.20762, 5.57571 ] } },
{ "type": "Feature", "properties": { "Region": "Greater Accra", "District": "Ga East", "FacilityName": "Taifa Medical Centre", "Type": "Hospital", "Town": "Taifa", "Ownership": "Private", "Latitude": 5.6576, "Longitude": -0.25345, "EmOC_Type": "Comprehensive", "Ownership_Type": "Private", "Local_Validation": "Private Comprehensive EmOC", "hcf_id": 70 }, "geometry": { "type": "Point", "coordinates": [ -0.25345, 5.6576 ] } },
{ "type": "Feature", "properties": { "Region": "Greater Accra", "District": "Accra Metropolitan", "FacilityName": "Ussher Polyclinic", "Type": "Polyclinic", "Town": "James Town", "Ownership": "Government", "Latitude": 5.54038, "Longitude": -0.21294, "EmOC_Type": "Basic", "Ownership_Type": "Public", "Local_Validation": "Public Basic EmOC", "hcf_id": 71 }, "geometry": { "type": "Point", "coordinates": [ -0.21294, 5.54038 ] } },
{ "type": "Feature", "properties": { "Region": "Greater Accra", "District": "Tema Metropolitan", "FacilityName": "Provita Specialist Hospital", "Type": "Hospital", "Town": "Tema Community 6", "Ownership": "Private", "Latitude": 5.65216, "Longitude": -0.0198, "EmOC_Type": "Comprehensive", "Ownership_Type": "Private", "Local_Validation": "Private Comprehensive EmOC", "hcf_id": 72 }, "geometry": { "type": "Point", "coordinates": [ -0.0198, 5.65216 ] } },
{ "type": "Feature", "properties": { "Region": "Greater Accra", "District": "Accra Metropolitan", "FacilityName": "Ridge Hospital", "Type": "Hospital", "Town": "Ridge", "Ownership": "Government", "Latitude": 5.56238, "Longitude": -0.1987, "EmOC_Type": "Comprehensive", "Ownership_Type": "Public", "Local_Validation": "Public Comprehensive EmOC", "hcf_id": 73 }, "geometry": { "type": "Point", "coordinates": [ -0.1987, 5.56238 ] } },
{ "type": "Feature", "properties": { "Region": "Greater Accra", "District": "Tema Metropolitan", "FacilityName": "Sakumono Community Clinic", "Type": "Hospital", "Town": "Sakumano Estate", "Ownership": "Private", "Latitude": 5.62224, "Longitude": -0.06281, "EmOC_Type": "Comprehensive", "Ownership_Type": "Private", "Local_Validation": "Private Comprehensive EmOC", "hcf_id": 74 }, "geometry": { "type": "Point", "coordinates": [ -0.06281, 5.62224 ] } },
{ "type": "Feature", "properties": { "Region": "Greater Accra", "District": "Accra Metropolitan", "FacilityName": "Sape Agbo Memorial Hospital", "Type": "Hospital", "Town": "New Town", "Ownership": "Private", "Latitude": 5.59232, "Longitude": -0.20804, "EmOC_Type": "Comprehensive", "Ownership_Type": "Private", "Local_Validation": "Private Comprehensive EmOC", "hcf_id": 75 }, "geometry": { "type": "Point", "coordinates": [ -0.20804, 5.59232 ] } },
{ "type": "Feature", "properties": { "Region": "Greater Accra", "District": "Accra Metropolitan", "FacilityName": "SIC Bob Freeman Clinic", "Type": "Hospital", "Town": "Adabraka (near Goil headoffice)", "Ownership": "Quasi-Government", "Latitude": 5.55408, "Longitude": -0.20889, "EmOC_Type": "Comprehensive", "Ownership_Type": "Public", "Local_Validation": "Public Comprehensive EmOC", "hcf_id": 76 }, "geometry": { "type": "Point", "coordinates": [ -0.20889, 5.55408 ] } },
{ "type": "Feature", "properties": { "Region": "Greater Accra", "District": "Tema Metropolitan", "FacilityName": "SIC Bob Freeman Clinic", "Type": "Hospital", "Town": "Adabraka (near Goil headoffice)", "Ownership": "Quasi-Government", "Latitude": 5.55408, "Longitude": -0.20889, "EmOC_Type": "Comprehensive", "Ownership_Type": "Public", "Local_Validation": "Public Comprehensive EmOC", "hcf_id": 77 }, "geometry": { "type": "Point", "coordinates": [ -0.20889, 5.55408 ] } },
{ "type": "Feature", "properties": { "Region": "Greater Accra", "District": "Accra Metropolitan", "FacilityName": "Specialist Hospital & Family Planning Centre", "Type": "Hospital", "Town": "Dansoman (SSNIT flats)", "Ownership": "Private", "Latitude": 5.56507, "Longitude": -0.27309, "EmOC_Type": "Comprehensive", "Ownership_Type": "Private", "Local_Validation": "Private Comprehensive EmOC", "hcf_id": 78 }, "geometry": { "type": "Point", "coordinates": [ -0.27309, 5.56507 ] } },
{ "type": "Feature", "properties": { "Region": "Greater Accra", "District": "Tema Metropolitan", "FacilityName": "St Anthony's Clinic", "Type": "Hospital", "Town": "Tema Community 1", "Ownership": "Private", "Latitude": 5.64954, "Longitude": -0.00299, "EmOC_Type": "Comprehensive", "Ownership_Type": "Private", "Local_Validation": "Private Comprehensive EmOC", "hcf_id": 79 }, "geometry": { "type": "Point", "coordinates": [ -0.00299, 5.64954 ] } },
{ "type": "Feature", "properties": { "Region": "Greater Accra", "District": "Accra Metropolitan", "FacilityName": "St Mathew's Clinic", "Type": "Hospital", "Town": "New Achimota (mile 7)", "Ownership": "Private", "Latitude": 5.63286, "Longitude": -0.24057, "EmOC_Type": "Comprehensive", "Ownership_Type": "Private", "Local_Validation": "Private Comprehensive EmOC", "hcf_id": 80 }, "geometry": { "type": "Point", "coordinates": [ -0.24057, 5.63286 ] } },
{ "type": "Feature", "properties": { "Region": "Greater Accra", "District": "Tema Metropolitan", "FacilityName": "St Nicholas Hospital", "Type": "Hospital", "Town": "Tema Community 5", "Ownership": "Private", "Latitude": 5.64811, "Longitude": -0.01317, "EmOC_Type": "Comprehensive", "Ownership_Type": "Private", "Local_Validation": "Private Comprehensive EmOC", "hcf_id": 81 }, "geometry": { "type": "Point", "coordinates": [ -0.01317, 5.64811 ] } },
{ "type": "Feature", "properties": { "Region": "Greater Accra", "District": "Accra Metropolitan", "FacilityName": "Sulemana Memorial Hospital Ltd (formerly Islamic Foundation Clinic)", "Type": "Hospital", "Town": "Maamobi", "Ownership": "Private", "Latitude": 5.59448, "Longitude": -0.19546, "EmOC_Type": "Comprehensive", "Ownership_Type": "Private", "Local_Validation": "Private Comprehensive EmOC", "hcf_id": 82 }, "geometry": { "type": "Point", "coordinates": [ -0.19546, 5.59448 ] } },
{ "type": "Feature", "properties": { "Region": "Greater Accra", "District": "Tema Metropolitan", "FacilityName": "Sulemana Memorial Hospital Ltd (formerly Islamic Foundation Clinic)", "Type": "Hospital", "Town": "Maamobi", "Ownership": "Private", "Latitude": 5.59448, "Longitude": -0.19546, "EmOC_Type": "Comprehensive", "Ownership_Type": "Private", "Local_Validation": "Private Comprehensive EmOC", "hcf_id": 83 }, "geometry": { "type": "Point", "coordinates": [ -0.19546, 5.59448 ] } },
{ "type": "Feature", "properties": { "Region": "Greater Accra", "District": "Tema Metropolitan", "FacilityName": "Tema General Hospital", "Type": "Hospital", "Town": "Tema", "Ownership": "Government", "Latitude": 5.67387, "Longitude": -0.02496, "EmOC_Type": "Comprehensive", "Ownership_Type": "Public", "Local_Validation": "Public Comprehensive EmOC", "hcf_id": 84 }, "geometry": { "type": "Point", "coordinates": [ -0.02496, 5.67387 ] } },
{ "type": "Feature", "properties": { "Region": "Greater Accra", "District": "Tema Metropolitan", "FacilityName": "Tema Polyclinic", "Type": "Polyclinic", "Town": "Tema Community 2", "Ownership": "Government", "Latitude": 5.63556, "Longitude": -0.00667, "EmOC_Type": "Basic", "Ownership_Type": "Public", "Local_Validation": "Public Basic EmOC", "hcf_id": 85 }, "geometry": { "type": "Point", "coordinates": [ -0.00667, 5.63556 ] } },
{ "type": "Feature", "properties": { "Region": "Greater Accra", "District": "Tema Metropolitan", "FacilityName": "Tema Women's Hospital", "Type": "Hospital", "Town": "Tema Community 10", "Ownership": "Private", "Latitude": 5.6656, "Longitude": -0.01902, "EmOC_Type": "Comprehensive", "Ownership_Type": "Private", "Local_Validation": "Private Comprehensive EmOC", "hcf_id": 86 }, "geometry": { "type": "Point", "coordinates": [ -0.01902, 5.6656 ] } },
{ "type": "Feature", "properties": { "Region": "Greater Accra", "District": "Accra Metropolitan", "FacilityName": "The Rock Hospital", "Type": "Hospital", "Town": "Odorkor", "Ownership": "Private", "Latitude": 5.58483, "Longitude": -0.2627, "EmOC_Type": "Comprehensive", "Ownership_Type": "Private", "Local_Validation": "Private Comprehensive EmOC", "hcf_id": 87 }, "geometry": { "type": "Point", "coordinates": [ -0.2627, 5.58483 ] } },
{ "type": "Feature", "properties": { "Region": "Greater Accra", "District": "Accra Metropolitan", "FacilityName": "Trust Hospital (SSNIT Hospital)", "Type": "Hospital", "Town": "Osu", "Ownership": "Quasi-Government", "Latitude": 5.56244, "Longitude": -0.18174, "EmOC_Type": "Comprehensive", "Ownership_Type": "Public", "Local_Validation": "Public Comprehensive EmOC", "hcf_id": 88 }, "geometry": { "type": "Point", "coordinates": [ -0.18174, 5.56244 ] } },
{ "type": "Feature", "properties": { "Region": "Greater Accra", "District": "Accra Metropolitan", "FacilityName": "Unicorn Memorial Clinic", "Type": "Hospital", "Town": "Teshie", "Ownership": "Private", "Latitude": 5.57818, "Longitude": -0.11181, "EmOC_Type": "Comprehensive", "Ownership_Type": "Private", "Local_Validation": "Private Comprehensive EmOC", "hcf_id": 89 }, "geometry": { "type": "Point", "coordinates": [ -0.11181, 5.57818 ] } },
{ "type": "Feature", "properties": { "Region": "Greater Accra", "District": "Accra Metropolitan", "FacilityName": "University Hospital (Legon Hospital)", "Type": "Hospital", "Town": "Legon", "Ownership": "Quasi-Government", "Latitude": 5.65141, "Longitude": -0.17794, "EmOC_Type": "Comprehensive", "Ownership_Type": "Public", "Local_Validation": "Public Comprehensive EmOC", "hcf_id": 90 }, "geometry": { "type": "Point", "coordinates": [ -0.17794, 5.65141 ] } },
{ "type": "Feature", "properties": { "Region": "Greater Accra", "District": "Tema Metropolitan", "FacilityName": "Valco Hospital", "Type": "Hospital", "Town": "Tema Heavy Industrial Town", "Ownership": "Private", "Latitude": 5.66886, "Longitude": 0.03468, "EmOC_Type": "Comprehensive", "Ownership_Type": "Private", "Local_Validation": "Private Comprehensive EmOC", "hcf_id": 91 }, "geometry": { "type": "Point", "coordinates": [ 0.03468, 5.66886 ] } },
{ "type": "Feature", "properties": { "Region": "Greater Accra", "District": "Accra Metropolitan", "FacilityName": "Vicon Specialist Hospital / Mat home", "Type": "Hospital", "Town": "Dansoman (Sahara)", "Ownership": "Private", "Latitude": 5.5518, "Longitude": -0.26671, "EmOC_Type": "Comprehensive", "Ownership_Type": "Private", "Local_Validation": "Private Comprehensive EmOC", "hcf_id": 92 }, "geometry": { "type": "Point", "coordinates": [ -0.26671, 5.5518 ] } },
{ "type": "Feature", "properties": { "Region": "Greater Accra", "District": "Accra Metropolitan", "FacilityName": "Twumasi-Waah Memorial Hospital", "Type": "Hospital", "Town": "East Legon (before America house road)", "Ownership": "Private", "Latitude": 5.580728, "Longitude": -0.210467, "EmOC_Type": "Comprehensive", "Ownership_Type": "Private", "Local_Validation": "Private Comprehensive EmOC", "hcf_id": 93 }, "geometry": { "type": "Point", "coordinates": [ -0.210467, 5.580728 ] } },
{ "type": "Feature", "properties": { "Region": "Greater Accra", "District": "Accra Metropolitan", "FacilityName": "Family Health Ltd.", "Type": "Hospital", "Town": "Teshie", "Ownership": "Private", "Latitude": 5.580728, "Longitude": -0.210467, "EmOC_Type": "Comprehensive", "Ownership_Type": "Private", "Local_Validation": "Private Comprehensive EmOC", "hcf_id": 94 }, "geometry": { "type": "Point", "coordinates": [ -0.210467, 5.580728 ] } },
{ "type": "Feature", "properties": { "Region": "Greater Accra", "District": "Accra Metropolitan", "FacilityName": "C & J Medicare", "Type": "Hospital", "Town": "Tudu", "Ownership": "Private", "Latitude": 5.580728, "Longitude": -0.210467, "EmOC_Type": "Comprehensive", "Ownership_Type": "Private", "Local_Validation": "Private Comprehensive EmOC", "hcf_id": 95 }, "geometry": { "type": "Point", "coordinates": [ -0.210467, 5.580728 ] } },
{ "type": "Feature", "properties": { "Region": "Greater Accra", "District": "Accra Metropolitan", "FacilityName": "Obenfo Hospital", "Type": "Hospital", "Town": "Mataheko", "Ownership": "Private", "Latitude": 5.580728, "Longitude": -0.210467, "EmOC_Type": "Comprehensive", "Ownership_Type": "Private", "Local_Validation": "Private Comprehensive EmOC", "hcf_id": 96 }, "geometry": { "type": "Point", "coordinates": [ -0.210467, 5.580728 ] } },
{ "type": "Feature", "properties": { "Region": "Greater Accra", "District": "Accra Metropolitan", "FacilityName": "Achimota Hospital", "Type": "Hospital", "Town": "Achimota", "Ownership": "Government", "Latitude": 5.580728, "Longitude": -0.210467, "EmOC_Type": "Comprehensive", "Ownership_Type": "Public", "Local_Validation": "Public Comprehensive EmOC", "hcf_id": 97 }, "geometry": { "type": "Point", "coordinates": [ -0.210467, 5.580728 ] } },
{ "type": "Feature", "properties": { "Region": "Greater Accra", "District": "Ga East", "FacilityName": "Van Medical Centre", "Type": "Hospital", "Town": "Ashongman", "Ownership": "Private", "Latitude": 5.708873, "Longitude": -0.2432307, "EmOC_Type": "Comprehensive", "Ownership_Type": "Private", "Local_Validation": "Private Comprehensive EmOC", "hcf_id": 98 }, "geometry": { "type": "Point", "coordinates": [ -0.2432307, 5.708873 ] } },
{ "type": "Feature", "properties": { "Region": "Greater Accra", "District": "Ga East", "FacilityName": "Jilac Specialist Hospital", "Type": "Hospital", "Town": "Dome", "Ownership": "Private", "Latitude": 5.708873, "Longitude": -0.2432307, "EmOC_Type": "Comprehensive", "Ownership_Type": "Private", "Local_Validation": "Private Comprehensive EmOC", "hcf_id": 99 }, "geometry": { "type": "Point", "coordinates": [ -0.2432307, 5.708873 ] } },
{ "type": "Feature", "properties": { "Region": "Greater Accra", "District": "Ga West", "FacilityName": "Holy Dove Hospital", "Type": "Hospital", "Town": "New Achimota", "Ownership": "Private", "Latitude": 5.708873, "Longitude": -0.2432307, "EmOC_Type": "Comprehensive", "Ownership_Type": "Private", "Local_Validation": "Private Comprehensive EmOC", "hcf_id": 100 }, "geometry": { "type": "Point", "coordinates": [ -0.2432307, 5.708873 ] } }
]
}
