{
"type": "FeatureCollection",
"name": "healthcare_facillities_kisumu_general",
"crs": { "type": "name", "properties": { "name": "urn:ogc:def:crs:OGC:1.3:CRS84" } },
"features": [
{ "type": "Feature", "properties": { "Field_1": "Kenya", "Admin_1": "Kisumu", "facility_name": "Kowino Dispensary", "facility_type": "Dispensary", "owner_type_name": "Ministry of Health", "latitude": -0.11378, "longitude": 34.7688, "Sub_Couinty": "Kisumu East", "LL_Source": "KMHFR", "ward_name": "Kolwa East", "keph_level_name": "Level 2", "Operating_Time": "24 Hours", "total_ inpatient_beds": 0, "general_inpatient_beds": 0, "cots": 0, "maternity_beds": 0, "emergency_casualty_beds": 0, "intensive_care_unit_beds": false, "high_dependancy_unit_beds": false, "isolation_beds": false, "general_theatres": false, "maternity_theatres": 0, "minor_theatres": false, "eye_theatres": false, "Out_reach_services": false, "NHIF_accreditation": false, "Accidents and Emergency Casualty Services": "NO", "Ambulatory Services": "NO", "Antenatal Care": "YES", "Blood Services": "NO", "Cancer screening": "YES", "Central Sterile Services Department": "NO", "Curative Services": "YES", "Dental services": "NO", "Emergency Preparedness": "NO", "Family Planning": "YES", "Forensic Services": "NO", "High Dependancy Services": "NO", "HIV/ADS Prevention And Care Services": "YES", "ICU services": "NO", "Immunization": "NO", "Inpatient Services": "NO", "Intergrated Immunization": "YES", "Integrated Management Of Childhood Illness": "YES", "Laboratory Services": "NO", "Leprosy Treatment": "NO", "Maternity Services": "NO", "BMoc": "NO", "CeMoc": "NO", "Mental Health Services": "NO", "Mortuary Services": "NO", "Newborn Care Services": "NO", "Nutrition Services": "NO", "Occupational Therapy": "NO", "Oncology Services": "NO", "Opthalmic Services": "NO", "Othopaedic Technology Services": "NO", "Pharmacy services": "NO", "Physiotherapy": "NO", "Postnatal Care Services": "NO", "Radiology and Imaging": "NO", "Rehabilitation Services": "NO", "Renal services": "NO", "Services for Gender Based Violence Survivors": "NO", "Specialized IN-Patient Services": "NO", "Specialized Outpatient Clinic": "NO", "Theatre Services": "NO", "Tuberculosis Diagnosis": "YES", "Youth Friendly Services": "NO" }, "geometry": { "type": "Point", "coordinates": [ 34.7688, -0.11378 ] } },
{ "type": "Feature", "properties": { "Field_1": "Kenya", "Admin_1": "Kisumu", "facility_name": "Simba Opepo Health Centre", "facility_type": "Basic Health Centre", "owner_type_name": "Ministry of Health", "latitude": -0.0475, "longitude": 34.79305, "Sub_Couinty": "Kisumu East", "LL_Source": "KMHFR", "ward_name": "Kajulu", "keph_level_name": "Level 3", "Operating_Time": "24 Hours", "total_ inpatient_beds": 0, "general_inpatient_beds": 0, "cots": 0, "maternity_beds": 0, "emergency_casualty_beds": 0, "intensive_care_unit_beds": false, "high_dependancy_unit_beds": false, "isolation_beds": false, "general_theatres": false, "maternity_theatres": 0, "minor_theatres": false, "eye_theatres": false, "Out_reach_services": false, "NHIF_accreditation": false, "Accidents and Emergency Casualty Services": "NO", "Ambulatory Services": "NO", "Antenatal Care": "YES", "Blood Services": "NO", "Cancer screening": "YES", "Central Sterile Services Department": "NO", "Curative Services": "YES", "Dental services": "NO", "Emergency Preparedness": "NO", "Family Planning": "YES", "Forensic Services": "NO", "High Dependancy Services": "NO", "HIV/ADS Prevention And Care Services": "YES", "ICU services": "NO", "Immunization": "NO", "Inpatient Services": "NO", "Intergrated Immunization": "YES", "Integrated Management Of Childhood Illness": "YES", "Laboratory Services": "NO", "Leprosy Treatment": "NO", "Maternity Services": "NO", "BMoc": "NO", "CeMoc": "NO", "Mental Health Services": "NO", "Mortuary Services": "NO", "Newborn Care Services": "NO", "Nutrition Services": "YES", "Occupational Therapy": "NO", "Oncology Services": "NO", "Opthalmic Services": "NO", "Othopaedic Technology Services": "NO", "Pharmacy services": "NO", "Physiotherapy": "NO", "Postnatal Care Services": "NO", "Radiology and Imaging": "NO", "Rehabilitation Services": "NO", "Renal services": "NO", "Services for Gender Based Violence Survivors": "NO", "Specialized IN-Patient Services": "NO", "Specialized Outpatient Clinic": "NO", "Theatre Services": "NO", "Tuberculosis Diagnosis": "NO", "Youth Friendly Services": "NO" }, "geometry": { "type": "Point", "coordinates": [ 34.79305, -0.0475 ] } },
{ "type": "Feature", "properties": { "Field_1": "Kenya", "Admin_1": "Kisumu", "facility_name": "Kuoyo Health Center", "facility_type": "Basic Health Centre", "owner_type_name": "Ministry of Health", "latitude": -0.10234, "longitude": 34.78287, "Sub_Couinty": "Kisumu East", "LL_Source": "KMHFR", "ward_name": "Manyatta B", "keph_level_name": "Level 3", "Operating_Time": "24 Hours", "total_ inpatient_beds": 1, "general_inpatient_beds": 0, "cots": 0, "maternity_beds": 0, "emergency_casualty_beds": 0, "intensive_care_unit_beds": false, "high_dependancy_unit_beds": false, "isolation_beds": false, "general_theatres": false, "maternity_theatres": 0, "minor_theatres": false, "eye_theatres": false, "Out_reach_services": false, "NHIF_accreditation": false, "Accidents and Emergency Casualty Services": "NO", "Ambulatory Services": "NO", "Antenatal Care": "YES", "Blood Services": "NO", "Cancer screening": "NO", "Central Sterile Services Department": "NO", "Curative Services": "YES", "Dental services": "NO", "Emergency Preparedness": "YES", "Family Planning": "YES", "Forensic Services": "NO", "High Dependancy Services": "NO", "HIV/ADS Prevention And Care Services": "YES", "ICU services": "NO", "Immunization": "NO", "Inpatient Services": "NO", "Intergrated Immunization": "YES", "Integrated Management Of Childhood Illness": "YES", "Laboratory Services": "NO", "Leprosy Treatment": "NO", "Maternity Services": "NO", "BMoc": "NO", "CeMoc": "NO", "Mental Health Services": "NO", "Mortuary Services": "NO", "Newborn Care Services": "NO", "Nutrition Services": "YES", "Occupational Therapy": "NO", "Oncology Services": "NO", "Opthalmic Services": "NO", "Othopaedic Technology Services": "NO", "Pharmacy services": "NO", "Physiotherapy": "NO", "Postnatal Care Services": "NO", "Radiology and Imaging": "NO", "Rehabilitation Services": "NO", "Renal services": "NO", "Services for Gender Based Violence Survivors": "NO", "Specialized IN-Patient Services": "NO", "Specialized Outpatient Clinic": "NO", "Theatre Services": "NO", "Tuberculosis Diagnosis": "NO", "Youth Friendly Services": "NO" }, "geometry": { "type": "Point", "coordinates": [ 34.78287, -0.10234 ] } },
{ "type": "Feature", "properties": { "Field_1": "Kenya", "Admin_1": "Kisumu", "facility_name": "Gita Sub County Hospital", "facility_type": "Primary care hospitals", "owner_type_name": "Ministry of Health", "latitude": -0.02786, "longitude": 34.79057, "Sub_Couinty": "Kisumu East", "LL_Source": "KMHFR", "ward_name": "Kajulu", "keph_level_name": "Level 4", "Operating_Time": "24 Hours", "total_ inpatient_beds": 27, "general_inpatient_beds": 0, "cots": 2, "maternity_beds": 0, "emergency_casualty_beds": 0, "intensive_care_unit_beds": false, "high_dependancy_unit_beds": false, "isolation_beds": false, "general_theatres": false, "maternity_theatres": 0, "minor_theatres": false, "eye_theatres": false, "Out_reach_services": false, "NHIF_accreditation": false, "Accidents and Emergency Casualty Services": "YES", "Ambulatory Services": "YES", "Antenatal Care": "YES", "Blood Services": "NO", "Cancer screening": "YES", "Central Sterile Services Department": "NO", "Curative Services": "YES", "Dental services": "NO", "Emergency Preparedness": "YES", "Family Planning": "YES", "Forensic Services": "NO", "High Dependancy Services": "NO", "HIV/ADS Prevention And Care Services": "YES", "ICU services": "NO", "Immunization": "NO", "Inpatient Services": "NO", "Intergrated Immunization": "YES", "Integrated Management Of Childhood Illness": "YES", "Laboratory Services": "NO", "Leprosy Treatment": "NO", "Maternity Services": "YES", "BMoc": "YES", "CeMoc": "NO", "Mental Health Services": "NO", "Mortuary Services": "NO", "Newborn Care Services": "YES", "Nutrition Services": "YES", "Occupational Therapy": "YES", "Oncology Services": "NO", "Opthalmic Services": "NO", "Othopaedic Technology Services": "NO", "Pharmacy services": "NO", "Physiotherapy": "YES", "Postnatal Care Services": "NO", "Radiology and Imaging": "NO", "Rehabilitation Services": "NO", "Renal services": "NO", "Services for Gender Based Violence Survivors": "YES", "Specialized IN-Patient Services": "NO", "Specialized Outpatient Clinic": "NO", "Theatre Services": "NO", "Tuberculosis Diagnosis": "NO", "Youth Friendly Services": "NO" }, "geometry": { "type": "Point", "coordinates": [ 34.79057, -0.02786 ] } },
{ "type": "Feature", "properties": { "Field_1": "Kenya", "Admin_1": "Kisumu", "facility_name": "Nyalunya Health Centre", "facility_type": "Basic Health Centre", "owner_type_name": "Ministry of Health", "latitude": -0.11746, "longitude": 34.80916, "Sub_Couinty": "Kisumu East", "LL_Source": "KMHFR", "ward_name": "Kolwa Central", "keph_level_name": "Level 3", "Operating_Time": "24 Hours", "total_ inpatient_beds": 4, "general_inpatient_beds": 0, "cots": 0, "maternity_beds": 0, "emergency_casualty_beds": 0, "intensive_care_unit_beds": false, "high_dependancy_unit_beds": false, "isolation_beds": false, "general_theatres": false, "maternity_theatres": 0, "minor_theatres": false, "eye_theatres": false, "Out_reach_services": false, "NHIF_accreditation": false, "Accidents and Emergency Casualty Services": "NO", "Ambulatory Services": "NO", "Antenatal Care": "YES", "Blood Services": "NO", "Cancer screening": "NO", "Central Sterile Services Department": "NO", "Curative Services": "YES", "Dental services": "NO", "Emergency Preparedness": "YES", "Family Planning": "YES", "Forensic Services": "NO", "High Dependancy Services": "NO", "HIV/ADS Prevention And Care Services": "YES", "ICU services": "NO", "Immunization": "YES", "Inpatient Services": "NO", "Intergrated Immunization": "YES", "Integrated Management Of Childhood Illness": "YES", "Laboratory Services": "NO", "Leprosy Treatment": "NO", "Maternity Services": "YES", "BMoc": "YES", "CeMoc": "NO", "Mental Health Services": "NO", "Mortuary Services": "NO", "Newborn Care Services": "NO", "Nutrition Services": "YES", "Occupational Therapy": "NO", "Oncology Services": "NO", "Opthalmic Services": "NO", "Othopaedic Technology Services": "NO", "Pharmacy services": "NO", "Physiotherapy": "NO", "Postnatal Care Services": "YES", "Radiology and Imaging": "NO", "Rehabilitation Services": "NO", "Renal services": "NO", "Services for Gender Based Violence Survivors": "NO", "Specialized IN-Patient Services": "NO", "Specialized Outpatient Clinic": "NO", "Theatre Services": "NO", "Tuberculosis Diagnosis": "YES", "Youth Friendly Services": "YES" }, "geometry": { "type": "Point", "coordinates": [ 34.80916, -0.11746 ] } },
{ "type": "Feature", "properties": { "Field_1": "Kenya", "Admin_1": "Kisumu", "facility_name": "Kotunga Dispensary", "facility_type": "Dispensary", "owner_type_name": "Ministry of Health", "latitude": -0.06186, "longitude": 34.81239, "Sub_Couinty": "Kisumu East", "LL_Source": "KMHFR", "ward_name": "Kajulu", "keph_level_name": "Level 2", "Operating_Time": "24 Hours", "total_ inpatient_beds": 0, "general_inpatient_beds": 0, "cots": 0, "maternity_beds": 0, "emergency_casualty_beds": 0, "intensive_care_unit_beds": false, "high_dependancy_unit_beds": false, "isolation_beds": false, "general_theatres": false, "maternity_theatres": 0, "minor_theatres": false, "eye_theatres": false, "Out_reach_services": false, "NHIF_accreditation": false, "Accidents and Emergency Casualty Services": "NO", "Ambulatory Services": "NO", "Antenatal Care": "YES", "Blood Services": "NO", "Cancer screening": "YES", "Central Sterile Services Department": "NO", "Curative Services": "YES", "Dental services": "NO", "Emergency Preparedness": "NO", "Family Planning": "YES", "Forensic Services": "NO", "High Dependancy Services": "NO", "HIV/ADS Prevention And Care Services": "YES", "ICU services": "NO", "Immunization": "NO", "Inpatient Services": "NO", "Intergrated Immunization": "YES", "Integrated Management Of Childhood Illness": "YES", "Laboratory Services": "NO", "Leprosy Treatment": "NO", "Maternity Services": "NO", "BMoc": "NO", "CeMoc": "NO", "Mental Health Services": "NO", "Mortuary Services": "NO", "Newborn Care Services": "NO", "Nutrition Services": "NO", "Occupational Therapy": "NO", "Oncology Services": "NO", "Opthalmic Services": "NO", "Othopaedic Technology Services": "NO", "Pharmacy services": "NO", "Physiotherapy": "NO", "Postnatal Care Services": "NO", "Radiology and Imaging": "NO", "Rehabilitation Services": "NO", "Renal services": "NO", "Services for Gender Based Violence Survivors": "NO", "Specialized IN-Patient Services": "NO", "Specialized Outpatient Clinic": "NO", "Theatre Services": "NO", "Tuberculosis Diagnosis": "NO", "Youth Friendly Services": "NO" }, "geometry": { "type": "Point", "coordinates": [ 34.81239, -0.06186 ] } },
{ "type": "Feature", "properties": { "Field_1": "Kenya", "Admin_1": "Kisumu", "facility_name": "GK Prisons Dispensary (Kibos)", "facility_type": "Dispensary", "owner_type_name": "Ministry of Health", "latitude": -0.07176, "longitude": 34.8209, "Sub_Couinty": "Kisumu East", "LL_Source": "KMHFR", "ward_name": "Kolwa East", "keph_level_name": "Level 2", "Operating_Time": "24 Hours", "total_ inpatient_beds": 0, "general_inpatient_beds": 0, "cots": 0, "maternity_beds": 0, "emergency_casualty_beds": 0, "intensive_care_unit_beds": false, "high_dependancy_unit_beds": false, "isolation_beds": false, "general_theatres": false, "maternity_theatres": 0, "minor_theatres": false, "eye_theatres": false, "Out_reach_services": false, "NHIF_accreditation": false, "Accidents and Emergency Casualty Services": "NO", "Ambulatory Services": "NO", "Antenatal Care": "YES", "Blood Services": "NO", "Cancer screening": "YES", "Central Sterile Services Department": "NO", "Curative Services": "YES", "Dental services": "NO", "Emergency Preparedness": "NO", "Family Planning": "YES", "Forensic Services": "NO", "High Dependancy Services": "NO", "HIV/ADS Prevention And Care Services": "YES", "ICU services": "NO", "Immunization": "NO", "Inpatient Services": "NO", "Intergrated Immunization": "YES", "Integrated Management Of Childhood Illness": "YES", "Laboratory Services": "YES", "Leprosy Treatment": "NO", "Maternity Services": "NO", "BMoc": "NO", "CeMoc": "NO", "Mental Health Services": "NO", "Mortuary Services": "NO", "Newborn Care Services": "NO", "Nutrition Services": "NO", "Occupational Therapy": "NO", "Oncology Services": "NO", "Opthalmic Services": "NO", "Othopaedic Technology Services": "NO", "Pharmacy services": "NO", "Physiotherapy": "NO", "Postnatal Care Services": "NO", "Radiology and Imaging": "NO", "Rehabilitation Services": "NO", "Renal services": "NO", "Services for Gender Based Violence Survivors": "NO", "Specialized IN-Patient Services": "NO", "Specialized Outpatient Clinic": "NO", "Theatre Services": "NO", "Tuberculosis Diagnosis": "NO", "Youth Friendly Services": "NO" }, "geometry": { "type": "Point", "coordinates": [ 34.8209, -0.07176 ] } },
{ "type": "Feature", "properties": { "Field_1": "Kenya", "Admin_1": "Kisumu", "facility_name": "Kibos Sugar Research Dispensary", "facility_type": "Dispensary", "owner_type_name": "Ministry of Health", "latitude": -0.03391, "longitude": 34.80346, "Sub_Couinty": "Kisumu East", "LL_Source": "KMHFR", "ward_name": "Kajulu", "keph_level_name": "Level 2", "Operating_Time": "24 Hours", "total_ inpatient_beds": 0, "general_inpatient_beds": 0, "cots": 0, "maternity_beds": 0, "emergency_casualty_beds": 0, "intensive_care_unit_beds": false, "high_dependancy_unit_beds": false, "isolation_beds": false, "general_theatres": false, "maternity_theatres": 0, "minor_theatres": false, "eye_theatres": false, "Out_reach_services": false, "NHIF_accreditation": false, "Accidents and Emergency Casualty Services": "NO", "Ambulatory Services": "NO", "Antenatal Care": "YES", "Blood Services": "NO", "Cancer screening": "YES", "Central Sterile Services Department": "NO", "Curative Services": "YES", "Dental services": "NO", "Emergency Preparedness": "YES", "Family Planning": "YES", "Forensic Services": "NO", "High Dependancy Services": "NO", "HIV/ADS Prevention And Care Services": "YES", "ICU services": "NO", "Immunization": "NO", "Inpatient Services": "NO", "Intergrated Immunization": "YES", "Integrated Management Of Childhood Illness": "YES", "Laboratory Services": "NO", "Leprosy Treatment": "NO", "Maternity Services": "YES", "BMoc": "YES", "CeMoc": "NO", "Mental Health Services": "NO", "Mortuary Services": "NO", "Newborn Care Services": "NO", "Nutrition Services": "NO", "Occupational Therapy": "NO", "Oncology Services": "NO", "Opthalmic Services": "NO", "Othopaedic Technology Services": "NO", "Pharmacy services": "NO", "Physiotherapy": "NO", "Postnatal Care Services": "NO", "Radiology and Imaging": "NO", "Rehabilitation Services": "NO", "Renal services": "NO", "Services for Gender Based Violence Survivors": "NO", "Specialized IN-Patient Services": "NO", "Specialized Outpatient Clinic": "NO", "Theatre Services": "NO", "Tuberculosis Diagnosis": "NO", "Youth Friendly Services": "NO" }, "geometry": { "type": "Point", "coordinates": [ 34.80346, -0.03391 ] } },
{ "type": "Feature", "properties": { "Field_1": "Kenya", "Admin_1": "Kisumu", "facility_name": "Orongo Dispensary", "facility_type": "Dispensary", "owner_type_name": "Ministry of Health", "latitude": -0.14325, "longitude": 34.78876, "Sub_Couinty": "Kisumu East", "LL_Source": "KMHFR", "ward_name": "Kolwa East", "keph_level_name": "Level 2", "Operating_Time": "24 Hours", "total_ inpatient_beds": 0, "general_inpatient_beds": 0, "cots": 0, "maternity_beds": 0, "emergency_casualty_beds": 0, "intensive_care_unit_beds": false, "high_dependancy_unit_beds": false, "isolation_beds": false, "general_theatres": false, "maternity_theatres": 0, "minor_theatres": false, "eye_theatres": false, "Out_reach_services": false, "NHIF_accreditation": false, "Accidents and Emergency Casualty Services": "N/A", "Ambulatory Services": "N/A", "Antenatal Care": "N/A", "Blood Services": "N/A", "Cancer screening": "N/A", "Central Sterile Services Department": "N/A", "Curative Services": "N/A", "Dental services": "N/A", "Emergency Preparedness": "N/A", "Family Planning": "N/A", "Forensic Services": "N/A", "High Dependancy Services": "N/A", "HIV/ADS Prevention And Care Services": "N/A", "ICU services": "N/A", "Immunization": "N/A", "Inpatient Services": "N/A", "Intergrated Immunization": "N/A", "Integrated Management Of Childhood Illness": "N/A", "Laboratory Services": "N/A", "Leprosy Treatment": "N/A", "Maternity Services": "N/A", "BMoc": "N/A", "CeMoc": "N/A", "Mental Health Services": "N/A", "Mortuary Services": "N/A", "Newborn Care Services": "N/A", "Nutrition Services": "N/A", "Occupational Therapy": "N/A", "Oncology Services": "N/A", "Opthalmic Services": "N/A", "Othopaedic Technology Services": "N/A", "Pharmacy services": "N/A", "Physiotherapy": "N/A", "Postnatal Care Services": "N/A", "Radiology and Imaging": "N/A", "Rehabilitation Services": "N/A", "Renal services": "N/A", "Services for Gender Based Violence Survivors": "N/A", "Specialized IN-Patient Services": "N/A", "Specialized Outpatient Clinic": "N/A", "Theatre Services": "N/A", "Tuberculosis Diagnosis": "N/A", "Youth Friendly Services": "N/A" }, "geometry": { "type": "Point", "coordinates": [ 34.78876, -0.14325 ] } },
{ "type": "Feature", "properties": { "Field_1": "Kenya", "Admin_1": "Kisumu", "facility_name": "Kisumu County Referral Hospital", "facility_type": "Primary care hospitals", "owner_type_name": "Ministry of Health", "latitude": -0.08661, "longitude": 34.76615, "Sub_Couinty": "Kisumu Central", "LL_Source": "KMHFR", "ward_name": "Market Milimani", "keph_level_name": "Level 4", "Operating_Time": "24 Hours", "total_ inpatient_beds": 0, "general_inpatient_beds": 0, "cots": 5, "maternity_beds": 0, "emergency_casualty_beds": 0, "intensive_care_unit_beds": false, "high_dependancy_unit_beds": false, "isolation_beds": false, "general_theatres": false, "maternity_theatres": 0, "minor_theatres": false, "eye_theatres": false, "Out_reach_services": false, "NHIF_accreditation": false, "Accidents and Emergency Casualty Services": "YES", "Ambulatory Services": "YES", "Antenatal Care": "YES", "Blood Services": "YES", "Cancer screening": "NO", "Central Sterile Services Department": "NO", "Curative Services": "YES", "Dental services": "YES", "Emergency Preparedness": "YES", "Family Planning": "YES", "Forensic Services": "YES", "High Dependancy Services": "NO", "HIV/ADS Prevention And Care Services": "YES", "ICU services": "NO", "Immunization": "YES", "Inpatient Services": "NO", "Intergrated Immunization": "YES", "Integrated Management Of Childhood Illness": "YES", "Laboratory Services": "YES", "Leprosy Treatment": "YES", "Maternity Services": "YES", "BMoc": "NO", "CeMoc": "YES", "Mental Health Services": "YES", "Mortuary Services": "YES", "Newborn Care Services": "YES", "Nutrition Services": "NO", "Occupational Therapy": "YES", "Oncology Services": "YES", "Opthalmic Services": "NO", "Othopaedic Technology Services": "YES", "Pharmacy services": "YES", "Physiotherapy": "YES", "Postnatal Care Services": "YES", "Radiology and Imaging": "YES", "Rehabilitation Services": "NO", "Renal services": "NO", "Services for Gender Based Violence Survivors": "YES", "Specialized IN-Patient Services": "NO", "Specialized Outpatient Clinic": "YES", "Theatre Services": "YES", "Tuberculosis Diagnosis": "YES", "Youth Friendly Services": "YES" }, "geometry": { "type": "Point", "coordinates": [ 34.76615, -0.08661 ] } },
{ "type": "Feature", "properties": { "Field_1": "Kenya", "Admin_1": "Kisumu", "facility_name": "Police Lines Dispensary(Kisumu)", "facility_type": "Dispensary", "owner_type_name": "Ministry of Health", "latitude": -0.10094, "longitude": 34.76092, "Sub_Couinty": "Kisumu Central", "LL_Source": "KMHFR", "ward_name": "Market Milimani", "keph_level_name": "Level 2", "Operating_Time": "24 Hours", "total_ inpatient_beds": 0, "general_inpatient_beds": 0, "cots": 0, "maternity_beds": 0, "emergency_casualty_beds": 0, "intensive_care_unit_beds": false, "high_dependancy_unit_beds": false, "isolation_beds": false, "general_theatres": false, "maternity_theatres": 0, "minor_theatres": false, "eye_theatres": false, "Out_reach_services": false, "NHIF_accreditation": false, "Accidents and Emergency Casualty Services": "N/A", "Ambulatory Services": "N/A", "Antenatal Care": "N/A", "Blood Services": "N/A", "Cancer screening": "N/A", "Central Sterile Services Department": "N/A", "Curative Services": "N/A", "Dental services": "N/A", "Emergency Preparedness": "N/A", "Family Planning": "N/A", "Forensic Services": "N/A", "High Dependancy Services": "N/A", "HIV/ADS Prevention And Care Services": "N/A", "ICU services": "N/A", "Immunization": "N/A", "Inpatient Services": "N/A", "Intergrated Immunization": "N/A", "Integrated Management Of Childhood Illness": "N/A", "Laboratory Services": "N/A", "Leprosy Treatment": "N/A", "Maternity Services": "N/A", "BMoc": "N/A", "CeMoc": "N/A", "Mental Health Services": "N/A", "Mortuary Services": "N/A", "Newborn Care Services": "N/A", "Nutrition Services": "N/A", "Occupational Therapy": "N/A", "Oncology Services": "N/A", "Opthalmic Services": "N/A", "Othopaedic Technology Services": "N/A", "Pharmacy services": "N/A", "Physiotherapy": "N/A", "Postnatal Care Services": "N/A", "Radiology and Imaging": "N/A", "Rehabilitation Services": "N/A", "Renal services": "N/A", "Services for Gender Based Violence Survivors": "N/A", "Specialized IN-Patient Services": "N/A", "Specialized Outpatient Clinic": "N/A", "Theatre Services": "N/A", "Tuberculosis Diagnosis": "N/A", "Youth Friendly Services": "N/A" }, "geometry": { "type": "Point", "coordinates": [ 34.76092, -0.10094 ] } },
{ "type": "Feature", "properties": { "Field_1": "Kenya", "Admin_1": "Kisumu", "facility_name": "Maseno University Aids Control Unit(Kisumu Town Campus)", "facility_type": "VCT", "owner_type_name": "Ministry of Health", "latitude": -0.10749, "longitude": 34.75231, "Sub_Couinty": "Kisumu Central", "LL_Source": "KMHFR", "ward_name": "Market Milimani", "keph_level_name": "Level 2", "Operating_Time": "24 Hours", "total_ inpatient_beds": 0, "general_inpatient_beds": 0, "cots": 0, "maternity_beds": 0, "emergency_casualty_beds": 0, "intensive_care_unit_beds": false, "high_dependancy_unit_beds": false, "isolation_beds": false, "general_theatres": false, "maternity_theatres": 0, "minor_theatres": false, "eye_theatres": false, "Out_reach_services": false, "NHIF_accreditation": false, "Accidents and Emergency Casualty Services": "N/A", "Ambulatory Services": "N/A", "Antenatal Care": "N/A", "Blood Services": "N/A", "Cancer screening": "N/A", "Central Sterile Services Department": "N/A", "Curative Services": "N/A", "Dental services": "N/A", "Emergency Preparedness": "N/A", "Family Planning": "N/A", "Forensic Services": "N/A", "High Dependancy Services": "N/A", "HIV/ADS Prevention And Care Services": "N/A", "ICU services": "N/A", "Immunization": "N/A", "Inpatient Services": "N/A", "Intergrated Immunization": "N/A", "Integrated Management Of Childhood Illness": "N/A", "Laboratory Services": "N/A", "Leprosy Treatment": "N/A", "Maternity Services": "N/A", "BMoc": "N/A", "CeMoc": "N/A", "Mental Health Services": "N/A", "Mortuary Services": "N/A", "Newborn Care Services": "N/A", "Nutrition Services": "N/A", "Occupational Therapy": "N/A", "Oncology Services": "N/A", "Opthalmic Services": "N/A", "Othopaedic Technology Services": "N/A", "Pharmacy services": "N/A", "Physiotherapy": "N/A", "Postnatal Care Services": "N/A", "Radiology and Imaging": "N/A", "Rehabilitation Services": "N/A", "Renal services": "N/A", "Services for Gender Based Violence Survivors": "N/A", "Specialized IN-Patient Services": "N/A", "Specialized Outpatient Clinic": "N/A", "Theatre Services": "N/A", "Tuberculosis Diagnosis": "N/A", "Youth Friendly Services": "N/A" }, "geometry": { "type": "Point", "coordinates": [ 34.75231, -0.10749 ] } },
{ "type": "Feature", "properties": { "Field_1": "Kenya", "Admin_1": "Kisumu", "facility_name": "Migosi Sub County Hospital", "facility_type": "Primary care hospitals", "owner_type_name": "Ministry of Health", "latitude": -0.0758, "longitude": 34.78328, "Sub_Couinty": "Kisumu Central", "LL_Source": "KMHFR", "ward_name": "Migosi", "keph_level_name": "Level 4", "Operating_Time": "24 Hours", "total_ inpatient_beds": 12, "general_inpatient_beds": 0, "cots": 0, "maternity_beds": 0, "emergency_casualty_beds": 0, "intensive_care_unit_beds": false, "high_dependancy_unit_beds": false, "isolation_beds": false, "general_theatres": false, "maternity_theatres": 0, "minor_theatres": false, "eye_theatres": false, "Out_reach_services": false, "NHIF_accreditation": false, "Accidents and Emergency Casualty Services": "N/A", "Ambulatory Services": "N/A", "Antenatal Care": "N/A", "Blood Services": "N/A", "Cancer screening": "N/A", "Central Sterile Services Department": "N/A", "Curative Services": "N/A", "Dental services": "N/A", "Emergency Preparedness": "N/A", "Family Planning": "N/A", "Forensic Services": "N/A", "High Dependancy Services": "N/A", "HIV/ADS Prevention And Care Services": "N/A", "ICU services": "N/A", "Immunization": "N/A", "Inpatient Services": "N/A", "Intergrated Immunization": "N/A", "Integrated Management Of Childhood Illness": "N/A", "Laboratory Services": "N/A", "Leprosy Treatment": "N/A", "Maternity Services": "N/A", "BMoc": "N/A", "CeMoc": "N/A", "Mental Health Services": "N/A", "Mortuary Services": "N/A", "Newborn Care Services": "N/A", "Nutrition Services": "N/A", "Occupational Therapy": "N/A", "Oncology Services": "N/A", "Opthalmic Services": "N/A", "Othopaedic Technology Services": "N/A", "Pharmacy services": "N/A", "Physiotherapy": "N/A", "Postnatal Care Services": "N/A", "Radiology and Imaging": "N/A", "Rehabilitation Services": "N/A", "Renal services": "N/A", "Services for Gender Based Violence Survivors": "N/A", "Specialized IN-Patient Services": "N/A", "Specialized Outpatient Clinic": "N/A", "Theatre Services": "N/A", "Tuberculosis Diagnosis": "N/A", "Youth Friendly Services": "N/A" }, "geometry": { "type": "Point", "coordinates": [ 34.78328, -0.0758 ] } },
{ "type": "Feature", "properties": { "Field_1": "Kenya", "Admin_1": "Kisumu", "facility_name": "Victoria Sub District Hospital", "facility_type": "Primary care hospitals", "owner_type_name": "Ministry of Health", "latitude": -0.11133, "longitude": 34.7519, "Sub_Couinty": "Kisumu Central", "LL_Source": "KMHFR", "ward_name": "Market Milimani", "keph_level_name": "Level 4", "Operating_Time": "24 Hours", "total_ inpatient_beds": 25, "general_inpatient_beds": 0, "cots": 2, "maternity_beds": 0, "emergency_casualty_beds": 0, "intensive_care_unit_beds": false, "high_dependancy_unit_beds": false, "isolation_beds": false, "general_theatres": false, "maternity_theatres": 0, "minor_theatres": false, "eye_theatres": false, "Out_reach_services": false, "NHIF_accreditation": false, "Accidents and Emergency Casualty Services": "N/A", "Ambulatory Services": "N/A", "Antenatal Care": "N/A", "Blood Services": "N/A", "Cancer screening": "N/A", "Central Sterile Services Department": "N/A", "Curative Services": "N/A", "Dental services": "N/A", "Emergency Preparedness": "N/A", "Family Planning": "N/A", "Forensic Services": "N/A", "High Dependancy Services": "N/A", "HIV/ADS Prevention And Care Services": "N/A", "ICU services": "N/A", "Immunization": "N/A", "Inpatient Services": "N/A", "Intergrated Immunization": "N/A", "Integrated Management Of Childhood Illness": "N/A", "Laboratory Services": "N/A", "Leprosy Treatment": "N/A", "Maternity Services": "N/A", "BMoc": "N/A", "CeMoc": "N/A", "Mental Health Services": "N/A", "Mortuary Services": "N/A", "Newborn Care Services": "N/A", "Nutrition Services": "N/A", "Occupational Therapy": "N/A", "Oncology Services": "N/A", "Opthalmic Services": "N/A", "Othopaedic Technology Services": "N/A", "Pharmacy services": "N/A", "Physiotherapy": "N/A", "Postnatal Care Services": "N/A", "Radiology and Imaging": "N/A", "Rehabilitation Services": "N/A", "Renal services": "N/A", "Services for Gender Based Violence Survivors": "N/A", "Specialized IN-Patient Services": "N/A", "Specialized Outpatient Clinic": "N/A", "Theatre Services": "N/A", "Tuberculosis Diagnosis": "N/A", "Youth Friendly Services": "N/A" }, "geometry": { "type": "Point", "coordinates": [ 34.7519, -0.11133 ] } },
{ "type": "Feature", "properties": { "Field_1": "Kenya", "Admin_1": "Kisumu", "facility_name": "Railways Dispensary (Kisumu)", "facility_type": "Dispensary", "owner_type_name": "Ministry of Health", "latitude": -0.1039, "longitude": 34.74879, "Sub_Couinty": "Kisumu Central", "LL_Source": "KMHFR", "ward_name": "Market Milimani", "keph_level_name": "Level 2", "Operating_Time": "24 Hours", "total_ inpatient_beds": 0, "general_inpatient_beds": 0, "cots": 0, "maternity_beds": 0, "emergency_casualty_beds": 0, "intensive_care_unit_beds": false, "high_dependancy_unit_beds": false, "isolation_beds": false, "general_theatres": false, "maternity_theatres": 0, "minor_theatres": false, "eye_theatres": false, "Out_reach_services": false, "NHIF_accreditation": false, "Accidents and Emergency Casualty Services": "N/A", "Ambulatory Services": "N/A", "Antenatal Care": "N/A", "Blood Services": "N/A", "Cancer screening": "N/A", "Central Sterile Services Department": "N/A", "Curative Services": "N/A", "Dental services": "N/A", "Emergency Preparedness": "N/A", "Family Planning": "N/A", "Forensic Services": "N/A", "High Dependancy Services": "N/A", "HIV/ADS Prevention And Care Services": "N/A", "ICU services": "N/A", "Immunization": "N/A", "Inpatient Services": "N/A", "Intergrated Immunization": "N/A", "Integrated Management Of Childhood Illness": "N/A", "Laboratory Services": "N/A", "Leprosy Treatment": "N/A", "Maternity Services": "N/A", "BMoc": "N/A", "CeMoc": "N/A", "Mental Health Services": "N/A", "Mortuary Services": "N/A", "Newborn Care Services": "N/A", "Nutrition Services": "N/A", "Occupational Therapy": "N/A", "Oncology Services": "N/A", "Opthalmic Services": "N/A", "Othopaedic Technology Services": "N/A", "Pharmacy services": "N/A", "Physiotherapy": "N/A", "Postnatal Care Services": "N/A", "Radiology and Imaging": "N/A", "Rehabilitation Services": "N/A", "Renal services": "N/A", "Services for Gender Based Violence Survivors": "N/A", "Specialized IN-Patient Services": "N/A", "Specialized Outpatient Clinic": "N/A", "Theatre Services": "N/A", "Tuberculosis Diagnosis": "N/A", "Youth Friendly Services": "N/A" }, "geometry": { "type": "Point", "coordinates": [ 34.74879, -0.1039 ] } },
{ "type": "Feature", "properties": { "Field_1": "Kenya", "Admin_1": "Kisumu", "facility_name": "Jaramogi  Odinga Teaching & Referral Hospital", "facility_type": "Specialized & Tertiary Referral hospitals", "owner_type_name": "Ministry of Health", "latitude": -0.091, "longitude": 34.76022, "Sub_Couinty": "Kisumu Central", "LL_Source": "KMHFR", "ward_name": "Kondele", "keph_level_name": "Level 6", "Operating_Time": "24 Hours", "total_ inpatient_beds": 0, "general_inpatient_beds": 0, "cots": 0, "maternity_beds": 0, "emergency_casualty_beds": 0, "intensive_care_unit_beds": false, "high_dependancy_unit_beds": false, "isolation_beds": false, "general_theatres": false, "maternity_theatres": 0, "minor_theatres": false, "eye_theatres": false, "Out_reach_services": false, "NHIF_accreditation": false, "Accidents and Emergency Casualty Services": "YES", "Ambulatory Services": "YES", "Antenatal Care": "YES", "Blood Services": "YES", "Cancer screening": "NO", "Central Sterile Services Department": "NO", "Curative Services": "YES", "Dental services": "YES", "Emergency Preparedness": "YES", "Family Planning": "YES", "Forensic Services": "YES", "High Dependancy Services": "YES", "HIV/ADS Prevention And Care Services": "YES", "ICU services": "YES", "Immunization": "YES", "Inpatient Services": "NO", "Intergrated Immunization": "YES", "Integrated Management Of Childhood Illness": "YES", "Laboratory Services": "NO", "Leprosy Treatment": "YES", "Maternity Services": "YES", "BMoc": "YES", "CeMoc": "YES", "Mental Health Services": "YES", "Mortuary Services": "YES", "Newborn Care Services": "YES", "Nutrition Services": "NO", "Occupational Therapy": "YES", "Oncology Services": "YES", "Opthalmic Services": "YES", "Othopaedic Technology Services": "YES", "Pharmacy services": "YES", "Physiotherapy": "YES", "Postnatal Care Services": "YES", "Radiology and Imaging": "YES", "Rehabilitation Services": "YES", "Renal services": "YES", "Services for Gender Based Violence Survivors": "YES", "Specialized IN-Patient Services": "NO", "Specialized Outpatient Clinic": "YES", "Theatre Services": "YES", "Tuberculosis Diagnosis": "YES", "Youth Friendly Services": "YES" }, "geometry": { "type": "Point", "coordinates": [ 34.76022, -0.091 ] } },
{ "type": "Feature", "properties": { "Field_1": "Kenya", "Admin_1": "Kisumu", "facility_name": "Obunga Dispensary-Kisumu", "facility_type": "Dispensary", "owner_type_name": "Ministry of Health", "latitude": -0.0811, "longitude": 34.76537, "Sub_Couinty": "Kisumu Central", "LL_Source": "KMHFR", "ward_name": "Railways", "keph_level_name": "Level 2", "Operating_Time": "24 Hours", "total_ inpatient_beds": 1, "general_inpatient_beds": 0, "cots": 0, "maternity_beds": 0, "emergency_casualty_beds": 1, "intensive_care_unit_beds": false, "high_dependancy_unit_beds": false, "isolation_beds": false, "general_theatres": false, "maternity_theatres": 0, "minor_theatres": false, "eye_theatres": false, "Out_reach_services": false, "NHIF_accreditation": false, "Accidents and Emergency Casualty Services": "YES", "Ambulatory Services": "NO", "Antenatal Care": "YES", "Blood Services": "NO", "Cancer screening": "YES", "Central Sterile Services Department": "NO", "Curative Services": "YES", "Dental services": "NO", "Emergency Preparedness": "NO", "Family Planning": "YES", "Forensic Services": "NO", "High Dependancy Services": "NO", "HIV/ADS Prevention And Care Services": "YES", "ICU services": "NO", "Immunization": "NO", "Inpatient Services": "NO", "Intergrated Immunization": "YES", "Integrated Management Of Childhood Illness": "YES", "Laboratory Services": "NO", "Leprosy Treatment": "NO", "Maternity Services": "NO", "BMoc": "NO", "CeMoc": "NO", "Mental Health Services": "NO", "Mortuary Services": "NO", "Newborn Care Services": "NO", "Nutrition Services": "NO", "Occupational Therapy": "NO", "Oncology Services": "NO", "Opthalmic Services": "NO", "Othopaedic Technology Services": "NO", "Pharmacy services": "YES", "Physiotherapy": "NO", "Postnatal Care Services": "NO", "Radiology and Imaging": "NO", "Rehabilitation Services": "NO", "Renal services": "NO", "Services for Gender Based Violence Survivors": "NO", "Specialized IN-Patient Services": "NO", "Specialized Outpatient Clinic": "NO", "Theatre Services": "NO", "Tuberculosis Diagnosis": "NO", "Youth Friendly Services": "NO" }, "geometry": { "type": "Point", "coordinates": [ 34.76537, -0.0811 ] } },
{ "type": "Feature", "properties": { "Field_1": "Kenya", "Admin_1": "Kisumu", "facility_name": "Kanyakwar Dispensary", "facility_type": "Dispensary", "owner_type_name": "Ministry of Health", "latitude": -0.05274, "longitude": 34.767, "Sub_Couinty": "Kisumu Central", "LL_Source": "KMHFR", "ward_name": "Railways", "keph_level_name": "Level 2", "Operating_Time": "24 Hours", "total_ inpatient_beds": 1, "general_inpatient_beds": 0, "cots": 0, "maternity_beds": 0, "emergency_casualty_beds": 1, "intensive_care_unit_beds": false, "high_dependancy_unit_beds": false, "isolation_beds": false, "general_theatres": false, "maternity_theatres": 0, "minor_theatres": false, "eye_theatres": false, "Out_reach_services": false, "NHIF_accreditation": false, "Accidents and Emergency Casualty Services": "YES", "Ambulatory Services": "NO", "Antenatal Care": "YES", "Blood Services": "NO", "Cancer screening": "YES", "Central Sterile Services Department": "NO", "Curative Services": "YES", "Dental services": "NO", "Emergency Preparedness": "YES", "Family Planning": "YES", "Forensic Services": "NO", "High Dependancy Services": "NO", "HIV/ADS Prevention And Care Services": "YES", "ICU services": "NO", "Immunization": "NO", "Inpatient Services": "NO", "Intergrated Immunization": "YES", "Integrated Management Of Childhood Illness": "YES", "Laboratory Services": "NO", "Leprosy Treatment": "NO", "Maternity Services": "NO", "BMoc": "NO", "CeMoc": "NO", "Mental Health Services": "NO", "Mortuary Services": "NO", "Newborn Care Services": "YES", "Nutrition Services": "NO", "Occupational Therapy": "NO", "Oncology Services": "NO", "Opthalmic Services": "NO", "Othopaedic Technology Services": "NO", "Pharmacy services": "YES", "Physiotherapy": "NO", "Postnatal Care Services": "NO", "Radiology and Imaging": "NO", "Rehabilitation Services": "NO", "Renal services": "NO", "Services for Gender Based Violence Survivors": "NO", "Specialized IN-Patient Services": "NO", "Specialized Outpatient Clinic": "NO", "Theatre Services": "NO", "Tuberculosis Diagnosis": "NO", "Youth Friendly Services": "NO" }, "geometry": { "type": "Point", "coordinates": [ 34.767, -0.05274 ] } },
{ "type": "Feature", "properties": { "Field_1": "Kenya", "Admin_1": "Kisumu", "facility_name": "Kmtc Clinic-Kisumu Campus", "facility_type": "Medical Clinic", "owner_type_name": "Ministry of Health", "latitude": -0.08774, "longitude": 34.7745, "Sub_Couinty": "Kisumu Central", "LL_Source": "KMHFR", "ward_name": "Kondele", "keph_level_name": "Level 2", "Operating_Time": "24 Hours", "total_ inpatient_beds": 0, "general_inpatient_beds": 0, "cots": 0, "maternity_beds": 0, "emergency_casualty_beds": 1, "intensive_care_unit_beds": false, "high_dependancy_unit_beds": false, "isolation_beds": false, "general_theatres": false, "maternity_theatres": 0, "minor_theatres": false, "eye_theatres": false, "Out_reach_services": false, "NHIF_accreditation": false, "Accidents and Emergency Casualty Services": "YES", "Ambulatory Services": "NO", "Antenatal Care": "YES", "Blood Services": "NO", "Cancer screening": "NO", "Central Sterile Services Department": "NO", "Curative Services": "YES", "Dental services": "YES", "Emergency Preparedness": "YES", "Family Planning": "YES", "Forensic Services": "NO", "High Dependancy Services": "NO", "HIV/ADS Prevention And Care Services": "YES", "ICU services": "NO", "Immunization": "YES", "Inpatient Services": "NO", "Intergrated Immunization": "YES", "Integrated Management Of Childhood Illness": "YES", "Laboratory Services": "YES", "Leprosy Treatment": "NO", "Maternity Services": "NO", "BMoc": "NO", "CeMoc": "NO", "Mental Health Services": "NO", "Mortuary Services": "NO", "Newborn Care Services": "YES", "Nutrition Services": "NO", "Occupational Therapy": "NO", "Oncology Services": "NO", "Opthalmic Services": "NO", "Othopaedic Technology Services": "NO", "Pharmacy services": "YES", "Physiotherapy": "NO", "Postnatal Care Services": "YES", "Radiology and Imaging": "NO", "Rehabilitation Services": "NO", "Renal services": "NO", "Services for Gender Based Violence Survivors": "NO", "Specialized IN-Patient Services": "NO", "Specialized Outpatient Clinic": "YES", "Theatre Services": "NO", "Tuberculosis Diagnosis": "NO", "Youth Friendly Services": "NO" }, "geometry": { "type": "Point", "coordinates": [ 34.7745, -0.08774 ] } },
{ "type": "Feature", "properties": { "Field_1": "Kenya", "Admin_1": "Kisumu", "facility_name": "Kosawo Dispensary", "facility_type": "Dispensary", "owner_type_name": "Ministry of Health", "latitude": -0.08911, "longitude": 34.78156, "Sub_Couinty": "Kisumu Central", "LL_Source": "KMHFR", "ward_name": "Kondele", "keph_level_name": "Level 2", "Operating_Time": "24 Hours", "total_ inpatient_beds": 0, "general_inpatient_beds": 0, "cots": 0, "maternity_beds": 0, "emergency_casualty_beds": 0, "intensive_care_unit_beds": false, "high_dependancy_unit_beds": false, "isolation_beds": false, "general_theatres": false, "maternity_theatres": 0, "minor_theatres": false, "eye_theatres": false, "Out_reach_services": false, "NHIF_accreditation": false, "Accidents and Emergency Casualty Services": "N/A", "Ambulatory Services": "N/A", "Antenatal Care": "N/A", "Blood Services": "N/A", "Cancer screening": "N/A", "Central Sterile Services Department": "N/A", "Curative Services": "N/A", "Dental services": "N/A", "Emergency Preparedness": "N/A", "Family Planning": "N/A", "Forensic Services": "N/A", "High Dependancy Services": "N/A", "HIV/ADS Prevention And Care Services": "N/A", "ICU services": "N/A", "Immunization": "N/A", "Inpatient Services": "N/A", "Intergrated Immunization": "N/A", "Integrated Management Of Childhood Illness": "N/A", "Laboratory Services": "N/A", "Leprosy Treatment": "N/A", "Maternity Services": "N/A", "BMoc": "N/A", "CeMoc": "N/A", "Mental Health Services": "N/A", "Mortuary Services": "N/A", "Newborn Care Services": "N/A", "Nutrition Services": "N/A", "Occupational Therapy": "N/A", "Oncology Services": "N/A", "Opthalmic Services": "N/A", "Othopaedic Technology Services": "N/A", "Pharmacy services": "N/A", "Physiotherapy": "N/A", "Postnatal Care Services": "N/A", "Radiology and Imaging": "N/A", "Rehabilitation Services": "N/A", "Renal services": "N/A", "Services for Gender Based Violence Survivors": "N/A", "Specialized IN-Patient Services": "N/A", "Specialized Outpatient Clinic": "N/A", "Theatre Services": "N/A", "Tuberculosis Diagnosis": "N/A", "Youth Friendly Services": "N/A" }, "geometry": { "type": "Point", "coordinates": [ 34.78156, -0.08911 ] } },
{ "type": "Feature", "properties": { "Field_1": "Kenya", "Admin_1": "Kisumu", "facility_name": "Dunga GOK Dispensary", "facility_type": "Dispensary", "owner_type_name": "Ministry of Health", "latitude": -0.14423, "longitude": 34.73732, "Sub_Couinty": "Kisumu Central", "LL_Source": "KMHFR", "ward_name": "Nyalenda B", "keph_level_name": "Level 2", "Operating_Time": "24 Hours", "total_ inpatient_beds": 0, "general_inpatient_beds": 0, "cots": 0, "maternity_beds": 0, "emergency_casualty_beds": 0, "intensive_care_unit_beds": false, "high_dependancy_unit_beds": false, "isolation_beds": false, "general_theatres": false, "maternity_theatres": 0, "minor_theatres": false, "eye_theatres": false, "Out_reach_services": false, "NHIF_accreditation": false, "Accidents and Emergency Casualty Services": "N/A", "Ambulatory Services": "N/A", "Antenatal Care": "N/A", "Blood Services": "N/A", "Cancer screening": "N/A", "Central Sterile Services Department": "N/A", "Curative Services": "N/A", "Dental services": "N/A", "Emergency Preparedness": "N/A", "Family Planning": "N/A", "Forensic Services": "N/A", "High Dependancy Services": "N/A", "HIV/ADS Prevention And Care Services": "N/A", "ICU services": "N/A", "Immunization": "N/A", "Inpatient Services": "N/A", "Intergrated Immunization": "N/A", "Integrated Management Of Childhood Illness": "N/A", "Laboratory Services": "N/A", "Leprosy Treatment": "N/A", "Maternity Services": "N/A", "BMoc": "N/A", "CeMoc": "N/A", "Mental Health Services": "N/A", "Mortuary Services": "N/A", "Newborn Care Services": "N/A", "Nutrition Services": "N/A", "Occupational Therapy": "N/A", "Oncology Services": "N/A", "Opthalmic Services": "N/A", "Othopaedic Technology Services": "N/A", "Pharmacy services": "N/A", "Physiotherapy": "N/A", "Postnatal Care Services": "N/A", "Radiology and Imaging": "N/A", "Rehabilitation Services": "N/A", "Renal services": "N/A", "Services for Gender Based Violence Survivors": "N/A", "Specialized IN-Patient Services": "N/A", "Specialized Outpatient Clinic": "N/A", "Theatre Services": "N/A", "Tuberculosis Diagnosis": "N/A", "Youth Friendly Services": "N/A" }, "geometry": { "type": "Point", "coordinates": [ 34.73732, -0.14423 ] } },
{ "type": "Feature", "properties": { "Field_1": "Kenya", "Admin_1": "Kisumu", "facility_name": "Administration Police Dispensary (Kisumu)", "facility_type": "Dispensary", "owner_type_name": "Ministry of Health", "latitude": -0.09567, "longitude": 34.76022, "Sub_Couinty": "Kisumu Central", "LL_Source": "KMHFR", "ward_name": "Railways", "keph_level_name": "Level 2", "Operating_Time": "24 Hours", "total_ inpatient_beds": 0, "general_inpatient_beds": 0, "cots": 0, "maternity_beds": 0, "emergency_casualty_beds": 0, "intensive_care_unit_beds": false, "high_dependancy_unit_beds": false, "isolation_beds": false, "general_theatres": false, "maternity_theatres": 0, "minor_theatres": false, "eye_theatres": false, "Out_reach_services": false, "NHIF_accreditation": false, "Accidents and Emergency Casualty Services": "N/A", "Ambulatory Services": "N/A", "Antenatal Care": "N/A", "Blood Services": "N/A", "Cancer screening": "N/A", "Central Sterile Services Department": "N/A", "Curative Services": "N/A", "Dental services": "N/A", "Emergency Preparedness": "N/A", "Family Planning": "N/A", "Forensic Services": "N/A", "High Dependancy Services": "N/A", "HIV/ADS Prevention And Care Services": "N/A", "ICU services": "N/A", "Immunization": "N/A", "Inpatient Services": "N/A", "Intergrated Immunization": "N/A", "Integrated Management Of Childhood Illness": "N/A", "Laboratory Services": "N/A", "Leprosy Treatment": "N/A", "Maternity Services": "N/A", "BMoc": "N/A", "CeMoc": "N/A", "Mental Health Services": "N/A", "Mortuary Services": "N/A", "Newborn Care Services": "N/A", "Nutrition Services": "N/A", "Occupational Therapy": "N/A", "Oncology Services": "N/A", "Opthalmic Services": "N/A", "Othopaedic Technology Services": "N/A", "Pharmacy services": "N/A", "Physiotherapy": "N/A", "Postnatal Care Services": "N/A", "Radiology and Imaging": "N/A", "Rehabilitation Services": "N/A", "Renal services": "N/A", "Services for Gender Based Violence Survivors": "N/A", "Specialized IN-Patient Services": "N/A", "Specialized Outpatient Clinic": "N/A", "Theatre Services": "N/A", "Tuberculosis Diagnosis": "N/A", "Youth Friendly Services": "N/A" }, "geometry": { "type": "Point", "coordinates": [ 34.76022, -0.09567 ] } },
{ "type": "Feature", "properties": { "Field_1": "Kenya", "Admin_1": "Kisumu", "facility_name": "Nyalenda Health Centre", "facility_type": "Basic Health Centre", "owner_type_name": "Ministry of Health", "latitude": -0.1226, "longitude": 34.75217, "Sub_Couinty": "Kisumu Central", "LL_Source": "KMHFR", "ward_name": "Nyalenda B", "keph_level_name": "Level 3", "Operating_Time": "24 Hours", "total_ inpatient_beds": 0, "general_inpatient_beds": 0, "cots": 0, "maternity_beds": 0, "emergency_casualty_beds": 0, "intensive_care_unit_beds": false, "high_dependancy_unit_beds": false, "isolation_beds": false, "general_theatres": false, "maternity_theatres": 0, "minor_theatres": false, "eye_theatres": false, "Out_reach_services": false, "NHIF_accreditation": false, "Accidents and Emergency Casualty Services": "N/A", "Ambulatory Services": "N/A", "Antenatal Care": "N/A", "Blood Services": "N/A", "Cancer screening": "N/A", "Central Sterile Services Department": "N/A", "Curative Services": "N/A", "Dental services": "N/A", "Emergency Preparedness": "N/A", "Family Planning": "N/A", "Forensic Services": "N/A", "High Dependancy Services": "N/A", "HIV/ADS Prevention And Care Services": "N/A", "ICU services": "N/A", "Immunization": "N/A", "Inpatient Services": "N/A", "Intergrated Immunization": "N/A", "Integrated Management Of Childhood Illness": "N/A", "Laboratory Services": "N/A", "Leprosy Treatment": "N/A", "Maternity Services": "N/A", "BMoc": "N/A", "CeMoc": "N/A", "Mental Health Services": "N/A", "Mortuary Services": "N/A", "Newborn Care Services": "N/A", "Nutrition Services": "N/A", "Occupational Therapy": "N/A", "Oncology Services": "N/A", "Opthalmic Services": "N/A", "Othopaedic Technology Services": "N/A", "Pharmacy services": "N/A", "Physiotherapy": "N/A", "Postnatal Care Services": "N/A", "Radiology and Imaging": "N/A", "Rehabilitation Services": "N/A", "Renal services": "N/A", "Services for Gender Based Violence Survivors": "N/A", "Specialized IN-Patient Services": "N/A", "Specialized Outpatient Clinic": "N/A", "Theatre Services": "N/A", "Tuberculosis Diagnosis": "N/A", "Youth Friendly Services": "N/A" }, "geometry": { "type": "Point", "coordinates": [ 34.75217, -0.1226 ] } },
{ "type": "Feature", "properties": { "Field_1": "Kenya", "Admin_1": "Kisumu", "facility_name": "St. Lydia Okore Dispensary", "facility_type": "Dispensary", "owner_type_name": "Ministry of Health", "latitude": -0.0906, "longitude": 34.76088, "Sub_Couinty": "Kisumu Central", "LL_Source": "KMHFR", "ward_name": "Railways", "keph_level_name": "Level 2", "Operating_Time": "24 Hours", "total_ inpatient_beds": 0, "general_inpatient_beds": 0, "cots": 0, "maternity_beds": 0, "emergency_casualty_beds": 0, "intensive_care_unit_beds": false, "high_dependancy_unit_beds": false, "isolation_beds": false, "general_theatres": false, "maternity_theatres": 0, "minor_theatres": false, "eye_theatres": false, "Out_reach_services": false, "NHIF_accreditation": false, "Accidents and Emergency Casualty Services": "N/A", "Ambulatory Services": "N/A", "Antenatal Care": "N/A", "Blood Services": "N/A", "Cancer screening": "N/A", "Central Sterile Services Department": "N/A", "Curative Services": "N/A", "Dental services": "N/A", "Emergency Preparedness": "N/A", "Family Planning": "N/A", "Forensic Services": "N/A", "High Dependancy Services": "N/A", "HIV/ADS Prevention And Care Services": "N/A", "ICU services": "N/A", "Immunization": "N/A", "Inpatient Services": "N/A", "Intergrated Immunization": "N/A", "Integrated Management Of Childhood Illness": "N/A", "Laboratory Services": "N/A", "Leprosy Treatment": "N/A", "Maternity Services": "N/A", "BMoc": "N/A", "CeMoc": "N/A", "Mental Health Services": "N/A", "Mortuary Services": "N/A", "Newborn Care Services": "N/A", "Nutrition Services": "N/A", "Occupational Therapy": "N/A", "Oncology Services": "N/A", "Opthalmic Services": "N/A", "Othopaedic Technology Services": "N/A", "Pharmacy services": "N/A", "Physiotherapy": "N/A", "Postnatal Care Services": "N/A", "Radiology and Imaging": "N/A", "Rehabilitation Services": "N/A", "Renal services": "N/A", "Services for Gender Based Violence Survivors": "N/A", "Specialized IN-Patient Services": "N/A", "Specialized Outpatient Clinic": "N/A", "Theatre Services": "N/A", "Tuberculosis Diagnosis": "N/A", "Youth Friendly Services": "N/A" }, "geometry": { "type": "Point", "coordinates": [ 34.76088, -0.0906 ] } },
{ "type": "Feature", "properties": { "Field_1": "Kenya", "Admin_1": "Kisumu", "facility_name": "Mosque Dispensary", "facility_type": "Dispensary", "owner_type_name": "Ministry of Health", "latitude": -0.08814, "longitude": 34.75798, "Sub_Couinty": "Kisumu Central", "LL_Source": "KMHFR", "ward_name": "Railways", "keph_level_name": "Level 2", "Operating_Time": "24 Hours", "total_ inpatient_beds": 0, "general_inpatient_beds": 0, "cots": 0, "maternity_beds": 0, "emergency_casualty_beds": 0, "intensive_care_unit_beds": false, "high_dependancy_unit_beds": false, "isolation_beds": false, "general_theatres": false, "maternity_theatres": 0, "minor_theatres": false, "eye_theatres": false, "Out_reach_services": false, "NHIF_accreditation": false, "Accidents and Emergency Casualty Services": "N/A", "Ambulatory Services": "N/A", "Antenatal Care": "N/A", "Blood Services": "N/A", "Cancer screening": "N/A", "Central Sterile Services Department": "N/A", "Curative Services": "N/A", "Dental services": "N/A", "Emergency Preparedness": "N/A", "Family Planning": "N/A", "Forensic Services": "N/A", "High Dependancy Services": "N/A", "HIV/ADS Prevention And Care Services": "N/A", "ICU services": "N/A", "Immunization": "N/A", "Inpatient Services": "N/A", "Intergrated Immunization": "N/A", "Integrated Management Of Childhood Illness": "N/A", "Laboratory Services": "N/A", "Leprosy Treatment": "N/A", "Maternity Services": "N/A", "BMoc": "N/A", "CeMoc": "N/A", "Mental Health Services": "N/A", "Mortuary Services": "N/A", "Newborn Care Services": "N/A", "Nutrition Services": "N/A", "Occupational Therapy": "N/A", "Oncology Services": "N/A", "Opthalmic Services": "N/A", "Othopaedic Technology Services": "N/A", "Pharmacy services": "N/A", "Physiotherapy": "N/A", "Postnatal Care Services": "N/A", "Radiology and Imaging": "N/A", "Rehabilitation Services": "N/A", "Renal services": "N/A", "Services for Gender Based Violence Survivors": "N/A", "Specialized IN-Patient Services": "N/A", "Specialized Outpatient Clinic": "N/A", "Theatre Services": "N/A", "Tuberculosis Diagnosis": "N/A", "Youth Friendly Services": "N/A" }, "geometry": { "type": "Point", "coordinates": [ 34.75798, -0.08814 ] } },
{ "type": "Feature", "properties": { "Field_1": "Kenya", "Admin_1": "Kisumu", "facility_name": "Lumumba Sub County Hospital", "facility_type": "Primary care hospitals", "owner_type_name": "Ministry of Health", "latitude": -0.09968, "longitude": 34.76599, "Sub_Couinty": "Kisumu Central", "LL_Source": "KMHFR", "ward_name": "Shauri Moyo Kaloleni", "keph_level_name": "Level 4", "Operating_Time": "24 Hours", "total_ inpatient_beds": 15, "general_inpatient_beds": 0, "cots": 0, "maternity_beds": 0, "emergency_casualty_beds": 0, "intensive_care_unit_beds": false, "high_dependancy_unit_beds": false, "isolation_beds": false, "general_theatres": false, "maternity_theatres": 0, "minor_theatres": false, "eye_theatres": false, "Out_reach_services": false, "NHIF_accreditation": false, "Accidents and Emergency Casualty Services": "N/A", "Ambulatory Services": "N/A", "Antenatal Care": "N/A", "Blood Services": "N/A", "Cancer screening": "N/A", "Central Sterile Services Department": "N/A", "Curative Services": "N/A", "Dental services": "N/A", "Emergency Preparedness": "N/A", "Family Planning": "N/A", "Forensic Services": "N/A", "High Dependancy Services": "N/A", "HIV/ADS Prevention And Care Services": "N/A", "ICU services": "N/A", "Immunization": "N/A", "Inpatient Services": "N/A", "Intergrated Immunization": "N/A", "Integrated Management Of Childhood Illness": "N/A", "Laboratory Services": "N/A", "Leprosy Treatment": "N/A", "Maternity Services": "N/A", "BMoc": "N/A", "CeMoc": "N/A", "Mental Health Services": "N/A", "Mortuary Services": "N/A", "Newborn Care Services": "N/A", "Nutrition Services": "N/A", "Occupational Therapy": "N/A", "Oncology Services": "N/A", "Opthalmic Services": "N/A", "Othopaedic Technology Services": "N/A", "Pharmacy services": "N/A", "Physiotherapy": "N/A", "Postnatal Care Services": "N/A", "Radiology and Imaging": "N/A", "Rehabilitation Services": "N/A", "Renal services": "N/A", "Services for Gender Based Violence Survivors": "N/A", "Specialized IN-Patient Services": "N/A", "Specialized Outpatient Clinic": "N/A", "Theatre Services": "N/A", "Tuberculosis Diagnosis": "N/A", "Youth Friendly Services": "N/A" }, "geometry": { "type": "Point", "coordinates": [ 34.76599, -0.09968 ] } },
{ "type": "Feature", "properties": { "Field_1": "Kenya", "Admin_1": "Kisumu", "facility_name": "Barkorumba Health Centre", "facility_type": "Basic Health Centre", "owner_type_name": "Ministry of Health", "latitude": -0.04802, "longitude": 34.75696, "Sub_Couinty": "Kisumu West", "LL_Source": "KMHFR", "ward_name": "Kisumu North", "keph_level_name": "Level 3", "Operating_Time": "24 Hours", "total_ inpatient_beds": 0, "general_inpatient_beds": 0, "cots": 0, "maternity_beds": 0, "emergency_casualty_beds": 0, "intensive_care_unit_beds": false, "high_dependancy_unit_beds": false, "isolation_beds": false, "general_theatres": false, "maternity_theatres": 0, "minor_theatres": false, "eye_theatres": false, "Out_reach_services": false, "NHIF_accreditation": false, "Accidents and Emergency Casualty Services": "NO", "Ambulatory Services": "NO", "Antenatal Care": "YES", "Blood Services": "NO", "Cancer screening": "YES", "Central Sterile Services Department": "NO", "Curative Services": "YES", "Dental services": "NO", "Emergency Preparedness": "NO", "Family Planning": "YES", "Forensic Services": "NO", "High Dependancy Services": "NO", "HIV/ADS Prevention And Care Services": "YES", "ICU services": "NO", "Immunization": "YES", "Inpatient Services": "NO", "Intergrated Immunization": "YES", "Integrated Management Of Childhood Illness": "YES", "Laboratory Services": "NO", "Leprosy Treatment": "NO", "Maternity Services": "YES", "BMoc": "YES", "CeMoc": "NO", "Mental Health Services": "NO", "Mortuary Services": "NO", "Newborn Care Services": "YES", "Nutrition Services": "NO", "Occupational Therapy": "NO", "Oncology Services": "NO", "Opthalmic Services": "NO", "Othopaedic Technology Services": "NO", "Pharmacy services": "YES", "Physiotherapy": "NO", "Postnatal Care Services": "NO", "Radiology and Imaging": "NO", "Rehabilitation Services": "NO", "Renal services": "NO", "Services for Gender Based Violence Survivors": "NO", "Specialized IN-Patient Services": "NO", "Specialized Outpatient Clinic": "NO", "Theatre Services": "NO", "Tuberculosis Diagnosis": "NO", "Youth Friendly Services": "NO" }, "geometry": { "type": "Point", "coordinates": [ 34.75696, -0.04802 ] } },
{ "type": "Feature", "properties": { "Field_1": "Kenya", "Admin_1": "Kisumu", "facility_name": "Kisumu International Airport Dispensary", "facility_type": "Dispensary", "owner_type_name": "Ministry of Health", "latitude": -0.08211, "longitude": 34.7283, "Sub_Couinty": "Kisumu West", "LL_Source": "KMHFR", "ward_name": "Central Kisumu", "keph_level_name": "Level 2", "Operating_Time": "24 Hours", "total_ inpatient_beds": 0, "general_inpatient_beds": 0, "cots": 0, "maternity_beds": 0, "emergency_casualty_beds": 0, "intensive_care_unit_beds": false, "high_dependancy_unit_beds": false, "isolation_beds": false, "general_theatres": false, "maternity_theatres": 0, "minor_theatres": false, "eye_theatres": false, "Out_reach_services": false, "NHIF_accreditation": false, "Accidents and Emergency Casualty Services": "N/A", "Ambulatory Services": "N/A", "Antenatal Care": "N/A", "Blood Services": "N/A", "Cancer screening": "N/A", "Central Sterile Services Department": "N/A", "Curative Services": "N/A", "Dental services": "N/A", "Emergency Preparedness": "N/A", "Family Planning": "N/A", "Forensic Services": "N/A", "High Dependancy Services": "N/A", "HIV/ADS Prevention And Care Services": "N/A", "ICU services": "N/A", "Immunization": "N/A", "Inpatient Services": "N/A", "Intergrated Immunization": "N/A", "Integrated Management Of Childhood Illness": "N/A", "Laboratory Services": "N/A", "Leprosy Treatment": "N/A", "Maternity Services": "N/A", "BMoc": "N/A", "CeMoc": "N/A", "Mental Health Services": "N/A", "Mortuary Services": "N/A", "Newborn Care Services": "N/A", "Nutrition Services": "N/A", "Occupational Therapy": "N/A", "Oncology Services": "N/A", "Opthalmic Services": "N/A", "Othopaedic Technology Services": "N/A", "Pharmacy services": "N/A", "Physiotherapy": "N/A", "Postnatal Care Services": "N/A", "Radiology and Imaging": "N/A", "Rehabilitation Services": "N/A", "Renal services": "N/A", "Services for Gender Based Violence Survivors": "N/A", "Specialized IN-Patient Services": "N/A", "Specialized Outpatient Clinic": "N/A", "Theatre Services": "N/A", "Tuberculosis Diagnosis": "N/A", "Youth Friendly Services": "N/A" }, "geometry": { "type": "Point", "coordinates": [ 34.7283, -0.08211 ] } },
{ "type": "Feature", "properties": { "Field_1": "Kenya", "Admin_1": "Kisumu", "facility_name": "Nyahera Sub Sub County Hospital", "facility_type": "Primary care hospitals", "owner_type_name": "Ministry of Health", "latitude": -0.03471, "longitude": 34.71284, "Sub_Couinty": "Kisumu West", "LL_Source": "KMHFR", "ward_name": "Kisumu North", "keph_level_name": "Level 4", "Operating_Time": "24 Hours", "total_ inpatient_beds": 16, "general_inpatient_beds": 0, "cots": 0, "maternity_beds": 0, "emergency_casualty_beds": 0, "intensive_care_unit_beds": false, "high_dependancy_unit_beds": false, "isolation_beds": false, "general_theatres": false, "maternity_theatres": 0, "minor_theatres": false, "eye_theatres": false, "Out_reach_services": false, "NHIF_accreditation": false, "Accidents and Emergency Casualty Services": "NO", "Ambulatory Services": "NO", "Antenatal Care": "YES", "Blood Services": "NO", "Cancer screening": "NO", "Central Sterile Services Department": "NO", "Curative Services": "YES", "Dental services": "NO", "Emergency Preparedness": "NO", "Family Planning": "YES", "Forensic Services": "NO", "High Dependancy Services": "NO", "HIV/ADS Prevention And Care Services": "NO", "ICU services": "NO", "Immunization": "NO", "Inpatient Services": "NO", "Intergrated Immunization": "YES", "Integrated Management Of Childhood Illness": "NO", "Laboratory Services": "NO", "Leprosy Treatment": "NO", "Maternity Services": "NO", "BMoc": "NO", "CeMoc": "NO", "Mental Health Services": "NO", "Mortuary Services": "NO", "Newborn Care Services": "NO", "Nutrition Services": "NO", "Occupational Therapy": "NO", "Oncology Services": "NO", "Opthalmic Services": "NO", "Othopaedic Technology Services": "NO", "Pharmacy services": "YES", "Physiotherapy": "NO", "Postnatal Care Services": "NO", "Radiology and Imaging": "NO", "Rehabilitation Services": "NO", "Renal services": "NO", "Services for Gender Based Violence Survivors": "NO", "Specialized IN-Patient Services": "NO", "Specialized Outpatient Clinic": "NO", "Theatre Services": "NO", "Tuberculosis Diagnosis": "NO", "Youth Friendly Services": "NO" }, "geometry": { "type": "Point", "coordinates": [ 34.71284, -0.03471 ] } },
{ "type": "Feature", "properties": { "Field_1": "Kenya", "Admin_1": "Kisumu", "facility_name": "Airport Health Centre", "facility_type": "Basic Health Centre", "owner_type_name": "Ministry of Health", "latitude": -0.07331, "longitude": 34.73359, "Sub_Couinty": "Kisumu West", "LL_Source": "KMHFR", "ward_name": "Central Kisumu", "keph_level_name": "Level 3", "Operating_Time": "24 Hours", "total_ inpatient_beds": 7, "general_inpatient_beds": 0, "cots": 0, "maternity_beds": 7, "emergency_casualty_beds": 0, "intensive_care_unit_beds": false, "high_dependancy_unit_beds": false, "isolation_beds": false, "general_theatres": false, "maternity_theatres": 7, "minor_theatres": false, "eye_theatres": false, "Out_reach_services": false, "NHIF_accreditation": false, "Accidents and Emergency Casualty Services": "N/A", "Ambulatory Services": "N/A", "Antenatal Care": "N/A", "Blood Services": "N/A", "Cancer screening": "N/A", "Central Sterile Services Department": "N/A", "Curative Services": "N/A", "Dental services": "N/A", "Emergency Preparedness": "N/A", "Family Planning": "N/A", "Forensic Services": "N/A", "High Dependancy Services": "N/A", "HIV/ADS Prevention And Care Services": "N/A", "ICU services": "N/A", "Immunization": "N/A", "Inpatient Services": "N/A", "Intergrated Immunization": "N/A", "Integrated Management Of Childhood Illness": "N/A", "Laboratory Services": "N/A", "Leprosy Treatment": "N/A", "Maternity Services": "N/A", "BMoc": "N/A", "CeMoc": "N/A", "Mental Health Services": "N/A", "Mortuary Services": "N/A", "Newborn Care Services": "N/A", "Nutrition Services": "N/A", "Occupational Therapy": "N/A", "Oncology Services": "N/A", "Opthalmic Services": "N/A", "Othopaedic Technology Services": "N/A", "Pharmacy services": "N/A", "Physiotherapy": "N/A", "Postnatal Care Services": "N/A", "Radiology and Imaging": "N/A", "Rehabilitation Services": "N/A", "Renal services": "N/A", "Services for Gender Based Violence Survivors": "N/A", "Specialized IN-Patient Services": "N/A", "Specialized Outpatient Clinic": "N/A", "Theatre Services": "N/A", "Tuberculosis Diagnosis": "N/A", "Youth Friendly Services": "N/A" }, "geometry": { "type": "Point", "coordinates": [ 34.73359, -0.07331 ] } },
{ "type": "Feature", "properties": { "Field_1": "Kenya", "Admin_1": "Kisumu", "facility_name": "Lwala Kadawa Health Centre", "facility_type": "Basic Health Centre", "owner_type_name": "Ministry of Health", "latitude": -0.10679, "longitude": 34.77034, "Sub_Couinty": "Kisumu West", "LL_Source": "KMHFR", "ward_name": "West Kisumu", "keph_level_name": "Level 3", "Operating_Time": "24 Hours", "total_ inpatient_beds": 0, "general_inpatient_beds": 0, "cots": 0, "maternity_beds": 0, "emergency_casualty_beds": 0, "intensive_care_unit_beds": false, "high_dependancy_unit_beds": false, "isolation_beds": false, "general_theatres": false, "maternity_theatres": 0, "minor_theatres": false, "eye_theatres": false, "Out_reach_services": false, "NHIF_accreditation": false, "Accidents and Emergency Casualty Services": "N/A", "Ambulatory Services": "N/A", "Antenatal Care": "N/A", "Blood Services": "N/A", "Cancer screening": "N/A", "Central Sterile Services Department": "N/A", "Curative Services": "N/A", "Dental services": "N/A", "Emergency Preparedness": "N/A", "Family Planning": "N/A", "Forensic Services": "N/A", "High Dependancy Services": "N/A", "HIV/ADS Prevention And Care Services": "N/A", "ICU services": "N/A", "Immunization": "N/A", "Inpatient Services": "N/A", "Intergrated Immunization": "N/A", "Integrated Management Of Childhood Illness": "N/A", "Laboratory Services": "N/A", "Leprosy Treatment": "N/A", "Maternity Services": "N/A", "BMoc": "N/A", "CeMoc": "N/A", "Mental Health Services": "N/A", "Mortuary Services": "N/A", "Newborn Care Services": "N/A", "Nutrition Services": "N/A", "Occupational Therapy": "N/A", "Oncology Services": "N/A", "Opthalmic Services": "N/A", "Othopaedic Technology Services": "N/A", "Pharmacy services": "N/A", "Physiotherapy": "N/A", "Postnatal Care Services": "N/A", "Radiology and Imaging": "N/A", "Rehabilitation Services": "N/A", "Renal services": "N/A", "Services for Gender Based Violence Survivors": "N/A", "Specialized IN-Patient Services": "N/A", "Specialized Outpatient Clinic": "N/A", "Theatre Services": "N/A", "Tuberculosis Diagnosis": "N/A", "Youth Friendly Services": "N/A" }, "geometry": { "type": "Point", "coordinates": [ 34.77034, -0.10679 ] } },
{ "type": "Feature", "properties": { "Field_1": "Kenya", "Admin_1": "Kisumu", "facility_name": "St. Mark'S Lela Health Centre", "facility_type": "Basic Health Centre", "owner_type_name": "Ministry of Health", "latitude": -0.07358, "longitude": 34.69518, "Sub_Couinty": "Kisumu West", "LL_Source": "KMHFR", "ward_name": "Central Kisumu", "keph_level_name": "Level 3", "Operating_Time": "24 Hours", "total_ inpatient_beds": 0, "general_inpatient_beds": 0, "cots": 0, "maternity_beds": 0, "emergency_casualty_beds": 0, "intensive_care_unit_beds": false, "high_dependancy_unit_beds": false, "isolation_beds": false, "general_theatres": false, "maternity_theatres": 0, "minor_theatres": false, "eye_theatres": false, "Out_reach_services": false, "NHIF_accreditation": false, "Accidents and Emergency Casualty Services": "N/A", "Ambulatory Services": "N/A", "Antenatal Care": "N/A", "Blood Services": "N/A", "Cancer screening": "N/A", "Central Sterile Services Department": "N/A", "Curative Services": "N/A", "Dental services": "N/A", "Emergency Preparedness": "N/A", "Family Planning": "N/A", "Forensic Services": "N/A", "High Dependancy Services": "N/A", "HIV/ADS Prevention And Care Services": "N/A", "ICU services": "N/A", "Immunization": "N/A", "Inpatient Services": "N/A", "Intergrated Immunization": "N/A", "Integrated Management Of Childhood Illness": "N/A", "Laboratory Services": "N/A", "Leprosy Treatment": "N/A", "Maternity Services": "N/A", "BMoc": "N/A", "CeMoc": "N/A", "Mental Health Services": "N/A", "Mortuary Services": "N/A", "Newborn Care Services": "N/A", "Nutrition Services": "N/A", "Occupational Therapy": "N/A", "Oncology Services": "N/A", "Opthalmic Services": "N/A", "Othopaedic Technology Services": "N/A", "Pharmacy services": "N/A", "Physiotherapy": "N/A", "Postnatal Care Services": "N/A", "Radiology and Imaging": "N/A", "Rehabilitation Services": "N/A", "Renal services": "N/A", "Services for Gender Based Violence Survivors": "N/A", "Specialized IN-Patient Services": "N/A", "Specialized Outpatient Clinic": "N/A", "Theatre Services": "N/A", "Tuberculosis Diagnosis": "N/A", "Youth Friendly Services": "N/A" }, "geometry": { "type": "Point", "coordinates": [ 34.69518, -0.07358 ] } },
{ "type": "Feature", "properties": { "Field_1": "Kenya", "Admin_1": "Kisumu", "facility_name": "Usoma Health Centre", "facility_type": "Basic Health Centre", "owner_type_name": "Ministry of Health", "latitude": -0.10371, "longitude": 34.71967, "Sub_Couinty": "Kisumu West", "LL_Source": "KMHFR", "ward_name": "Central Kisumu", "keph_level_name": "Level 3", "Operating_Time": "24 Hours", "total_ inpatient_beds": 2, "general_inpatient_beds": 0, "cots": 0, "maternity_beds": 0, "emergency_casualty_beds": 0, "intensive_care_unit_beds": false, "high_dependancy_unit_beds": false, "isolation_beds": false, "general_theatres": false, "maternity_theatres": 0, "minor_theatres": false, "eye_theatres": false, "Out_reach_services": false, "NHIF_accreditation": false, "Accidents and Emergency Casualty Services": "N/A", "Ambulatory Services": "N/A", "Antenatal Care": "N/A", "Blood Services": "N/A", "Cancer screening": "N/A", "Central Sterile Services Department": "N/A", "Curative Services": "N/A", "Dental services": "N/A", "Emergency Preparedness": "N/A", "Family Planning": "N/A", "Forensic Services": "N/A", "High Dependancy Services": "N/A", "HIV/ADS Prevention And Care Services": "N/A", "ICU services": "N/A", "Immunization": "N/A", "Inpatient Services": "N/A", "Intergrated Immunization": "N/A", "Integrated Management Of Childhood Illness": "N/A", "Laboratory Services": "N/A", "Leprosy Treatment": "N/A", "Maternity Services": "N/A", "BMoc": "N/A", "CeMoc": "N/A", "Mental Health Services": "N/A", "Mortuary Services": "N/A", "Newborn Care Services": "N/A", "Nutrition Services": "N/A", "Occupational Therapy": "N/A", "Oncology Services": "N/A", "Opthalmic Services": "N/A", "Othopaedic Technology Services": "N/A", "Pharmacy services": "N/A", "Physiotherapy": "N/A", "Postnatal Care Services": "N/A", "Radiology and Imaging": "N/A", "Rehabilitation Services": "N/A", "Renal services": "N/A", "Services for Gender Based Violence Survivors": "N/A", "Specialized IN-Patient Services": "N/A", "Specialized Outpatient Clinic": "N/A", "Theatre Services": "N/A", "Tuberculosis Diagnosis": "N/A", "Youth Friendly Services": "N/A" }, "geometry": { "type": "Point", "coordinates": [ 34.71967, -0.10371 ] } },
{ "type": "Feature", "properties": { "Field_1": "Kenya", "Admin_1": "Kisumu", "facility_name": "Kodiaga Prison Health Centre", "facility_type": "Basic Health Centre", "owner_type_name": "Ministry of Health", "latitude": -0.06322, "longitude": 34.70917, "Sub_Couinty": "Kisumu West", "LL_Source": "KMHFR", "ward_name": "Central Kisumu", "keph_level_name": "Level 3", "Operating_Time": "24 Hours", "total_ inpatient_beds": 40, "general_inpatient_beds": 0, "cots": 0, "maternity_beds": 0, "emergency_casualty_beds": 0, "intensive_care_unit_beds": false, "high_dependancy_unit_beds": false, "isolation_beds": false, "general_theatres": false, "maternity_theatres": 0, "minor_theatres": false, "eye_theatres": false, "Out_reach_services": false, "NHIF_accreditation": false, "Accidents and Emergency Casualty Services": "N/A", "Ambulatory Services": "N/A", "Antenatal Care": "N/A", "Blood Services": "N/A", "Cancer screening": "N/A", "Central Sterile Services Department": "N/A", "Curative Services": "N/A", "Dental services": "N/A", "Emergency Preparedness": "N/A", "Family Planning": "N/A", "Forensic Services": "N/A", "High Dependancy Services": "N/A", "HIV/ADS Prevention And Care Services": "N/A", "ICU services": "N/A", "Immunization": "N/A", "Inpatient Services": "N/A", "Intergrated Immunization": "N/A", "Integrated Management Of Childhood Illness": "N/A", "Laboratory Services": "N/A", "Leprosy Treatment": "N/A", "Maternity Services": "N/A", "BMoc": "N/A", "CeMoc": "N/A", "Mental Health Services": "N/A", "Mortuary Services": "N/A", "Newborn Care Services": "N/A", "Nutrition Services": "N/A", "Occupational Therapy": "N/A", "Oncology Services": "N/A", "Opthalmic Services": "N/A", "Othopaedic Technology Services": "N/A", "Pharmacy services": "N/A", "Physiotherapy": "N/A", "Postnatal Care Services": "N/A", "Radiology and Imaging": "N/A", "Rehabilitation Services": "N/A", "Renal services": "N/A", "Services for Gender Based Violence Survivors": "N/A", "Specialized IN-Patient Services": "N/A", "Specialized Outpatient Clinic": "N/A", "Theatre Services": "N/A", "Tuberculosis Diagnosis": "N/A", "Youth Friendly Services": "N/A" }, "geometry": { "type": "Point", "coordinates": [ 34.70917, -0.06322 ] } },
{ "type": "Feature", "properties": { "Field_1": "Kenya", "Admin_1": "Kisumu", "facility_name": "Dago Kokore", "facility_type": "Basic Health Centre", "owner_type_name": "Ministry of Health", "latitude": -0.03293, "longitude": 34.73953, "Sub_Couinty": "Kisumu West", "LL_Source": "KMHFR", "ward_name": "Kisumu North", "keph_level_name": "Level 3", "Operating_Time": "24 Hours", "total_ inpatient_beds": 0, "general_inpatient_beds": 0, "cots": 0, "maternity_beds": 0, "emergency_casualty_beds": 0, "intensive_care_unit_beds": false, "high_dependancy_unit_beds": false, "isolation_beds": false, "general_theatres": false, "maternity_theatres": 0, "minor_theatres": false, "eye_theatres": false, "Out_reach_services": false, "NHIF_accreditation": false, "Accidents and Emergency Casualty Services": "NO", "Ambulatory Services": "NO", "Antenatal Care": "YES", "Blood Services": "NO", "Cancer screening": "NO", "Central Sterile Services Department": "NO", "Curative Services": "YES", "Dental services": "NO", "Emergency Preparedness": "NO", "Family Planning": "YES", "Forensic Services": "NO", "High Dependancy Services": "NO", "HIV/ADS Prevention And Care Services": "NO", "ICU services": "NO", "Immunization": "YES", "Inpatient Services": "NO", "Intergrated Immunization": "YES", "Integrated Management Of Childhood Illness": "NO", "Laboratory Services": "NO", "Leprosy Treatment": "NO", "Maternity Services": "NO", "BMoc": "NO", "CeMoc": "NO", "Mental Health Services": "NO", "Mortuary Services": "NO", "Newborn Care Services": "NO", "Nutrition Services": "NO", "Occupational Therapy": "NO", "Oncology Services": "NO", "Opthalmic Services": "NO", "Othopaedic Technology Services": "NO", "Pharmacy services": "NO", "Physiotherapy": "NO", "Postnatal Care Services": "YES", "Radiology and Imaging": "NO", "Rehabilitation Services": "NO", "Renal services": "NO", "Services for Gender Based Violence Survivors": "NO", "Specialized IN-Patient Services": "NO", "Specialized Outpatient Clinic": "NO", "Theatre Services": "NO", "Tuberculosis Diagnosis": "NO", "Youth Friendly Services": "NO" }, "geometry": { "type": "Point", "coordinates": [ 34.73953, -0.03293 ] } },
{ "type": "Feature", "properties": { "Field_1": "Kenya", "Admin_1": "Kisumu", "facility_name": "Geta Health Centre", "facility_type": "Basic Health Centre", "owner_type_name": "Ministry of Health", "latitude": -0.04941, "longitude": 34.69324, "Sub_Couinty": "Kisumu West", "LL_Source": "KMHFR", "ward_name": "Kisumu North", "keph_level_name": "Level 3", "Operating_Time": "24 Hours", "total_ inpatient_beds": 0, "general_inpatient_beds": 0, "cots": 0, "maternity_beds": 0, "emergency_casualty_beds": 0, "intensive_care_unit_beds": false, "high_dependancy_unit_beds": false, "isolation_beds": false, "general_theatres": false, "maternity_theatres": 0, "minor_theatres": false, "eye_theatres": false, "Out_reach_services": false, "NHIF_accreditation": false, "Accidents and Emergency Casualty Services": "NO", "Ambulatory Services": "NO", "Antenatal Care": "YES", "Blood Services": "NO", "Cancer screening": "NO", "Central Sterile Services Department": "NO", "Curative Services": "YES", "Dental services": "NO", "Emergency Preparedness": "NO", "Family Planning": "YES", "Forensic Services": "NO", "High Dependancy Services": "NO", "HIV/ADS Prevention And Care Services": "YES", "ICU services": "NO", "Immunization": "YES", "Inpatient Services": "NO", "Intergrated Immunization": "YES", "Integrated Management Of Childhood Illness": "YES", "Laboratory Services": "NO", "Leprosy Treatment": "NO", "Maternity Services": "YES", "BMoc": "YES", "CeMoc": "NO", "Mental Health Services": "NO", "Mortuary Services": "NO", "Newborn Care Services": "NO", "Nutrition Services": "NO", "Occupational Therapy": "NO", "Oncology Services": "NO", "Opthalmic Services": "NO", "Othopaedic Technology Services": "NO", "Pharmacy services": "NO", "Physiotherapy": "NO", "Postnatal Care Services": "YES", "Radiology and Imaging": "NO", "Rehabilitation Services": "NO", "Renal services": "NO", "Services for Gender Based Violence Survivors": "YES", "Specialized IN-Patient Services": "NO", "Specialized Outpatient Clinic": "NO", "Theatre Services": "NO", "Tuberculosis Diagnosis": "NO", "Youth Friendly Services": "NO" }, "geometry": { "type": "Point", "coordinates": [ 34.69324, -0.04941 ] } }
]
}
