{
"type": "FeatureCollection",
"name": "healthcare_facilities_beira_general",
"crs": { "type": "name", "properties": { "name": "urn:ogc:def:crs:OGC:1.3:CRS84" } },
"features": [
{ "type": "Feature", "properties": { "Country": "Mozambique", "Admin1": "Sofala", "Facility name": "Cerâmica Centro de Saúde Rural II", "Facility type": "Centro de Saúde Rural II", "Ownership": null, "Latitude": -19.8456, "Longitude": 34.8413, "LL source": "GPS" }, "geometry": { "type": "Point", "coordinates": [ 34.8413, -19.8456 ] } },
{ "type": "Feature", "properties": { "Country": "Mozambique", "Admin1": "Sofala", "Facility name": "Chamba Posto de Saúde", "Facility type": "Posto de Saúde", "Ownership": null, "Latitude": -19.7461, "Longitude": 34.8472, "LL source": "GPS" }, "geometry": { "type": "Point", "coordinates": [ 34.8472, -19.7461 ] } },
{ "type": "Feature", "properties": { "Country": "Mozambique", "Admin1": "Sofala", "Facility name": "Chingussura Centro de Saúde Urbano A", "Facility type": "Centro de Saúde Urbano A", "Ownership": null, "Latitude": -19.7333, "Longitude": 34.85, "LL source": "GPS" }, "geometry": { "type": "Point", "coordinates": [ 34.85, -19.7333 ] } },
{ "type": "Feature", "properties": { "Country": "Mozambique", "Admin1": "Sofala", "Facility name": "Chota Centro de Saúde Urbano C", "Facility type": "Centro de Saúde Urbano C", "Ownership": null, "Latitude": -19.8, "Longitude": 34.8667, "LL source": "GPS" }, "geometry": { "type": "Point", "coordinates": [ 34.8667, -19.8 ] } },
{ "type": "Feature", "properties": { "Country": "Mozambique", "Admin1": "Sofala", "Facility name": "Macurungo Centro de Saúde Urbano A", "Facility type": "Centro de Saúde Urbano A", "Ownership": null, "Latitude": -19.8333, "Longitude": 34.8833, "LL source": "GPS" }, "geometry": { "type": "Point", "coordinates": [ 34.8833, -19.8333 ] } },
{ "type": "Feature", "properties": { "Country": "Mozambique", "Admin1": "Sofala", "Facility name": "Manga Loforte Centro de Saúde Urbano C", "Facility type": "Centro de Saúde Urbano C", "Ownership": null, "Latitude": -19.8333, "Longitude": 34.85, "LL source": "GPS" }, "geometry": { "type": "Point", "coordinates": [ 34.85, -19.8333 ] } },
{ "type": "Feature", "properties": { "Country": "Mozambique", "Admin1": "Sofala", "Facility name": "Manga Mascarenha Centro de Saúde Urbano B", "Facility type": "Centro de Saúde Urbano B", "Ownership": null, "Latitude": -19.8025, "Longitude": 34.8958, "LL source": "GPS" }, "geometry": { "type": "Point", "coordinates": [ 34.8958, -19.8025 ] } },
{ "type": "Feature", "properties": { "Country": "Mozambique", "Admin1": "Sofala", "Facility name": "Manga Nhaconjo Centro de Saúde Urbano A", "Facility type": "Centro de Saúde Urbano A", "Ownership": null, "Latitude": -19.7678, "Longitude": 34.8697, "LL source": "GPS" }, "geometry": { "type": "Point", "coordinates": [ 34.8697, -19.7678 ] } },
{ "type": "Feature", "properties": { "Country": "Mozambique", "Admin1": "Sofala", "Facility name": "Marrocanhe Centro de Saúde Rural II", "Facility type": "Centro de Saúde Rural II", "Ownership": null, "Latitude": -19.8334, "Longitude": 34.85, "LL source": "GPS" }, "geometry": { "type": "Point", "coordinates": [ 34.85, -19.8334 ] } },
{ "type": "Feature", "properties": { "Country": "Mozambique", "Admin1": "Sofala", "Facility name": "Matadouro Posto de Saúde", "Facility type": "Posto de Saúde", "Ownership": null, "Latitude": -19.7331, "Longitude": 34.8378, "LL source": "GPS" }, "geometry": { "type": "Point", "coordinates": [ 34.8378, -19.7331 ] } },
{ "type": "Feature", "properties": { "Country": "Mozambique", "Admin1": "Sofala", "Facility name": "Munhava Centro de Saúde Urbano A", "Facility type": "Centro de Saúde Urbano A", "Ownership": null, "Latitude": -19.8373, "Longitude": 34.8543, "LL source": "GPS" }, "geometry": { "type": "Point", "coordinates": [ 34.8543, -19.8373 ] } },
{ "type": "Feature", "properties": { "Country": "Mozambique", "Admin1": "Sofala", "Facility name": "Samora Machel Centro de Saúde Urbano C", "Facility type": "Centro de Saúde Urbano C", "Ownership": null, "Latitude": -19.7433, "Longitude": 34.8462, "LL source": "GPS" }, "geometry": { "type": "Point", "coordinates": [ 34.8462, -19.7433 ] } }
]
}
