{
"type": "FeatureCollection",
"name": "healthcare_facilities",
"crs": { "type": "name", "properties": { "name": "urn:ogc:def:crs:OGC:1.3:CRS84" } },
"features": [
{ "type": "Feature", "properties": { "fid": 1, "OBJECTID": 1351, "globalid": "ebedc02c-64f3-48c3-86d0-83b525a010e1", "nhfr_uid": 22817110.0, "nhfr_facility_code": "37/06/1/1/1/0336", "country": "Nigeria", "iso": "NGA", "state": "Fct", "lga": "Abuja Municipal Area Council", "lga_name_disagreement": 0, "ward": "Kabusa", "ward_name_disagreement": 0, "facility_name": "Galadimawa Health Clinic", "facility_name_source": "NHFR_2024", "ownership": "Public", "ownership_type": "Local Government", "facility_level": "Primary", "facility_level_option": "Primary Health Clinic", "last_updated": "11/11/2024", "longitude": 7.4259867, "latitude": 8.9921167, "Local Validation": "Primary Health Clinic" }, "geometry": { "type": "Point", "coordinates": [ 7.4259867, 8.9921167 ] } },
{ "type": "Feature", "properties": { "fid": 2, "OBJECTID": 1353, "globalid": "f917d0a1-5c2e-4ac3-8894-239668026c4d", "nhfr_uid": 67005003.0, "nhfr_facility_code": "37/06/1/1/1/0002", "country": "Nigeria", "iso": "NGA", "state": "Fct", "lga": "Abuja Municipal Area Council", "lga_name_disagreement": 0, "ward": "Gui", "ward_name_disagreement": 1, "facility_name": "Abuja Apo Clinic", "facility_name_source": "NHFR_2024", "ownership": "Public", "ownership_type": "Local Government", "facility_level": "Primary", "facility_level_option": "Primary Health Center", "last_updated": "11/11/2024", "longitude": 7.4772066, "latitude": 9.0766981, "Local Validation": "Primary Health Center" }, "geometry": { "type": "Point", "coordinates": [ 7.4772066, 9.0766981 ] } },
{ "type": "Feature", "properties": { "fid": 3, "OBJECTID": 1354, "globalid": "e0baa86a-de96-46e4-9056-8b8abe81682d", "nhfr_uid": 66485163.0, "nhfr_facility_code": "37/06/1/1/1/0336", "country": "Nigeria", "iso": "NGA", "state": "Fct", "lga": "Abuja Municipal Area Council", "lga_name_disagreement": 0, "ward": "Garki", "ward_name_disagreement": 0, "facility_name": "Kobi Primary Health Clinic", "facility_name_source": "NHFR_2024", "ownership": "Public", "ownership_type": "Local Government", "facility_level": "Primary", "facility_level_option": "Primary Health Clinic", "last_updated": "11/11/2024", "longitude": 7.5241246, "latitude": 8.9992791, "Local Validation": "Primary Health Clinic" }, "geometry": { "type": "Point", "coordinates": [ 7.5241246, 8.9992791 ] } },
{ "type": "Feature", "properties": { "fid": 4, "OBJECTID": 3723, "globalid": "799a36ef-3f08-406f-a743-261c9194b5db", "nhfr_uid": 54836418.0, "nhfr_facility_code": "37/06/1/1/2/0127", "country": "Nigeria", "iso": "NGA", "state": "Fct", "lga": "Abuja Municipal Area Council", "lga_name_disagreement": 0, "ward": "City Centre", "ward_name_disagreement": 0, "facility_name": "Family Health Centre ", "facility_name_source": "NHFR_2024", "ownership": "Public", "ownership_type": "Local Government", "facility_level": "Primary", "facility_level_option": "Primary Health Clinic", "last_updated": "11/11/2024", "longitude": 7.47846, "latitude": 9.03602, "Local Validation": "Primary Health Clinic" }, "geometry": { "type": "Point", "coordinates": [ 7.47846, 9.03602 ] } },
{ "type": "Feature", "properties": { "fid": 6, "OBJECTID": 10437, "globalid": "71b26653-63ab-4506-a121-3ae2f7d1ccdf", "nhfr_uid": 25453149.0, "nhfr_facility_code": "37/06/1/1/1/0023", "country": "Nigeria", "iso": "NGA", "state": "Fct", "lga": "Abuja Municipal Area Council", "lga_name_disagreement": 0, "ward": "Karu", "ward_name_disagreement": 0, "facility_name": "Jikwoyi Primary Health Clinic", "facility_name_source": "NHFR_2024", "ownership": "Public", "ownership_type": "Local Government", "facility_level": "Primary", "facility_level_option": "Primary Health Clinic", "last_updated": "11/11/2024", "longitude": 7.564514161, "latitude": 8.984313965, "Local Validation": "Primary Health Clinic" }, "geometry": { "type": "Point", "coordinates": [ 7.564514161, 8.984313965 ] } },
{ "type": "Feature", "properties": { "fid": 7, "OBJECTID": 10800, "globalid": "2c28b2ab-9924-4bd9-95f7-a99ab9ffeeff", "nhfr_uid": 15656732.0, "nhfr_facility_code": "37/06/1/1/1/0031", "country": "Nigeria", "iso": "NGA", "state": "Fct", "lga": "Abuja Municipal Area Council", "lga_name_disagreement": 0, "ward": "Gwarimpa", "ward_name_disagreement": 0, "facility_name": "Mabushi Primary Health Center", "facility_name_source": "NHFR_2024", "ownership": "Public", "ownership_type": "Local Government", "facility_level": "Primary", "facility_level_option": "Primary Health Clinic", "last_updated": "11/11/2024", "longitude": 7.454284668, "latitude": 9.082092285, "Local Validation": "Primary Health Clinic" }, "geometry": { "type": "Point", "coordinates": [ 7.454284668, 9.082092285 ] } },
{ "type": "Feature", "properties": { "fid": 8, "OBJECTID": 10804, "globalid": "0fb67dd4-029e-4983-a9b7-a2c6fbb21df6", "nhfr_uid": 16651207.0, "nhfr_facility_code": "37/06/1/1/1/0012", "country": "Nigeria", "iso": "NGA", "state": "Fct", "lga": "Abuja Municipal Area Council", "lga_name_disagreement": 0, "ward": "Garki", "ward_name_disagreement": 0, "facility_name": "Garki Village Primary Health Clinic", "facility_name_source": "NHFR_2024", "ownership": "Public", "ownership_type": "Local Government", "facility_level": "Primary", "facility_level_option": "Primary Health Clinic", "last_updated": "11/11/2024", "longitude": 7.48852539, "latitude": 9.01928711, "Local Validation": "Primary Health Clinic" }, "geometry": { "type": "Point", "coordinates": [ 7.48852539, 9.01928711 ] } },
{ "type": "Feature", "properties": { "fid": 9, "OBJECTID": 10806, "globalid": "13224d6a-c99b-407f-acfa-aa657a6c3421", "nhfr_uid": 47451176.0, "nhfr_facility_code": "37/06/1/1/1/0041", "country": "Nigeria", "iso": "NGA", "state": "Fct", "lga": "Abuja Municipal Area Council", "lga_name_disagreement": 0, "ward": "Kabusa", "ward_name_disagreement": 0, "facility_name": "Pyakasa Primary Health Care Center", "facility_name_source": "NHFR_2024", "ownership": "Public", "ownership_type": "Local Government", "facility_level": "Primary", "facility_level_option": "Primary Health Center", "last_updated": "11/11/2024", "longitude": 7.405517578, "latitude": 8.965698242, "Local Validation": "Primary Health Center" }, "geometry": { "type": "Point", "coordinates": [ 7.405517578, 8.965698242 ] } },
{ "type": "Feature", "properties": { "fid": 11, "OBJECTID": 10815, "globalid": "fed1a776-aa0f-4503-b5f8-c9a690491b80", "nhfr_uid": 76111360.0, "nhfr_facility_code": "37/06/1/1/1/0025", "country": "Nigeria", "iso": "NGA", "state": "Fct", "lga": "Abuja Municipal Area Council", "lga_name_disagreement": 0, "ward": "Gwagwa", "ward_name_disagreement": 0, "facility_name": "Kagini Primary Health Care Center", "facility_name_source": "NHFR_2024", "ownership": "Public", "ownership_type": "Local Government", "facility_level": "Primary", "facility_level_option": "Primary Health Center", "last_updated": "11/11/2024", "longitude": 7.299316406, "latitude": 9.130126953, "Local Validation": "Primary Health Center" }, "geometry": { "type": "Point", "coordinates": [ 7.299316406, 9.130126953 ] } },
{ "type": "Feature", "properties": { "fid": 12, "OBJECTID": 10817, "globalid": "1d286cb0-f8b3-462a-a891-d4dee6f3612f", "nhfr_uid": 56571619.0, "nhfr_facility_code": "37/06/1/1/1/0034", "country": "Nigeria", "iso": "NGA", "state": "Fct", "lga": "Abuja Municipal Area Council", "lga_name_disagreement": 0, "ward": "City Centre", "ward_name_disagreement": 0, "facility_name": "National Assembly Staff Clinic", "facility_name_source": "NHFR_2024", "ownership": "Public", "ownership_type": "Federal Government", "facility_level": "Primary", "facility_level_option": "Primary Health Center", "last_updated": "11/11/2024", "longitude": 7.494873047, "latitude": 9.040893555, "Local Validation": "Primary Health Center" }, "geometry": { "type": "Point", "coordinates": [ 7.494873047, 9.040893555 ] } },
{ "type": "Feature", "properties": { "fid": 14, "OBJECTID": 11238, "globalid": "981bed19-8911-45a4-90d3-bc66771cecc2", "nhfr_uid": 70046372.0, "nhfr_facility_code": "37/06/1/1/1/0027", "country": "Nigeria", "iso": "NGA", "state": "Fct", "lga": "Abuja Municipal Area Council", "lga_name_disagreement": 0, "ward": "Karu", "ward_name_disagreement": 0, "facility_name": "Karu Primary Health Care Center", "facility_name_source": "NHFR_2024", "ownership": "Public", "ownership_type": "Local Government", "facility_level": "Primary", "facility_level_option": "Primary Health Center", "last_updated": "11/11/2024", "longitude": 7.578733471, "latitude": 9.008950048000001, "Local Validation": "Primary Health Center" }, "geometry": { "type": "Point", "coordinates": [ 7.578733471, 9.008950048 ] } },
{ "type": "Feature", "properties": { "fid": 15, "OBJECTID": 11239, "globalid": "39d28b76-e95d-44dd-be8e-e20e3c460f4b", "nhfr_uid": 68833611.0, "nhfr_facility_code": "37/06/1/1/1/0336", "country": "Nigeria", "iso": "NGA", "state": "Fct", "lga": "Abuja Municipal Area Council", "lga_name_disagreement": 0, "ward": "Nyanya", "ward_name_disagreement": 0, "facility_name": "Gbagarape Primary Health Care Center", "facility_name_source": "NHFR_2024", "ownership": "Public", "ownership_type": "Local Government", "facility_level": "Primary", "facility_level_option": "Primary Health Center", "last_updated": "11/11/2024", "longitude": 7.580348145, "latitude": 9.054084668, "Local Validation": "Primary Health Center" }, "geometry": { "type": "Point", "coordinates": [ 7.580348145, 9.054084668 ] } },
{ "type": "Feature", "properties": { "fid": 16, "OBJECTID": 11241, "globalid": "0abe2a17-3c2c-41f8-ad5f-fb1de25a4dd8", "nhfr_uid": 68950102.0, "nhfr_facility_code": "37/06/1/1/2/0238", "country": "Nigeria", "iso": "NGA", "state": "Fct", "lga": "Abuja Municipal Area Council", "lga_name_disagreement": 0, "ward": "Gwarimpa", "ward_name_disagreement": 0, "facility_name": "Piwoyi Primary Health Clinic", "facility_name_source": "NHFR_2024", "ownership": "Public", "ownership_type": "Local Government", "facility_level": "Primary", "facility_level_option": "Primary Health Clinic", "last_updated": "11/11/2024", "longitude": 7.393920898, "latitude": 8.999328613, "Local Validation": "Primary Health Clinic" }, "geometry": { "type": "Point", "coordinates": [ 7.393920898, 8.999328613 ] } },
{ "type": "Feature", "properties": { "fid": 17, "OBJECTID": 11247, "globalid": "8dadced0-1b0c-42ba-b1a0-265ee3568930", "nhfr_uid": 14861906.0, "nhfr_facility_code": "37/06/1/1/2/0179", "country": "Nigeria", "iso": "NGA", "state": "Fct", "lga": "Abuja Municipal Area Council", "lga_name_disagreement": 0, "ward": "Gwarimpa", "ward_name_disagreement": 0, "facility_name": "Kuchingoro Primary Health Care Center", "facility_name_source": "NHFR_2024", "ownership": "Public", "ownership_type": "Local Government", "facility_level": "Primary", "facility_level_option": "Primary Health Center", "last_updated": "11/11/2024", "longitude": 7.422729492, "latitude": 9.015930175, "Local Validation": "Primary Health Center" }, "geometry": { "type": "Point", "coordinates": [ 7.422729492, 9.015930175 ] } },
{ "type": "Feature", "properties": { "fid": 18, "OBJECTID": 12418, "globalid": "a99df27d-5a1f-4512-92ca-cd99e50e7a6f", "nhfr_uid": 13110171.0, "nhfr_facility_code": "37/06/1/1/1/0343", "country": "Nigeria", "iso": "NGA", "state": "Fct", "lga": "Abuja Municipal Area Council", "lga_name_disagreement": 0, "ward": "Gwagwa", "ward_name_disagreement": 0, "facility_name": "Saburi Primary Health Clinic", "facility_name_source": "NHFR_2024", "ownership": "Public", "ownership_type": "Local Government", "facility_level": "Primary", "facility_level_option": "Primary Health Clinic", "last_updated": "11/11/2024", "longitude": 7.280056245, "latitude": 9.107876262, "Local Validation": "Primary Health Clinic" }, "geometry": { "type": "Point", "coordinates": [ 7.280056245, 9.107876262 ] } },
{ "type": "Feature", "properties": { "fid": 19, "OBJECTID": 14089, "globalid": "ea579e15-9cc3-4f58-a1d0-0988b360995b", "nhfr_uid": 34435377.0, "nhfr_facility_code": "37/06/1/1/1/0018", "country": "Nigeria", "iso": "NGA", "state": "Fct", "lga": "Abuja Municipal Area Council", "lga_name_disagreement": 0, "ward": "Gwarimpa", "ward_name_disagreement": 0, "facility_name": "Gwarimpa Primary Health Clinic", "facility_name_source": "NHFR_2024", "ownership": "Public", "ownership_type": "Local Government", "facility_level": "Primary", "facility_level_option": "Primary Health Clinic", "last_updated": "11/11/2024", "longitude": 7.373768052, "latitude": 9.115803663, "Local Validation": "Primary Health Clinic" }, "geometry": { "type": "Point", "coordinates": [ 7.373768052, 9.115803663 ] } },
{ "type": "Feature", "properties": { "fid": 20, "OBJECTID": 14167, "globalid": "d6063429-d125-40a8-b758-6049f0d825f4", "nhfr_uid": 69707050.0, "nhfr_facility_code": "37/06/1/1/1/0336", "country": "Nigeria", "iso": "NGA", "state": "Fct", "lga": "Abuja Municipal Area Council", "lga_name_disagreement": 0, "ward": "Jiwa", "ward_name_disagreement": 1, "facility_name": "Jiwa Primary Health Care Center", "facility_name_source": "NHFR_2024", "ownership": "Public", "ownership_type": "Local Government", "facility_level": "Primary", "facility_level_option": "Primary Health Clinic", "last_updated": "11/11/2024", "longitude": 7.56729, "latitude": 8.97402, "Local Validation": "Primary Health Clinic" }, "geometry": { "type": "Point", "coordinates": [ 7.56729, 8.97402 ] } },
{ "type": "Feature", "properties": { "fid": 21, "OBJECTID": 14196, "globalid": "3023b48c-b997-44e2-8d15-dd06e24a7f4f", "nhfr_uid": 76786677.0, "nhfr_facility_code": "37/06/1/1/1/0336", "country": "Nigeria", "iso": "NGA", "state": "Fct", "lga": "Abuja Municipal Area Council", "lga_name_disagreement": 0, "ward": "Gwarimpa", "ward_name_disagreement": 0, "facility_name": "Efab Medical Center", "facility_name_source": "NHFR_2024", "ownership": "Public", "ownership_type": "State Government", "facility_level": "Primary", "facility_level_option": "Primary Health Clinic", "last_updated": "11/11/2024", "longitude": 7.39579, "latitude": 9.06073, "Local Validation": "Primary Health Clinic" }, "geometry": { "type": "Point", "coordinates": [ 7.39579, 9.06073 ] } },
{ "type": "Feature", "properties": { "fid": 23, "OBJECTID": 16062, "globalid": "01b220a3-7435-4083-9b66-d4fb12c4bbf5", "nhfr_uid": 36453994.0, "nhfr_facility_code": "37/06/1/1/1/0008", "country": "Nigeria", "iso": "NGA", "state": "Fct", "lga": "Abuja Municipal Area Council", "lga_name_disagreement": 0, "ward": "Gwagwa", "ward_name_disagreement": 0, "facility_name": "Dei Dei Primary Health Center", "facility_name_source": "NHFR_2024", "ownership": "Public", "ownership_type": "Local Government", "facility_level": "Primary", "facility_level_option": "Primary Health Center", "last_updated": "11/11/2024", "longitude": 7.28217, "latitude": 9.10538, "Local Validation": "Primary Health Center" }, "geometry": { "type": "Point", "coordinates": [ 7.28217, 9.10538 ] } },
{ "type": "Feature", "properties": { "fid": 24, "OBJECTID": 16481, "globalid": "9b19f724-6e45-45d4-ac21-702f5318392b", "nhfr_uid": 75439060.0, "nhfr_facility_code": "37/06/1/1/1/0336", "country": "Nigeria", "iso": "NGA", "state": "Fct", "lga": "Abuja Municipal Area Council", "lga_name_disagreement": 0, "ward": "Garki", "ward_name_disagreement": 1, "facility_name": "Shadalafiya Clinic", "facility_name_source": "NHFR_2024", "ownership": "Public", "ownership_type": "State Government", "facility_level": "Primary", "facility_level_option": "Primary Health Center", "last_updated": "11/11/2024", "longitude": 7.44658, "latitude": 8.94875, "Local Validation": "Primary Health Center" }, "geometry": { "type": "Point", "coordinates": [ 7.44658, 8.94875 ] } },
{ "type": "Feature", "properties": { "fid": 25, "OBJECTID": 16482, "globalid": "7ae4fdc4-ff20-4353-842b-b3ee0d066970", "nhfr_uid": 32375509.0, "nhfr_facility_code": "37/06/1/1/1/0019", "country": "Nigeria", "iso": "NGA", "state": "Fct", "lga": "Abuja Municipal Area Council", "lga_name_disagreement": 0, "ward": "Jiwa", "ward_name_disagreement": 1, "facility_name": "Hulumi Primary Health Clinic", "facility_name_source": "NHFR_2024", "ownership": "Public", "ownership_type": "Local Government", "facility_level": "Primary", "facility_level_option": "Primary Health Clinic", "last_updated": "11/11/2024", "longitude": 7.48963, "latitude": 9.03441, "Local Validation": "Primary Health Clinic" }, "geometry": { "type": "Point", "coordinates": [ 7.48963, 9.03441 ] } },
{ "type": "Feature", "properties": { "fid": 27, "OBJECTID": 16496, "globalid": "1a8d43ab-1e02-4c33-8c5d-0d4228d020ec", "nhfr_uid": 79023008.0, "nhfr_facility_code": "37/06/1/1/1/0022", "country": "Nigeria", "iso": "NGA", "state": "Fct", "lga": "Abuja Municipal Area Council", "lga_name_disagreement": 0, "ward": "Gui", "ward_name_disagreement": 1, "facility_name": "Inec Staff (Utako) Clinic", "facility_name_source": "NHFR_2024", "ownership": "Public", "ownership_type": "Federal Government", "facility_level": "Primary", "facility_level_option": "Primary Health Clinic", "last_updated": "11/11/2024", "longitude": 7.48424, "latitude": 9.0408, "Local Validation": "Primary Health Clinic" }, "geometry": { "type": "Point", "coordinates": [ 7.48424, 9.0408 ] } },
{ "type": "Feature", "properties": { "fid": 28, "OBJECTID": 16508, "globalid": "132cf411-66ce-4dd7-a133-52c2e3ae8841", "nhfr_uid": 24164918.0, "nhfr_facility_code": "37/06/1/1/1/0009", "country": "Nigeria", "iso": "NGA", "state": "Fct", "lga": "Abuja Municipal Area Council", "lga_name_disagreement": 0, "ward": "Garki", "ward_name_disagreement": 0, "facility_name": "Dutsen Garki Health Clinic", "facility_name_source": "NHFR_2024", "ownership": "Public", "ownership_type": "Local Government", "facility_level": "Primary", "facility_level_option": "Primary Health Clinic", "last_updated": "11/11/2024", "longitude": 7.48662, "latitude": 8.97738, "Local Validation": "Primary Health Clinic" }, "geometry": { "type": "Point", "coordinates": [ 7.48662, 8.97738 ] } },
{ "type": "Feature", "properties": { "fid": 29, "OBJECTID": 16510, "globalid": "8bae724d-70d8-43a2-b2ad-16368444d07a", "nhfr_uid": 23806819.0, "nhfr_facility_code": "37/06/1/1/1/0017", "country": "Nigeria", "iso": "NGA", "state": "Fct", "lga": "Abuja Municipal Area Council", "lga_name_disagreement": 0, "ward": "Gwagwa", "ward_name_disagreement": 0, "facility_name": "Gwagwa Primary Health Center", "facility_name_source": "NHFR_2024", "ownership": "Public", "ownership_type": "Local Government", "facility_level": "Primary", "facility_level_option": "Primary Health Center", "last_updated": "11/11/2024", "longitude": 7.31412, "latitude": 9.09115, "Local Validation": "Primary Health Center" }, "geometry": { "type": "Point", "coordinates": [ 7.31412, 9.09115 ] } },
{ "type": "Feature", "properties": { "fid": 30, "OBJECTID": 16915, "globalid": "2d7aa5f9-54c6-46fb-b9ce-e33230495364", "nhfr_uid": 18754817.0, "nhfr_facility_code": "37/06/1/1/1/0030", "country": "Nigeria", "iso": "NGA", "state": "Fct", "lga": "Abuja Municipal Area Council", "lga_name_disagreement": 0, "ward": "Kabusa", "ward_name_disagreement": 0, "facility_name": "Lugbe Primary Health Care Center", "facility_name_source": "NHFR_2024", "ownership": "Public", "ownership_type": "Local Government", "facility_level": "Primary", "facility_level_option": "Primary Health Center", "last_updated": "11/11/2024", "longitude": 7.37124, "latitude": 8.97234, "Local Validation": "Primary Health Center" }, "geometry": { "type": "Point", "coordinates": [ 7.37124, 8.97234 ] } },
{ "type": "Feature", "properties": { "fid": 31, "OBJECTID": 16943, "globalid": "cf521238-61a4-43fd-af14-3da14947f549", "nhfr_uid": 13177378.0, "nhfr_facility_code": "37/06/1/1/1/0336", "country": "Nigeria", "iso": "NGA", "state": "Fct", "lga": "Abuja Municipal Area Council", "lga_name_disagreement": 0, "ward": "Orozo", "ward_name_disagreement": 0, "facility_name": "Kurudu Primary Health Clinic", "facility_name_source": "NHFR_2024", "ownership": "Public", "ownership_type": "Local Government", "facility_level": "Primary", "facility_level_option": "Primary Health Clinic", "last_updated": "11/11/2024", "longitude": 7.5426299, "latitude": 8.9453279, "Local Validation": "Primary Health Clinic" }, "geometry": { "type": "Point", "coordinates": [ 7.5426299, 8.9453279 ] } },
{ "type": "Feature", "properties": { "fid": 32, "OBJECTID": 16955, "globalid": "4880b3d5-79c4-4ecb-b29c-c843f05fd9cb", "nhfr_uid": 54336355.0, "nhfr_facility_code": "37/06/1/1/1/0336", "country": "Nigeria", "iso": "NGA", "state": "Fct", "lga": "Abuja Municipal Area Council", "lga_name_disagreement": 0, "ward": "Garki", "ward_name_disagreement": 0, "facility_name": "Damagaza Primary Health Center", "facility_name_source": "NHFR_2024", "ownership": "Public", "ownership_type": "Local Government", "facility_level": "Primary", "facility_level_option": "Primary Health Center", "last_updated": "11/11/2024", "longitude": 7.4680948, "latitude": 8.9815318, "Local Validation": "Primary Health Center" }, "geometry": { "type": "Point", "coordinates": [ 7.4680948, 8.9815318 ] } },
{ "type": "Feature", "properties": { "fid": 33, "OBJECTID": 16956, "globalid": "c0721221-05d2-4635-bbe9-09ae52df5ad9", "nhfr_uid": 27309258.0, "nhfr_facility_code": "37/06/1/1/1/0336", "country": "Nigeria", "iso": "NGA", "state": "Fct", "lga": "Abuja Municipal Area Council", "lga_name_disagreement": 0, "ward": "Kabusa", "ward_name_disagreement": 0, "facility_name": "Kabusa Primary Health Care Center", "facility_name_source": "NHFR_2024", "ownership": "Public", "ownership_type": "Local Government", "facility_level": "Primary", "facility_level_option": "Primary Health Center", "last_updated": "11/11/2024", "longitude": 7.441290382, "latitude": 8.949674092, "Local Validation": "Primary Health Center" }, "geometry": { "type": "Point", "coordinates": [ 7.441290382, 8.949674092 ] } },
{ "type": "Feature", "properties": { "fid": 34, "OBJECTID": 16958, "globalid": "0245ce0c-f53e-4cfd-9e35-8508b1d60cee", "nhfr_uid": 31729367.0, "nhfr_facility_code": "37/06/1/1/1/0336", "country": "Nigeria", "iso": "NGA", "state": "Fct", "lga": "Abuja Municipal Area Council", "lga_name_disagreement": 0, "ward": "Kabusa", "ward_name_disagreement": 0, "facility_name": "Waru Primary Health Care Center", "facility_name_source": "NHFR_2024", "ownership": "Public", "ownership_type": "Local Government", "facility_level": "Primary", "facility_level_option": "Primary Health Center", "last_updated": "11/11/2024", "longitude": 7.4866167, "latitude": 8.9283892, "Local Validation": "Primary Health Center" }, "geometry": { "type": "Point", "coordinates": [ 7.4866167, 8.9283892 ] } },
{ "type": "Feature", "properties": { "fid": 36, "OBJECTID": 16962, "globalid": "bb54e456-1df2-4cad-a7da-1769388d1b67", "nhfr_uid": 60515003.0, "nhfr_facility_code": "37/06/1/1/1/0336", "country": "Nigeria", "iso": "NGA", "state": "Fct", "lga": "Abuja Municipal Area Council", "lga_name_disagreement": 0, "ward": "Orozo", "ward_name_disagreement": 0, "facility_name": "Kpeyegyi Primary Health Center", "facility_name_source": "NHFR_2024", "ownership": "Public", "ownership_type": "Local Government", "facility_level": "Primary", "facility_level_option": "Primary Health Center", "last_updated": "11/11/2024", "longitude": 7.547332518, "latitude": 8.954647567, "Local Validation": "Primary Health Center" }, "geometry": { "type": "Point", "coordinates": [ 7.547332518, 8.954647567 ] } },
{ "type": "Feature", "properties": { "fid": 38, "OBJECTID": 16967, "globalid": "c046bb3d-951f-438c-a4f4-9a94f617b15b", "nhfr_uid": 82969293.0, "nhfr_facility_code": "37/06/1/1/2/0332", "country": "Nigeria", "iso": "NGA", "state": "Fct", "lga": "Abuja Municipal Area Council", "lga_name_disagreement": 0, "ward": "Kabusa", "ward_name_disagreement": 0, "facility_name": "Zhidu Primary Health Clinic", "facility_name_source": "NHFR_2024", "ownership": "Public", "ownership_type": "Local Government", "facility_level": "Primary", "facility_level_option": "Primary Health Clinic", "last_updated": "11/11/2024", "longitude": 7.377905627, "latitude": 9.017640976, "Local Validation": "Primary Health Clinic" }, "geometry": { "type": "Point", "coordinates": [ 7.377905627, 9.017640976 ] } },
{ "type": "Feature", "properties": { "fid": 39, "OBJECTID": 16975, "globalid": "fab66550-e2a9-4f71-b8b7-efd46fa42697", "nhfr_uid": 29158959.0, "nhfr_facility_code": "37/06/1/1/1/0336", "country": "Nigeria", "iso": "NGA", "state": "Fct", "lga": "Abuja Municipal Area Council", "lga_name_disagreement": 0, "ward": "Gwarimpa", "ward_name_disagreement": 0, "facility_name": "Gishiri Primary Health Clinic", "facility_name_source": "NHFR_2024", "ownership": "Public", "ownership_type": "Local Government", "facility_level": "Primary", "facility_level_option": "Primary Health Clinic", "last_updated": "11/11/2024", "longitude": 7.4648899, "latitude": 9.1000683, "Local Validation": "Primary Health Clinic" }, "geometry": { "type": "Point", "coordinates": [ 7.4648899, 9.1000683 ] } },
{ "type": "Feature", "properties": { "fid": 40, "OBJECTID": 17239, "globalid": "bd143ec5-edff-4db0-a8bc-ec2d0fe2ab8c", "nhfr_uid": 78338897.0, "nhfr_facility_code": "37/06/1/1/1/0011", "country": "Nigeria", "iso": "NGA", "state": "Fct", "lga": "Abuja Municipal Area Council", "lga_name_disagreement": 0, "ward": "City Centre", "ward_name_disagreement": 0, "facility_name": "Fereprod Medical Center", "facility_name_source": "NHFR_2024", "ownership": "Public", "ownership_type": "Federal Government", "facility_level": "Primary", "facility_level_option": "Primary Health Clinic", "last_updated": "11/11/2024", "longitude": 7.495983, "latitude": 9.036286, "Local Validation": "Primary Health Clinic" }, "geometry": { "type": "Point", "coordinates": [ 7.495983, 9.036286 ] } },
{ "type": "Feature", "properties": { "fid": 42, "OBJECTID": 18253, "globalid": "723bd3a1-8495-4167-933a-e148138e56f1", "nhfr_uid": 41516568.0, "nhfr_facility_code": "37/06/1/1/1/0336", "country": "Nigeria", "iso": "NGA", "state": "Fct", "lga": "Abuja Municipal Area Council", "lga_name_disagreement": 0, "ward": "Kabusa", "ward_name_disagreement": 0, "facility_name": "Sheretti Primary Health Clinic", "facility_name_source": "NHFR_2024", "ownership": "Public", "ownership_type": "Local Government", "facility_level": "Primary", "facility_level_option": "Primary Health Clinic", "last_updated": "11/11/2024", "longitude": 7.440673829, "latitude": 8.942504883, "Local Validation": "Primary Health Clinic" }, "geometry": { "type": "Point", "coordinates": [ 7.440673829, 8.942504883 ] } },
{ "type": "Feature", "properties": { "fid": 43, "OBJECTID": 18381, "globalid": "0ff8a247-3830-4149-b642-f49c0a58add6", "nhfr_uid": 76977552.0, "nhfr_facility_code": "37/06/1/1/2/0218", "country": "Nigeria", "iso": "NGA", "state": "Fct", "lga": "Abuja Municipal Area Council", "lga_name_disagreement": 0, "ward": "Garki", "ward_name_disagreement": 0, "facility_name": "Apo Primary Health Center", "facility_name_source": "NHFR_2024", "ownership": "Public", "ownership_type": "Local Government", "facility_level": "Primary", "facility_level_option": "Primary Health Center", "last_updated": "11/11/2024", "longitude": 7.505344014, "latitude": 8.981102979, "Local Validation": "Primary Health Center" }, "geometry": { "type": "Point", "coordinates": [ 7.505344014, 8.981102979 ] } },
{ "type": "Feature", "properties": { "fid": 45, "OBJECTID": 18383, "globalid": "a2538ca0-c8fb-49aa-8b1d-655f711afadf", "nhfr_uid": 44572850.0, "nhfr_facility_code": "37/06/1/1/1/0336", "country": "Nigeria", "iso": "NGA", "state": "Fct", "lga": "Abuja Municipal Area Council", "lga_name_disagreement": 0, "ward": "Gwarimpa", "ward_name_disagreement": 0, "facility_name": "Jahi Primary Health Clinic", "facility_name_source": "NHFR_2024", "ownership": "Public", "ownership_type": "Local Government", "facility_level": "Primary", "facility_level_option": "Primary Health Clinic", "last_updated": "11/11/2024", "longitude": 7.441156337, "latitude": 9.09548701, "Local Validation": "Primary Health Clinic" }, "geometry": { "type": "Point", "coordinates": [ 7.441156337, 9.09548701 ] } },
{ "type": "Feature", "properties": { "fid": 47, "OBJECTID": 18385, "globalid": "f0209dd3-918d-450d-bbdc-7098ce264be3", "nhfr_uid": 33469484.0, "nhfr_facility_code": "37/06/1/1/1/0336", "country": "Nigeria", "iso": "NGA", "state": "Fct", "lga": "Abuja Municipal Area Council", "lga_name_disagreement": 0, "ward": "Jiwa", "ward_name_disagreement": 0, "facility_name": "Dakwa Dantata Primary Health Clinic", "facility_name_source": "NHFR_2024", "ownership": "Public", "ownership_type": "Local Government", "facility_level": "Primary", "facility_level_option": "Primary Health Clinic", "last_updated": "11/11/2024", "longitude": 7.2435083, "latitude": 9.099181354000001, "Local Validation": "Primary Health Clinic" }, "geometry": { "type": "Point", "coordinates": [ 7.2435083, 9.099181354 ] } },
{ "type": "Feature", "properties": { "fid": 48, "OBJECTID": 18386, "globalid": "f8c48dd7-78e6-40c4-9bfc-a08bbb62cba3", "nhfr_uid": 21136728.0, "nhfr_facility_code": "37/06/1/1/1/0013", "country": "Nigeria", "iso": "NGA", "state": "Fct", "lga": "Abuja Municipal Area Council", "lga_name_disagreement": 0, "ward": "Orozo", "ward_name_disagreement": 0, "facility_name": "Gidan Mangoro Primary Health Clinic", "facility_name_source": "NHFR_2024", "ownership": "Public", "ownership_type": "Local Government", "facility_level": "Primary", "facility_level_option": "Primary Health Center", "last_updated": "11/11/2024", "longitude": 7.563720703, "latitude": 8.916870117, "Local Validation": "Primary Health Center" }, "geometry": { "type": "Point", "coordinates": [ 7.563720703, 8.916870117 ] } },
{ "type": "Feature", "properties": { "fid": 50, "OBJECTID": 23458, "globalid": "f3ee9856-3c1a-46c1-99a0-a89d469d58c7", "nhfr_uid": 38742435.0, "nhfr_facility_code": "37/06/1/1/1/0021", "country": "Nigeria", "iso": "NGA", "state": "Fct", "lga": "Abuja Municipal Area Council", "lga_name_disagreement": 0, "ward": "Jiwa", "ward_name_disagreement": 1, "facility_name": "Idu Karmo Primary Health Care Center", "facility_name_source": "NHFR_2024", "ownership": "Public", "ownership_type": "Local Government", "facility_level": "Primary", "facility_level_option": "Primary Health Center", "last_updated": "11/11/2024", "longitude": 7.35949707, "latitude": 9.071716309, "Local Validation": "Primary Health Center" }, "geometry": { "type": "Point", "coordinates": [ 7.35949707, 9.071716309 ] } },
{ "type": "Feature", "properties": { "fid": 51, "OBJECTID": 23714, "globalid": "cc44f94f-d01c-497e-aa38-892aaf8fa7fd", "nhfr_uid": 61627861.0, "nhfr_facility_code": "37/06/1/1/1/0024", "country": "Nigeria", "iso": "NGA", "state": "Fct", "lga": "Abuja Municipal Area Council", "lga_name_disagreement": 0, "ward": "Jiwa", "ward_name_disagreement": 1, "facility_name": "Jiwa Primary Health Care Center", "facility_name_source": "NHFR_2024", "ownership": "Public", "ownership_type": "Local Government", "facility_level": "Primary", "facility_level_option": "Primary Health Center", "last_updated": "11/11/2024", "longitude": 7.30978, "latitude": 9.08022, "Local Validation": "Primary Health Center" }, "geometry": { "type": "Point", "coordinates": [ 7.30978, 9.08022 ] } },
{ "type": "Feature", "properties": { "fid": 54, "OBJECTID": 28468, "globalid": "588ab12b-c997-4c07-a8d5-0b49e0e06fa5", "nhfr_uid": null, "nhfr_facility_code": null, "country": "Nigeria", "iso": "NGA", "state": "Fct", "lga": "Abuja Municipal Area Council", "lga_name_disagreement": 0, "ward": "Kabusa", "ward_name_disagreement": 0, "facility_name": "Shadalafiya Primary Health Care Center", "facility_name_source": "GRID3_EHEALTH", "ownership": "Public", "ownership_type": "Local Government", "facility_level": "Primary", "facility_level_option": "Primary Health Center", "last_updated": "11/11/2024", "longitude": 7.43411, "latitude": 8.93979, "Local Validation": "Primary Health Center" }, "geometry": { "type": "Point", "coordinates": [ 7.43411, 8.93979 ] } },
{ "type": "Feature", "properties": { "fid": 55, "OBJECTID": 30005, "globalid": "5a093ab0-fec0-4b49-86f5-068b72827d11", "nhfr_uid": null, "nhfr_facility_code": null, "country": "Nigeria", "iso": "NGA", "state": "Fct", "lga": "Abuja Municipal Area Council", "lga_name_disagreement": 0, "ward": "Garki", "ward_name_disagreement": 0, "facility_name": "Acupuncture Hospital", "facility_name_source": "GRID3_EHEALTH", "ownership": "Public", "ownership_type": "Unknown", "facility_level": "Primary", "facility_level_option": "Primary Health Center", "last_updated": "11/11/2024", "longitude": 7.49079, "latitude": 9.01863, "Local Validation": "Primary Health Center" }, "geometry": { "type": "Point", "coordinates": [ 7.49079, 9.01863 ] } },
{ "type": "Feature", "properties": { "fid": 56, "OBJECTID": 34760, "globalid": "8d0d6f73-53ae-481a-b810-7a973146334c", "nhfr_uid": null, "nhfr_facility_code": null, "country": "Nigeria", "iso": "NGA", "state": "Fct", "lga": "Abuja Municipal Area Council", "lga_name_disagreement": 0, "ward": "Orozo", "ward_name_disagreement": 0, "facility_name": "Ozoro Primary Health Center", "facility_name_source": "GRID3_EHEALTH", "ownership": "Public", "ownership_type": "Local Government", "facility_level": "Primary", "facility_level_option": "Primary Health Center", "last_updated": "11/11/2024", "longitude": 7.574890136, "latitude": 8.895507813, "Local Validation": "Primary Health Center" }, "geometry": { "type": "Point", "coordinates": [ 7.574890136, 8.895507813 ] } },
{ "type": "Feature", "properties": { "fid": 57, "OBJECTID": 34765, "globalid": "fa68490e-1d02-411c-9a05-f32d9618dd1b", "nhfr_uid": null, "nhfr_facility_code": null, "country": "Nigeria", "iso": "NGA", "state": "Fct", "lga": "Abuja Municipal Area Council", "lga_name_disagreement": 0, "ward": "Karu", "ward_name_disagreement": 0, "facility_name": "Abuja Clinic", "facility_name_source": "GRID3_EHEALTH", "ownership": "Public", "ownership_type": "Local Government", "facility_level": "Primary", "facility_level_option": "Primary Health Center", "last_updated": "11/11/2024", "longitude": 7.565307617, "latitude": 9.002319336, "Local Validation": "Primary Health Center" }, "geometry": { "type": "Point", "coordinates": [ 7.565307617, 9.002319336 ] } },
{ "type": "Feature", "properties": { "fid": 58, "OBJECTID": 36851, "globalid": "b74fe3b2-769c-4dd0-b7fa-6f9ff2ee7456", "nhfr_uid": null, "nhfr_facility_code": null, "country": "Nigeria", "iso": "NGA", "state": "Fct", "lga": "Abuja Municipal Area Council", "lga_name_disagreement": 0, "ward": "Karu", "ward_name_disagreement": 0, "facility_name": "Karu Ecwa Clinic", "facility_name_source": "GRID3_EHEALTH", "ownership": "Public", "ownership_type": "Local Government", "facility_level": "Primary", "facility_level_option": "Primary Health Clinic", "last_updated": "11/11/2024", "longitude": 7.579968908, "latitude": 9.010461689, "Local Validation": "Primary Health Clinic" }, "geometry": { "type": "Point", "coordinates": [ 7.579968908, 9.010461689 ] } },
{ "type": "Feature", "properties": { "fid": 59, "OBJECTID": 42553, "globalid": "75216a8b-d54b-4102-86a9-e364eaf3b9e5", "nhfr_uid": null, "nhfr_facility_code": null, "country": "Nigeria", "iso": "NGA", "state": "Fct", "lga": "Abuja Municipal Area Council", "lga_name_disagreement": 0, "ward": "Gwarimpa", "ward_name_disagreement": 0, "facility_name": "Aso Hospital", "facility_name_source": "GRID3_EHEALTH", "ownership": "Public", "ownership_type": "Local Government", "facility_level": "Primary", "facility_level_option": "Primary Health Center", "last_updated": "11/11/2024", "longitude": 7.36276, "latitude": 9.07063, "Local Validation": "Primary Health Center" }, "geometry": { "type": "Point", "coordinates": [ 7.36276, 9.07063 ] } },
{ "type": "Feature", "properties": { "fid": 60, "OBJECTID": 49695, "globalid": "d7687bf5-b390-4686-9517-60fb1afcc05c", "nhfr_uid": 56862985.0, "nhfr_facility_code": "37/06/1/1/1/0040", "country": "Nigeria", "iso": "NGA", "state": "Fct", "lga": "Abuja Municipal Area Council", "lga_name_disagreement": 0, "ward": "Orozo", "ward_name_disagreement": 0, "facility_name": "Orozo Primary Health Clinic", "facility_name_source": "NHFR_2024", "ownership": "Public", "ownership_type": "Local Government", "facility_level": "Primary", "facility_level_option": "Primary Health Clinic", "last_updated": "11/11/2024", "longitude": 7.5749, "latitude": 8.89612, "Local Validation": "Primary Health Clinic" }, "geometry": { "type": "Point", "coordinates": [ 7.5749, 8.89612 ] } },
{ "type": "Feature", "properties": { "fid": 62, "OBJECTID": 50604, "globalid": "3073bc22-8e29-470f-8d6e-8152df7d828c", "nhfr_uid": 22071844.0, "nhfr_facility_code": "37/06/1/1/1/0001", "country": "Nigeria", "iso": "NGA", "state": "Fct", "lga": "Abuja Municipal Area Council", "lga_name_disagreement": 0, "ward": "City Centre", "ward_name_disagreement": 0, "facility_name": "7 Guards Batallion Medical Reception Station Abuja", "facility_name_source": "NHFR_2024", "ownership": "Public", "ownership_type": "Federal Government", "facility_level": "Primary", "facility_level_option": "Primary Health Clinic", "last_updated": "11/11/2024", "longitude": 7.51115, "latitude": 9.09549, "Local Validation": "Primary Health Clinic" }, "geometry": { "type": "Point", "coordinates": [ 7.51115, 9.09549 ] } },
{ "type": "Feature", "properties": { "fid": 63, "OBJECTID": 50606, "globalid": "61a327ba-33d5-4f35-89ec-879d4c42cf1a", "nhfr_uid": 61271563.0, "nhfr_facility_code": "37/06/1/1/1/0345", "country": "Nigeria", "iso": "NGA", "state": "Fct", "lga": "Abuja Municipal Area Council", "lga_name_disagreement": 0, "ward": "Kabusa", "ward_name_disagreement": 0, "facility_name": "Aleiyita Primary Health Care Center", "facility_name_source": "NHFR_2024", "ownership": "Public", "ownership_type": "Local Government", "facility_level": "Primary", "facility_level_option": "Primary Health Center", "last_updated": "11/11/2024", "longitude": 7.39801, "latitude": 8.98851, "Local Validation": "Primary Health Center" }, "geometry": { "type": "Point", "coordinates": [ 7.39801, 8.98851 ] } },
{ "type": "Feature", "properties": { "fid": 65, "OBJECTID": 14149, "globalid": "ff65258e-17f1-4fe6-8474-f951e32ad933", "nhfr_uid": 68161962.0, "nhfr_facility_code": "37/06/1/1/1/0336", "country": "Nigeria", "iso": "NGA", "state": "Fct", "lga": "Abuja Municipal Area Council", "lga_name_disagreement": 0, "ward": "Garki", "ward_name_disagreement": 0, "facility_name": "Abuja Clinic", "facility_name_source": "NHFR_2024", "ownership": "Public", "ownership_type": "Unknown", "facility_level": "Primary", "facility_level_option": "Primary Health Center", "last_updated": "11/11/2024 00:00", "longitude": 7.48002, "latitude": 9.02008, "Local Validation": "Primary\n" }, "geometry": { "type": "Point", "coordinates": [ 7.48002, 9.02008 ] } },
{ "type": "Feature", "properties": { "fid": 66, "OBJECTID": 36847, "globalid": "9ecabed4-dfca-4baf-9b53-29393a85a010", "nhfr_uid": null, "nhfr_facility_code": null, "country": "Nigeria", "iso": "NGA", "state": "Fct", "lga": "Abuja Municipal Area Council", "lga_name_disagreement": 0, "ward": "Garki", "ward_name_disagreement": 0, "facility_name": "Awmecare Clinic and Maternity", "facility_name_source": "GRID3_EHEALTH", "ownership": "Public", "ownership_type": "Unknown", "facility_level": "Primary", "facility_level_option": "Primary Health Clinic", "last_updated": "11/11/2024 00:00", "longitude": 7.47084, "latitude": 9.01378, "Local Validation": "Primary\n" }, "geometry": { "type": "Point", "coordinates": [ 7.47084, 9.01378 ] } },
{ "type": "Feature", "properties": { "fid": 67, "OBJECTID": 36867, "globalid": "a08eb10b-1159-4218-ba5d-2360d8aa1bff", "nhfr_uid": null, "nhfr_facility_code": null, "country": "Nigeria", "iso": "NGA", "state": "Fct", "lga": "Abuja Municipal Area Council", "lga_name_disagreement": 0, "ward": "City Centre 1", "ward_name_disagreement": 0, "facility_name": "Azony Maternity", "facility_name_source": "GRID3_EHEALTH", "ownership": "Public", "ownership_type": "Unknown", "facility_level": "Primary", "facility_level_option": "Primary Health Clinic", "last_updated": "11/11/2024 00:00", "longitude": 7.48012, "latitude": 9.03361, "Local Validation": "Primary\n" }, "geometry": { "type": "Point", "coordinates": [ 7.48012, 9.03361 ] } },
{ "type": "Feature", "properties": { "fid": 68, "OBJECTID": 36844, "globalid": "65f0dd73-8091-41b5-92d9-16c9bbe43bfa", "nhfr_uid": null, "nhfr_facility_code": null, "country": "Nigeria", "iso": "NGA", "state": "Fct", "lga": "Abuja Municipal Area Council", "lga_name_disagreement": 0, "ward": "Nyanya", "ward_name_disagreement": 0, "facility_name": "Blessed Trinity Hospital", "facility_name_source": "GRID3_EHEALTH", "ownership": "Public", "ownership_type": "Unknown", "facility_level": "Primary", "facility_level_option": "Primary Health Center", "last_updated": "11/11/2024 00:00", "longitude": 7.587963522, "latitude": 9.031259331, "Local Validation": "Primary\n" }, "geometry": { "type": "Point", "coordinates": [ 7.587963522, 9.031259331 ] } },
{ "type": "Feature", "properties": { "fid": 69, "OBJECTID": 28361, "globalid": "a751481a-da62-4bae-8c4a-be5e40ca81e6", "nhfr_uid": null, "nhfr_facility_code": null, "country": "Nigeria", "iso": "NGA", "state": "Fct", "lga": "Abuja Municipal Area Council", "lga_name_disagreement": 0, "ward": "Garki", "ward_name_disagreement": 0, "facility_name": "Comforter Place", "facility_name_source": "GRID3_EHEALTH", "ownership": "Public", "ownership_type": "Unknown", "facility_level": "Primary", "facility_level_option": "Primary Health Center", "last_updated": "11/11/2024 00:00", "longitude": 7.46758, "latitude": 8.9985, "Local Validation": "Primary\n" }, "geometry": { "type": "Point", "coordinates": [ 7.46758, 8.9985 ] } },
{ "type": "Feature", "properties": { "fid": 70, "OBJECTID": 38442, "globalid": "dd8888c4-220f-42ff-9ec7-cda009b1e032", "nhfr_uid": null, "nhfr_facility_code": null, "country": "Nigeria", "iso": "NGA", "state": "Fct", "lga": "Abuja Municipal Area Council", "lga_name_disagreement": 0, "ward": "Gwagwa", "ward_name_disagreement": 0, "facility_name": "Dakwa Primary Health Center", "facility_name_source": "GRID3_EHEALTH", "ownership": "Public", "ownership_type": "Unknown", "facility_level": "Primary", "facility_level_option": "Primary Health Center", "last_updated": "11/11/2024 00:00", "longitude": 7.26921, "latitude": 9.11321, "Local Validation": "Primary\n" }, "geometry": { "type": "Point", "coordinates": [ 7.26921, 9.11321 ] } },
{ "type": "Feature", "properties": { "fid": 71, "OBJECTID": 8984, "globalid": "edd173ac-3adc-472b-b3da-42feda40a70a", "nhfr_uid": 77082313.0, "nhfr_facility_code": "37/06/1/1/1/0006", "country": "Nigeria", "iso": "NGA", "state": "Fct", "lga": "Abuja Municipal Area Council", "lga_name_disagreement": 0, "ward": "City Centre", "ward_name_disagreement": 0, "facility_name": "Defence Headquarters Abuja Medical Center", "facility_name_source": "NHFR_2024", "ownership": "Public", "ownership_type": "State Government", "facility_level": "Primary", "facility_level_option": "Unknown", "last_updated": "11/11/2024 00:00", "longitude": 7.48952, "latitude": 9.0393, "Local Validation": "Primary\n" }, "geometry": { "type": "Point", "coordinates": [ 7.48952, 9.0393 ] } },
{ "type": "Feature", "properties": { "fid": 72, "OBJECTID": 49848, "globalid": "51b233e1-aade-4591-84dc-6f461fd36cc5", "nhfr_uid": 57305970.0, "nhfr_facility_code": "37/06/1/1/1/0341", "country": "Nigeria", "iso": "NGA", "state": "Fct", "lga": "Abuja Municipal Area Council", "lga_name_disagreement": 0, "ward": "Kabusa", "ward_name_disagreement": 0, "facility_name": "Dnakwo Primary Health Clinic", "facility_name_source": "NHFR_2024", "ownership": "Public", "ownership_type": "Local Government", "facility_level": "Primary", "facility_level_option": "Primary Health Clinic", "last_updated": "11/11/2024 00:00", "longitude": 7.44348, "latitude": 8.9881, "Local Validation": "Primary\n" }, "geometry": { "type": "Point", "coordinates": [ 7.44348, 8.9881 ] } },
{ "type": "Feature", "properties": { "fid": 73, "OBJECTID": 44443, "globalid": "9de35c35-7e46-4635-a884-9dc0339a527b", "nhfr_uid": 47730894.0, "nhfr_facility_code": "37/06/1/1/1/0338", "country": "Nigeria", "iso": "NGA", "state": "Fct", "lga": "Abuja Municipal Area Council", "lga_name_disagreement": 0, "ward": "Garki", "ward_name_disagreement": 0, "facility_name": "Durumi 2 Primary Health Clinic", "facility_name_source": "NHFR_2024", "ownership": "Public", "ownership_type": "Local Government", "facility_level": "Primary", "facility_level_option": "Primary Health Clinic", "last_updated": "11/11/2024 00:00", "longitude": 7.46168, "latitude": 9.00798, "Local Validation": "Primary\n" }, "geometry": { "type": "Point", "coordinates": [ 7.46168, 9.00798 ] } },
{ "type": "Feature", "properties": { "fid": 74, "OBJECTID": 36732, "globalid": "1e6859fa-ec20-4239-b1f4-aa5ab407e552", "nhfr_uid": null, "nhfr_facility_code": null, "country": "Nigeria", "iso": "NGA", "state": "Fct", "lga": "Abuja Municipal Area Council", "lga_name_disagreement": 0, "ward": "Gwagwa", "ward_name_disagreement": 0, "facility_name": "Ecwa Clinic and Maternity", "facility_name_source": "GRID3_EHEALTH", "ownership": "Public", "ownership_type": "Unknown", "facility_level": "Primary", "facility_level_option": "Primary Health Clinic", "last_updated": "11/11/2024 00:00", "longitude": 7.31565, "latitude": 9.08872, "Local Validation": "Primary\n" }, "geometry": { "type": "Point", "coordinates": [ 7.31565, 9.08872 ] } },
{ "type": "Feature", "properties": { "fid": 75, "OBJECTID": 36846, "globalid": "e38ec536-ce11-4de4-a873-41cf016ccb92", "nhfr_uid": null, "nhfr_facility_code": null, "country": "Nigeria", "iso": "NGA", "state": "Fct", "lga": "Abuja Municipal Area Council", "lga_name_disagreement": 0, "ward": "City Centre 1", "ward_name_disagreement": 0, "facility_name": "Fct Management Board Hospital", "facility_name_source": "GRID3_EHEALTH", "ownership": "Public", "ownership_type": "Unknown", "facility_level": "Primary", "facility_level_option": "Primary Health Center", "last_updated": "11/11/2024 00:00", "longitude": 7.50257, "latitude": 9.04411, "Local Validation": "Primary\n" }, "geometry": { "type": "Point", "coordinates": [ 7.50257, 9.04411 ] } },
{ "type": "Feature", "properties": { "fid": 76, "OBJECTID": 36845, "globalid": "f7630fde-606c-4b1e-aa28-db98039588b1", "nhfr_uid": null, "nhfr_facility_code": null, "country": "Nigeria", "iso": "NGA", "state": "Fct", "lga": "Abuja Municipal Area Council", "lga_name_disagreement": 0, "ward": "Nyanya", "ward_name_disagreement": 0, "facility_name": "Fountain Head Hospital", "facility_name_source": "GRID3_EHEALTH", "ownership": "Public", "ownership_type": "Unknown", "facility_level": "Primary", "facility_level_option": "Primary Health Center", "last_updated": "11/11/2024 00:00", "longitude": 7.58633, "latitude": 9.02381, "Local Validation": "Primary\n" }, "geometry": { "type": "Point", "coordinates": [ 7.58633, 9.02381 ] } },
{ "type": "Feature", "properties": { "fid": 77, "OBJECTID": 36853, "globalid": "18cd7788-afaf-4aab-94eb-05ec28ab683e", "nhfr_uid": null, "nhfr_facility_code": null, "country": "Nigeria", "iso": "NGA", "state": "Fct", "lga": "Abuja Municipal Area Council", "lga_name_disagreement": 0, "ward": "Karu", "ward_name_disagreement": 0, "facility_name": "Fredrickson Mecal Clinic", "facility_name_source": "GRID3_EHEALTH", "ownership": "Public", "ownership_type": "Unknown", "facility_level": "Primary", "facility_level_option": "Primary Health Center", "last_updated": "11/11/2024 00:00", "longitude": 7.56454, "latitude": 9.01231, "Local Validation": "Primary\n" }, "geometry": { "type": "Point", "coordinates": [ 7.56454, 9.01231 ] } },
{ "type": "Feature", "properties": { "fid": 78, "OBJECTID": 38439, "globalid": "948ca5b9-df90-497a-bc20-3c5997c085f5", "nhfr_uid": null, "nhfr_facility_code": null, "country": "Nigeria", "iso": "NGA", "state": "Fct", "lga": "Abuja Municipal Area Council", "lga_name_disagreement": 0, "ward": "Gwagwa", "ward_name_disagreement": 0, "facility_name": "Gbagarape Primary Health Care", "facility_name_source": "GRID3_EHEALTH", "ownership": "Public", "ownership_type": "Unknown", "facility_level": "Primary", "facility_level_option": "Primary Health Center", "last_updated": "11/11/2024 00:00", "longitude": 7.31674, "latitude": 9.08671, "Local Validation": "Primary\n" }, "geometry": { "type": "Point", "coordinates": [ 7.31674, 9.08671 ] } },
{ "type": "Feature", "properties": { "fid": 79, "OBJECTID": 36849, "globalid": "327b20cb-db61-455f-9c93-85f519dbd20d", "nhfr_uid": null, "nhfr_facility_code": null, "country": "Nigeria", "iso": "NGA", "state": "Fct", "lga": "Abuja Municipal Area Council", "lga_name_disagreement": 0, "ward": "City Centre 1", "ward_name_disagreement": 0, "facility_name": "Guinue Savannah Medical Center", "facility_name_source": "GRID3_EHEALTH", "ownership": "Public", "ownership_type": "Unknown", "facility_level": "Primary", "facility_level_option": "Primary Health Clinic", "last_updated": "11/11/2024 00:00", "longitude": 7.50012, "latitude": 9.04019, "Local Validation": "Primary\n" }, "geometry": { "type": "Point", "coordinates": [ 7.50012, 9.04019 ] } },
{ "type": "Feature", "properties": { "fid": 80, "OBJECTID": 38431, "globalid": "6d7520e8-b1f7-443c-8e4b-476d7db62710", "nhfr_uid": null, "nhfr_facility_code": null, "country": "Nigeria", "iso": "NGA", "state": "Fct", "lga": "Abuja Municipal Area Council", "lga_name_disagreement": 0, "ward": "City Centre 1", "ward_name_disagreement": 0, "facility_name": "Intergrated Health Care", "facility_name_source": "GRID3_EHEALTH", "ownership": "Public", "ownership_type": "Unknown", "facility_level": "Primary", "facility_level_option": "Primary Health Center", "last_updated": "11/11/2024 00:00", "longitude": 7.48, "latitude": 9.03155, "Local Validation": "Primary\n" }, "geometry": { "type": "Point", "coordinates": [ 7.48, 9.03155 ] } },
{ "type": "Feature", "properties": { "fid": 81, "OBJECTID": 49022, "globalid": "29aae825-0464-43cb-9919-806c05e44212", "nhfr_uid": 20256195.0, "nhfr_facility_code": "37/06/1/1/1/0344", "country": "Nigeria", "iso": "NGA", "state": "Fct", "lga": "Abuja Municipal Area Council", "lga_name_disagreement": 0, "ward": "Gwarimpa", "ward_name_disagreement": 0, "facility_name": "Karon Majigi Primary Health Clinic", "facility_name_source": "NHFR_2024", "ownership": "Public", "ownership_type": "Local Government", "facility_level": "Primary", "facility_level_option": "Primary Health Clinic", "last_updated": "11/11/2024 00:00", "longitude": 7.42525, "latitude": 9.02548, "Local Validation": "Primary\n" }, "geometry": { "type": "Point", "coordinates": [ 7.42525, 9.02548 ] } },
{ "type": "Feature", "properties": { "fid": 82, "OBJECTID": 36843, "globalid": "0861bc41-82e9-4304-8b15-408e68cd5510", "nhfr_uid": null, "nhfr_facility_code": null, "country": "Nigeria", "iso": "NGA", "state": "Fct", "lga": "Abuja Municipal Area Council", "lga_name_disagreement": 0, "ward": "Nyanya", "ward_name_disagreement": 0, "facility_name": "King Clinic and Maternity", "facility_name_source": "GRID3_EHEALTH", "ownership": "Public", "ownership_type": "Unknown", "facility_level": "Primary", "facility_level_option": "Primary Health Clinic", "last_updated": "11/11/2024 00:00", "longitude": 7.58217, "latitude": 9.02959, "Local Validation": "Primary\n" }, "geometry": { "type": "Point", "coordinates": [ 7.58217, 9.02959 ] } },
{ "type": "Feature", "properties": { "fid": 84, "OBJECTID": 39418, "globalid": "5183339b-13f4-4707-8d1e-a2d942608b01", "nhfr_uid": null, "nhfr_facility_code": null, "country": "Nigeria", "iso": "NGA", "state": "Fct", "lga": "Abuja Municipal Area Council", "lga_name_disagreement": 0, "ward": "Gwarimpa", "ward_name_disagreement": 0, "facility_name": "Lamingo Primary Health Center", "facility_name_source": "GRID3_EHEALTH", "ownership": "Public", "ownership_type": "Unknown", "facility_level": "Primary", "facility_level_option": "Primary Health Center", "last_updated": "11/11/2024 00:00", "longitude": 7.410385309, "latitude": 9.1055668, "Local Validation": "Primary\n" }, "geometry": { "type": "Point", "coordinates": [ 7.410385309, 9.1055668 ] } },
{ "type": "Feature", "properties": { "fid": 85, "OBJECTID": 32876, "globalid": "156b1b93-2841-43d6-84b0-e327c50fdb25", "nhfr_uid": null, "nhfr_facility_code": null, "country": "Nigeria", "iso": "NGA", "state": "Fct", "lga": "Abuja Municipal Area Council", "lga_name_disagreement": 0, "ward": "Wuse", "ward_name_disagreement": 0, "facility_name": "Medicaid Radioagnostic", "facility_name_source": "GRID3_EHEALTH", "ownership": "Public", "ownership_type": "Unknown", "facility_level": "Primary", "facility_level_option": "Primary Health Center", "last_updated": "11/11/2024 00:00", "longitude": 7.46208, "latitude": 9.07742, "Local Validation": "Primary\n" }, "geometry": { "type": "Point", "coordinates": [ 7.46208, 9.07742 ] } },
{ "type": "Feature", "properties": { "fid": 86, "OBJECTID": 36854, "globalid": "32d962fb-0770-4080-b799-0077d2fd6000", "nhfr_uid": null, "nhfr_facility_code": null, "country": "Nigeria", "iso": "NGA", "state": "Fct", "lga": "Abuja Municipal Area Council", "lga_name_disagreement": 0, "ward": "Kabusa", "ward_name_disagreement": 0, "facility_name": "Mery Clinic", "facility_name_source": "GRID3_EHEALTH", "ownership": "Public", "ownership_type": "Unknown", "facility_level": "Primary", "facility_level_option": "Primary Health Center", "last_updated": "11/11/2024 00:00", "longitude": 7.44408, "latitude": 8.95189, "Local Validation": "Primary\n" }, "geometry": { "type": "Point", "coordinates": [ 7.44408, 8.95189 ] } },
{ "type": "Feature", "properties": { "fid": 87, "OBJECTID": 10816, "globalid": "cf7a25b8-46c5-4b77-a31c-98aed0d80d13", "nhfr_uid": 14341390.0, "nhfr_facility_code": "37/06/1/1/1/0005", "country": "Nigeria", "iso": "NGA", "state": "Fct", "lga": "Abuja Municipal Area Council", "lga_name_disagreement": 0, "ward": "Karu", "ward_name_disagreement": 0, "facility_name": "Nigeria Custom Medical Center", "facility_name_source": "NHFR_2024", "ownership": "Public", "ownership_type": "Unknown", "facility_level": "Primary", "facility_level_option": "Unknown", "last_updated": "11/11/2024 00:00", "longitude": 7.56427002, "latitude": 9.003723145, "Local Validation": "Primary\n" }, "geometry": { "type": "Point", "coordinates": [ 7.56427002, 9.003723145 ] } },
{ "type": "Feature", "properties": { "fid": 88, "OBJECTID": 36730, "globalid": "05f79f11-dc7c-4844-9fea-d4bd43896c9d", "nhfr_uid": null, "nhfr_facility_code": null, "country": "Nigeria", "iso": "NGA", "state": "Fct", "lga": "Abuja Municipal Area Council", "lga_name_disagreement": 0, "ward": "Wuse", "ward_name_disagreement": 0, "facility_name": "Primed and Diagnostics Clinic", "facility_name_source": "GRID3_EHEALTH", "ownership": "Public", "ownership_type": "Unknown", "facility_level": "Primary", "facility_level_option": "Unknown", "last_updated": "11/11/2024 00:00", "longitude": 7.47864, "latitude": 9.06401, "Local Validation": "Primary\n" }, "geometry": { "type": "Point", "coordinates": [ 7.47864, 9.06401 ] } },
{ "type": "Feature", "properties": { "fid": 89, "OBJECTID": 36852, "globalid": "3de262c6-622c-4f96-8fb2-8ee2e3ca804c", "nhfr_uid": null, "nhfr_facility_code": null, "country": "Nigeria", "iso": "NGA", "state": "Fct", "lga": "Abuja Municipal Area Council", "lga_name_disagreement": 0, "ward": "Orozo", "ward_name_disagreement": 0, "facility_name": "Samrock Hospital", "facility_name_source": "GRID3_EHEALTH", "ownership": "Public", "ownership_type": "Unknown", "facility_level": "Primary", "facility_level_option": "Primary Health Center", "last_updated": "11/11/2024 00:00", "longitude": 7.55021, "latitude": 8.93313, "Local Validation": "Primary\n" }, "geometry": { "type": "Point", "coordinates": [ 7.55021, 8.93313 ] } },
{ "type": "Feature", "properties": { "fid": 90, "OBJECTID": 41376, "globalid": "0a6eca72-deb6-42e6-ac12-f5b5ceca53cd", "nhfr_uid": null, "nhfr_facility_code": null, "country": "Nigeria", "iso": "NGA", "state": "Fct", "lga": "Abuja Municipal Area Council", "lga_name_disagreement": 0, "ward": "City Centre 1", "ward_name_disagreement": 0, "facility_name": "Smart Motherhood Maternity", "facility_name_source": "GRID3_EHEALTH", "ownership": "Public", "ownership_type": "Unknown", "facility_level": "Primary", "facility_level_option": "Primary Health Clinic", "last_updated": "11/11/2024 00:00", "longitude": 7.50143, "latitude": 9.04384, "Local Validation": "Primary\n" }, "geometry": { "type": "Point", "coordinates": [ 7.50143, 9.04384 ] } },
{ "type": "Feature", "properties": { "fid": 91, "OBJECTID": 36868, "globalid": "6476674e-91d0-425b-86a8-71a3be3b932e", "nhfr_uid": null, "nhfr_facility_code": null, "country": "Nigeria", "iso": "NGA", "state": "Fct", "lga": "Abuja Municipal Area Council", "lga_name_disagreement": 0, "ward": "Wuse", "ward_name_disagreement": 0, "facility_name": "The Central Clinic", "facility_name_source": "GRID3_EHEALTH", "ownership": "Public", "ownership_type": "Unknown", "facility_level": "Primary", "facility_level_option": "Primary Health Center", "last_updated": "11/11/2024 00:00", "longitude": 7.48078, "latitude": 9.07545, "Local Validation": "Primary\n" }, "geometry": { "type": "Point", "coordinates": [ 7.48078, 9.07545 ] } },
{ "type": "Feature", "properties": { "fid": 92, "OBJECTID": 38430, "globalid": "2bf9df87-bff9-4701-90cd-65e8feccbfdf", "nhfr_uid": null, "nhfr_facility_code": null, "country": "Nigeria", "iso": "NGA", "state": "Fct", "lga": "Abuja Municipal Area Council", "lga_name_disagreement": 0, "ward": "City Centre 1", "ward_name_disagreement": 0, "facility_name": "United Health Care", "facility_name_source": "GRID3_EHEALTH", "ownership": "Public", "ownership_type": "Unknown", "facility_level": "Primary", "facility_level_option": "Primary Health Center", "last_updated": "11/11/2024 00:00", "longitude": 7.50317, "latitude": 9.04551, "Local Validation": "Primary\n" }, "geometry": { "type": "Point", "coordinates": [ 7.50317, 9.04551 ] } },
{ "type": "Feature", "properties": { "fid": 93, "OBJECTID": 36848, "globalid": "150a8017-1a5b-4798-97bd-dc51a54d1ddf", "nhfr_uid": null, "nhfr_facility_code": null, "country": "Nigeria", "iso": "NGA", "state": "Fct", "lga": "Abuja Municipal Area Council", "lga_name_disagreement": 0, "ward": "Garki", "ward_name_disagreement": 0, "facility_name": "White Diamond Clinic and Maternity", "facility_name_source": "GRID3_EHEALTH", "ownership": "Public", "ownership_type": "Unknown", "facility_level": "Primary", "facility_level_option": "Primary Health Clinic", "last_updated": "11/11/2024 00:00", "longitude": 7.50137, "latitude": 8.98639, "Local Validation": "Primary\n" }, "geometry": { "type": "Point", "coordinates": [ 7.50137, 8.98639 ] } },
{ "type": "Feature", "properties": { "fid": 94, "OBJECTID": 36850, "globalid": "c630a66c-a8d4-4db2-baf8-e3b60f5babf7", "nhfr_uid": null, "nhfr_facility_code": null, "country": "Nigeria", "iso": "NGA", "state": "Fct", "lga": "Abuja Municipal Area Council", "lga_name_disagreement": 0, "ward": "Garki", "ward_name_disagreement": 0, "facility_name": "Zenith and Kidney Medical Center", "facility_name_source": "GRID3_EHEALTH", "ownership": "Public", "ownership_type": "Unknown", "facility_level": "Primary", "facility_level_option": "Primary Health Center", "last_updated": "11/11/2024 00:00", "longitude": 7.48931, "latitude": 9.01588, "Local Validation": "Primary\n" }, "geometry": { "type": "Point", "coordinates": [ 7.48931, 9.01588 ] } }
]
}
