{
"type": "FeatureCollection",
"name": "healthcare_facilities_kisumu",
"crs": { "type": "name", "properties": { "name": "urn:ogc:def:crs:OGC:1.3:CRS84" } },
"features": [
{ "type": "Feature", "properties": { "field_1": 1, "Field_1_1": "Kenya", "Admin_1": "Kisumu", "facility_name": "Macmohan Health Care Limited", "facility_type": "Basic Health Centre", "owner_type_name": "Private Practice", "latitude": -0.08287, "longitude": 34.77501, "Sub_Couinty": "Kisumu Central", "LL_Source": "KMHFR", "ward_name": "Kondele", "keph_level_name": "Level 3", "Operating_Time": "24 Hours", "total_ inpatient_beds": 36, "general_inpatient_beds": 28, "cots": 1, "maternity_beds": 8, "emergency_casualty_beds": 0, "intensive_care_unit_beds": 0, "high_dependancy_unit_beds": 0, "isolation_beds": 0, "general_theatres": 0, "maternity_theatres": false, "minor_theatres": false, "BMoc": true, "CeMoc": false, "Local_Validation": "Private Basic EmOC", "hcf_id": 0 }, "geometry": { "type": "Point", "coordinates": [ 34.77501, -0.08287 ] } },
{ "type": "Feature", "properties": { "field_1": 2, "Field_1_1": "Kenya", "Admin_1": "Kisumu", "facility_name": "Impact Research, Training and Healthcare Services", "facility_type": "Basic Health Centre", "owner_type_name": "Private Practice", "latitude": -0.08661, "longitude": 34.76615, "Sub_Couinty": "Kisumu Central", "LL_Source": "KMHFR", "ward_name": "Railways", "keph_level_name": "Level 3", "Operating_Time": "24 Hours", "total_ inpatient_beds": 34, "general_inpatient_beds": 25, "cots": 5, "maternity_beds": 7, "emergency_casualty_beds": 2, "intensive_care_unit_beds": 0, "high_dependancy_unit_beds": 0, "isolation_beds": 2, "general_theatres": 0, "maternity_theatres": false, "minor_theatres": false, "BMoc": true, "CeMoc": true, "Local_Validation": "Private Comprehensive EmOC", "hcf_id": 1 }, "geometry": { "type": "Point", "coordinates": [ 34.76615, -0.08661 ] } },
{ "type": "Feature", "properties": { "field_1": 3, "Field_1_1": "Kenya", "Admin_1": "Kisumu", "facility_name": "Lafe Medical Centre", "facility_type": "Medical Clinic", "owner_type_name": "Private Practice", "latitude": -0.07987, "longitude": 34.78401, "Sub_Couinty": "Kisumu Central", "LL_Source": "KMHFR", "ward_name": "Kondele", "keph_level_name": "Level 2", "Operating_Time": "24 Hours", "total_ inpatient_beds": 4, "general_inpatient_beds": 3, "cots": 0, "maternity_beds": 1, "emergency_casualty_beds": 0, "intensive_care_unit_beds": 0, "high_dependancy_unit_beds": 0, "isolation_beds": 0, "general_theatres": 0, "maternity_theatres": false, "minor_theatres": false, "BMoc": true, "CeMoc": false, "Local_Validation": "Private Basic EmOC", "hcf_id": 2 }, "geometry": { "type": "Point", "coordinates": [ 34.78401, -0.07987 ] } },
{ "type": "Feature", "properties": { "field_1": 4, "Field_1_1": "Kenya", "Admin_1": "Kisumu", "facility_name": "Jaramogi  Odinga Teaching & Referral Hospital", "facility_type": "Specialized & Tertiary Referral hospitals", "owner_type_name": "Ministry of Health", "latitude": -0.08855, "longitude": 34.77038, "Sub_Couinty": "Kisumu Central", "LL_Source": "KMHFR", "ward_name": "Kondele", "keph_level_name": "Level 6", "Operating_Time": "24 Hours", "total_ inpatient_beds": 0, "general_inpatient_beds": 0, "cots": 0, "maternity_beds": 0, "emergency_casualty_beds": 0, "intensive_care_unit_beds": 0, "high_dependancy_unit_beds": 0, "isolation_beds": 0, "general_theatres": 0, "maternity_theatres": false, "minor_theatres": false, "BMoc": true, "CeMoc": true, "Local_Validation": "Public Comprehensive EmOC", "hcf_id": 3 }, "geometry": { "type": "Point", "coordinates": [ 34.77038, -0.08855 ] } },
{ "type": "Feature", "properties": { "field_1": 5, "Field_1_1": "Kenya", "Admin_1": "Kisumu", "facility_name": "Ahava Medical Centre", "facility_type": "Medical Clinic", "owner_type_name": "Private Practice", "latitude": -0.09979, "longitude": 34.78218, "Sub_Couinty": "Kisumu Central", "LL_Source": "KMHFR", "ward_name": "Kondele", "keph_level_name": "Level 2", "Operating_Time": "24 Hours", "total_ inpatient_beds": 0, "general_inpatient_beds": 0, "cots": 3, "maternity_beds": 0, "emergency_casualty_beds": 0, "intensive_care_unit_beds": 0, "high_dependancy_unit_beds": 0, "isolation_beds": 0, "general_theatres": 0, "maternity_theatres": false, "minor_theatres": false, "BMoc": true, "CeMoc": false, "Local_Validation": "Private Basic EmOC", "hcf_id": 4 }, "geometry": { "type": "Point", "coordinates": [ 34.78218, -0.09979 ] } },
{ "type": "Feature", "properties": { "field_1": 6, "Field_1_1": "Kenya", "Admin_1": "Kisumu", "facility_name": "Ambercare Medical Care", "facility_type": "Medical Center", "owner_type_name": "Private Practice", "latitude": -0.08458, "longitude": 34.76384, "Sub_Couinty": "Kisumu Central", "LL_Source": "KMHFR", "ward_name": "Railways", "keph_level_name": "Level 3", "Operating_Time": "24 Hours", "total_ inpatient_beds": 2, "general_inpatient_beds": 0, "cots": 0, "maternity_beds": 0, "emergency_casualty_beds": 2, "intensive_care_unit_beds": 0, "high_dependancy_unit_beds": 0, "isolation_beds": 0, "general_theatres": 0, "maternity_theatres": false, "minor_theatres": false, "BMoc": true, "CeMoc": false, "Local_Validation": "Private Basic EmOC", "hcf_id": 5 }, "geometry": { "type": "Point", "coordinates": [ 34.76384, -0.08458 ] } },
{ "type": "Feature", "properties": { "field_1": 7, "Field_1_1": "Kenya", "Admin_1": "Kisumu", "facility_name": "Tayyiba Medical Centre", "facility_type": "Medical Center", "owner_type_name": "Faith Based Organization", "latitude": -0.10062, "longitude": 34.75038, "Sub_Couinty": "Kisumu Central", "LL_Source": "KMHFR", "ward_name": "Railways", "keph_level_name": "Level 4", "Operating_Time": "24 Hours", "total_ inpatient_beds": 40, "general_inpatient_beds": 0, "cots": 0, "maternity_beds": 2, "emergency_casualty_beds": 1, "intensive_care_unit_beds": 0, "high_dependancy_unit_beds": 0, "isolation_beds": 5, "general_theatres": 2, "maternity_theatres": true, "minor_theatres": false, "BMoc": false, "CeMoc": true, "Local_Validation": "Private Comprehensive EmOC", "hcf_id": 6 }, "geometry": { "type": "Point", "coordinates": [ 34.75038, -0.10062 ] } },
{ "type": "Feature", "properties": { "field_1": 8, "Field_1_1": "Kenya", "Admin_1": "Kisumu", "facility_name": "St. Francis Hillside Medicare", "facility_type": "Medical Center", "owner_type_name": "Private Practice", "latitude": -0.10008, "longitude": 34.75251, "Sub_Couinty": "Kisumu Central", "LL_Source": "KMHFR", "ward_name": "Railways", "keph_level_name": "Level 3", "Operating_Time": "24 Hours", "total_ inpatient_beds": 1, "general_inpatient_beds": 0, "cots": 0, "maternity_beds": 2, "emergency_casualty_beds": 1, "intensive_care_unit_beds": 0, "high_dependancy_unit_beds": 0, "isolation_beds": 0, "general_theatres": 1, "maternity_theatres": false, "minor_theatres": false, "BMoc": true, "CeMoc": false, "Local_Validation": "Private Basic EmOC", "hcf_id": 7 }, "geometry": { "type": "Point", "coordinates": [ 34.75251, -0.10008 ] } },
{ "type": "Feature", "properties": { "field_1": 9, "Field_1_1": "Kenya", "Admin_1": "Kisumu", "facility_name": "Kannika International Ltd Hospital(Kisumu)", "facility_type": "Secondary care hospitals", "owner_type_name": "Private Practice", "latitude": -0.091, "longitude": 34.76022, "Sub_Couinty": "Kisumu Central", "LL_Source": "KMHFR", "ward_name": "Railways", "keph_level_name": "Level 4", "Operating_Time": "24 Hours", "total_ inpatient_beds": 3, "general_inpatient_beds": 0, "cots": 2, "maternity_beds": 1, "emergency_casualty_beds": 2, "intensive_care_unit_beds": 0, "high_dependancy_unit_beds": 0, "isolation_beds": 0, "general_theatres": 1, "maternity_theatres": true, "minor_theatres": false, "BMoc": true, "CeMoc": true, "Local_Validation": "Private Comprehensive EmOC", "hcf_id": 8 }, "geometry": { "type": "Point", "coordinates": [ 34.76022, -0.091 ] } },
{ "type": "Feature", "properties": { "field_1": 10, "Field_1_1": "Kenya", "Admin_1": "Kisumu", "facility_name": "Gifted Minds Medical Centre", "facility_type": "Basic Health Centre", "owner_type_name": "Private Practice", "latitude": -0.07903, "longitude": 34.77245, "Sub_Couinty": "Kisumu Central", "LL_Source": "KMHFR", "ward_name": "Kondele", "keph_level_name": "Level 3", "Operating_Time": "24 Hours", "total_ inpatient_beds": 0, "general_inpatient_beds": 14, "cots": 0, "maternity_beds": 0, "emergency_casualty_beds": 1, "intensive_care_unit_beds": 0, "high_dependancy_unit_beds": 0, "isolation_beds": 0, "general_theatres": 0, "maternity_theatres": false, "minor_theatres": false, "BMoc": true, "CeMoc": false, "Local_Validation": "Private Basic EmOC", "hcf_id": 9 }, "geometry": { "type": "Point", "coordinates": [ 34.77245, -0.07903 ] } },
{ "type": "Feature", "properties": { "field_1": 11, "Field_1_1": "Kenya", "Admin_1": "Kisumu", "facility_name": "Skyteam Medical Clinic", "facility_type": "Medical Clinic", "owner_type_name": "Private Practice", "latitude": -0.14096, "longitude": 34.73567, "Sub_Couinty": "Kisumu Central", "LL_Source": "KMHFR", "ward_name": "Nyalenda B", "keph_level_name": "Level 2", "Operating_Time": "24 Hours", "total_ inpatient_beds": 1, "general_inpatient_beds": 0, "cots": 0, "maternity_beds": 0, "emergency_casualty_beds": 0, "intensive_care_unit_beds": 0, "high_dependancy_unit_beds": 0, "isolation_beds": 0, "general_theatres": 0, "maternity_theatres": false, "minor_theatres": false, "BMoc": true, "CeMoc": false, "Local_Validation": "Private Basic EmOC", "hcf_id": 10 }, "geometry": { "type": "Point", "coordinates": [ 34.73567, -0.14096 ] } },
{ "type": "Feature", "properties": { "field_1": 12, "Field_1_1": "Kenya", "Admin_1": "Kisumu", "facility_name": "Fairmont Hospital", "facility_type": "Primary care hospitals", "owner_type_name": "Private Practice", "latitude": -0.08453, "longitude": 34.76584, "Sub_Couinty": "Kisumu Central", "LL_Source": "KMHFR", "ward_name": "Railways", "keph_level_name": "Level 4", "Operating_Time": "24 Hours", "total_ inpatient_beds": 20, "general_inpatient_beds": 0, "cots": 4, "maternity_beds": 0, "emergency_casualty_beds": 0, "intensive_care_unit_beds": 0, "high_dependancy_unit_beds": 0, "isolation_beds": 0, "general_theatres": 0, "maternity_theatres": false, "minor_theatres": false, "BMoc": false, "CeMoc": true, "Local_Validation": "Private Comprehensive EmOC", "hcf_id": 11 }, "geometry": { "type": "Point", "coordinates": [ 34.76584, -0.08453 ] } },
{ "type": "Feature", "properties": { "field_1": 13, "Field_1_1": "Kenya", "Admin_1": "Kisumu", "facility_name": "Oasis Doctors Plaza-Tom Mboya Estate", "facility_type": "Primary care hospitals", "owner_type_name": "Private Practice", "latitude": -0.08064, "longitude": 34.76928, "Sub_Couinty": "Kisumu Central", "LL_Source": "KMHFR", "ward_name": "Railways", "keph_level_name": "Level 4", "Operating_Time": "24 Hours", "total_ inpatient_beds": 10, "general_inpatient_beds": 0, "cots": 10, "maternity_beds": 0, "emergency_casualty_beds": 0, "intensive_care_unit_beds": 0, "high_dependancy_unit_beds": 0, "isolation_beds": 0, "general_theatres": 0, "maternity_theatres": false, "minor_theatres": false, "BMoc": true, "CeMoc": true, "Local_Validation": "Private Comprehensive EmOC", "hcf_id": 12 }, "geometry": { "type": "Point", "coordinates": [ 34.76928, -0.08064 ] } },
{ "type": "Feature", "properties": { "field_1": 14, "Field_1_1": "Kenya", "Admin_1": "Kisumu", "facility_name": "Maxcure Hospitals Limited-Kisumu", "facility_type": "Secondary care hospitals", "owner_type_name": "Private Practice", "latitude": -0.1076, "longitude": 34.7696, "Sub_Couinty": "Kisumu Central", "LL_Source": "KMHFR", "ward_name": "Shauri Moyo Kaloleni", "keph_level_name": "Level 4", "Operating_Time": "24 Hours", "total_ inpatient_beds": 55, "general_inpatient_beds": 0, "cots": 0, "maternity_beds": 0, "emergency_casualty_beds": 5, "intensive_care_unit_beds": 4, "high_dependancy_unit_beds": 5, "isolation_beds": 0, "general_theatres": 2, "maternity_theatres": true, "minor_theatres": false, "BMoc": true, "CeMoc": true, "Local_Validation": "Private Comprehensive EmOC", "hcf_id": 13 }, "geometry": { "type": "Point", "coordinates": [ 34.7696, -0.1076 ] } },
{ "type": "Feature", "properties": { "field_1": 15, "Field_1_1": "Kenya", "Admin_1": "Kisumu", "facility_name": "Africa Inuka Hospital Ltd", "facility_type": "Primary care hospitals", "owner_type_name": "Private Practice", "latitude": -0.11387, "longitude": 34.7568, "Sub_Couinty": "Kisumu Central", "LL_Source": "KMHFR", "ward_name": "Market Milimani", "keph_level_name": "Level 4", "Operating_Time": "24 Hours", "total_ inpatient_beds": 60, "general_inpatient_beds": 49, "cots": 5, "maternity_beds": 7, "emergency_casualty_beds": 2, "intensive_care_unit_beds": 2, "high_dependancy_unit_beds": 0, "isolation_beds": 2, "general_theatres": 0, "maternity_theatres": false, "minor_theatres": false, "BMoc": true, "CeMoc": true, "Local_Validation": "Private Comprehensive EmOC", "hcf_id": 14 }, "geometry": { "type": "Point", "coordinates": [ 34.7568, -0.11387 ] } },
{ "type": "Feature", "properties": { "field_1": 16, "Field_1_1": "Kenya", "Admin_1": "Kisumu", "facility_name": "Kisumu County Referral Hospital", "facility_type": "Primary care hospitals", "owner_type_name": "Ministry of Health", "latitude": -0.10181, "longitude": 34.756, "Sub_Couinty": "Kisumu Central", "LL_Source": "KMHFR", "ward_name": "Market Milimani", "keph_level_name": "Level 4", "Operating_Time": "24 Hours", "total_ inpatient_beds": 0, "general_inpatient_beds": 0, "cots": 5, "maternity_beds": 0, "emergency_casualty_beds": 0, "intensive_care_unit_beds": 0, "high_dependancy_unit_beds": 0, "isolation_beds": 0, "general_theatres": 0, "maternity_theatres": false, "minor_theatres": false, "BMoc": false, "CeMoc": true, "Local_Validation": "Public Comprehensive EmOC", "hcf_id": 15 }, "geometry": { "type": "Point", "coordinates": [ 34.756, -0.10181 ] } },
{ "type": "Feature", "properties": { "field_1": 17, "Field_1_1": "Kenya", "Admin_1": "Kisumu", "facility_name": "Haim Healthcare Limited", "facility_type": "Medical Center", "owner_type_name": "Private Practice", "latitude": -0.10426, "longitude": 34.74782, "Sub_Couinty": "Kisumu Central", "LL_Source": "KMHFR", "ward_name": "Market Milimani", "keph_level_name": "Level 3", "Operating_Time": "24 Hours", "total_ inpatient_beds": 0, "general_inpatient_beds": 0, "cots": 0, "maternity_beds": 3, "emergency_casualty_beds": 0, "intensive_care_unit_beds": 0, "high_dependancy_unit_beds": 0, "isolation_beds": 0, "general_theatres": 0, "maternity_theatres": false, "minor_theatres": false, "BMoc": true, "CeMoc": false, "Local_Validation": "Private Basic EmOC", "hcf_id": 16 }, "geometry": { "type": "Point", "coordinates": [ 34.74782, -0.10426 ] } },
{ "type": "Feature", "properties": { "field_1": 18, "Field_1_1": "Kenya", "Admin_1": "Kisumu", "facility_name": "Bloom Surgical Centre", "facility_type": "Medical Center", "owner_type_name": "Private Practice", "latitude": -0.10976, "longitude": 34.77131, "Sub_Couinty": "Kisumu Central", "LL_Source": "KMHFR", "ward_name": "Market Milimani", "keph_level_name": "Level 3", "Operating_Time": "24 Hours", "total_ inpatient_beds": 12, "general_inpatient_beds": 0, "cots": 0, "maternity_beds": 0, "emergency_casualty_beds": 1, "intensive_care_unit_beds": 0, "high_dependancy_unit_beds": 1, "isolation_beds": 0, "general_theatres": 1, "maternity_theatres": true, "minor_theatres": false, "BMoc": true, "CeMoc": true, "Local_Validation": "Private Comprehensive EmOC", "hcf_id": 17 }, "geometry": { "type": "Point", "coordinates": [ 34.77131, -0.10976 ] } },
{ "type": "Feature", "properties": { "field_1": 19, "Field_1_1": "Kenya", "Admin_1": "Kisumu", "facility_name": "Nightingale Medical Centre-Milimani", "facility_type": "Medical Center", "owner_type_name": "Private Practice", "latitude": -0.10775, "longitude": 34.75564, "Sub_Couinty": "Kisumu Central", "LL_Source": "KMHFR", "ward_name": "Market Milimani", "keph_level_name": "Level 4", "Operating_Time": "24 Hours", "total_ inpatient_beds": 80, "general_inpatient_beds": 0, "cots": 0, "maternity_beds": 0, "emergency_casualty_beds": 0, "intensive_care_unit_beds": 0, "high_dependancy_unit_beds": 0, "isolation_beds": 0, "general_theatres": 0, "maternity_theatres": false, "minor_theatres": false, "BMoc": true, "CeMoc": true, "Local_Validation": "Private Comprehensive EmOC", "hcf_id": 18 }, "geometry": { "type": "Point", "coordinates": [ 34.75564, -0.10775 ] } },
{ "type": "Feature", "properties": { "field_1": 22, "Field_1_1": "Kenya", "Admin_1": "Kisumu", "facility_name": "St Monica Hospital", "facility_type": "Primary care hospitals", "owner_type_name": "Faith Based Organization", "latitude": -0.0422, "longitude": 34.76971, "Sub_Couinty": "Kisumu East", "LL_Source": "KMHFR", "ward_name": "Kajulu", "keph_level_name": "Level 4", "Operating_Time": "24 Hours", "total_ inpatient_beds": 120, "general_inpatient_beds": 100, "cots": 10, "maternity_beds": 20, "emergency_casualty_beds": 8, "intensive_care_unit_beds": 0, "high_dependancy_unit_beds": 0, "isolation_beds": 0, "general_theatres": 0, "maternity_theatres": false, "minor_theatres": false, "BMoc": false, "CeMoc": true, "Local_Validation": "Private Comprehensive EmOC", "hcf_id": 19 }, "geometry": { "type": "Point", "coordinates": [ 34.76971, -0.0422 ] } },
{ "type": "Feature", "properties": { "field_1": 23, "Field_1_1": "Kenya", "Admin_1": "Kisumu", "facility_name": "St. Lucia Hospital", "facility_type": "Primary care hospitals", "owner_type_name": "Private Practice", "latitude": -0.14185, "longitude": 34.80577, "Sub_Couinty": "Kisumu East", "LL_Source": "KMHFR", "ward_name": "Kolwa East", "keph_level_name": "Level 4", "Operating_Time": "24 Hours", "total_ inpatient_beds": 0, "general_inpatient_beds": 130, "cots": 6, "maternity_beds": 20, "emergency_casualty_beds": 4, "intensive_care_unit_beds": 2, "high_dependancy_unit_beds": 5, "isolation_beds": 5, "general_theatres": 2, "maternity_theatres": true, "minor_theatres": true, "BMoc": true, "CeMoc": true, "Local_Validation": "Private Comprehensive EmOC", "hcf_id": 20 }, "geometry": { "type": "Point", "coordinates": [ 34.80577, -0.14185 ] } },
{ "type": "Feature", "properties": { "field_1": 26, "Field_1_1": "Kenya", "Admin_1": "Kisumu", "facility_name": "Onyango Agumba Hospital", "facility_type": "Primary care hospitals", "owner_type_name": "Private Practice", "latitude": -0.07689, "longitude": 34.79552, "Sub_Couinty": "Kisumu East", "LL_Source": "KMHFR", "ward_name": "Kolwa Central", "keph_level_name": "Level 4", "Operating_Time": "24 Hours", "total_ inpatient_beds": 65, "general_inpatient_beds": 0, "cots": 0, "maternity_beds": 3, "emergency_casualty_beds": 0, "intensive_care_unit_beds": 0, "high_dependancy_unit_beds": 0, "isolation_beds": 0, "general_theatres": 1, "maternity_theatres": false, "minor_theatres": false, "BMoc": true, "CeMoc": false, "Local_Validation": "Private Basic EmOC", "hcf_id": 21 }, "geometry": { "type": "Point", "coordinates": [ 34.79552, -0.07689 ] } },
{ "type": "Feature", "properties": { "field_1": 27, "Field_1_1": "Kenya", "Admin_1": "Kisumu", "facility_name": "Gita Sub County Hospital", "facility_type": "Primary care hospitals", "owner_type_name": "Ministry of Health", "latitude": -0.02782, "longitude": 34.79048, "Sub_Couinty": "Kisumu East", "LL_Source": "KMHFR", "ward_name": "Kajulu", "keph_level_name": "Level 4", "Operating_Time": "24 Hours", "total_ inpatient_beds": 27, "general_inpatient_beds": 0, "cots": 2, "maternity_beds": 0, "emergency_casualty_beds": 0, "intensive_care_unit_beds": 0, "high_dependancy_unit_beds": 0, "isolation_beds": 0, "general_theatres": 0, "maternity_theatres": false, "minor_theatres": false, "BMoc": true, "CeMoc": false, "Local_Validation": "Public Basic EmOC", "hcf_id": 22 }, "geometry": { "type": "Point", "coordinates": [ 34.79048, -0.02782 ] } },
{ "type": "Feature", "properties": { "field_1": 28, "Field_1_1": "Kenya", "Admin_1": "Kisumu", "facility_name": "Nyalunya Health Centre", "facility_type": "Basic Health Centre", "owner_type_name": "Ministry of Health", "latitude": -0.11746, "longitude": 34.80916, "Sub_Couinty": "Kisumu East", "LL_Source": "KMHFR", "ward_name": "Kolwa Central", "keph_level_name": "Level 3", "Operating_Time": "24 Hours", "total_ inpatient_beds": 4, "general_inpatient_beds": 0, "cots": 0, "maternity_beds": 0, "emergency_casualty_beds": 0, "intensive_care_unit_beds": 0, "high_dependancy_unit_beds": 0, "isolation_beds": 0, "general_theatres": 0, "maternity_theatres": false, "minor_theatres": false, "BMoc": true, "CeMoc": false, "Local_Validation": "Public Basic EmOC", "hcf_id": 23 }, "geometry": { "type": "Point", "coordinates": [ 34.80916, -0.11746 ] } },
{ "type": "Feature", "properties": { "field_1": 29, "Field_1_1": "Kenya", "Admin_1": "Kisumu", "facility_name": "Kibos Sugar Research Dispensary", "facility_type": "Dispensary", "owner_type_name": "Ministry of Health", "latitude": -0.03391, "longitude": 34.80346, "Sub_Couinty": "Kisumu East", "LL_Source": "KMHFR", "ward_name": "Kajulu", "keph_level_name": "Level 2", "Operating_Time": "24 Hours", "total_ inpatient_beds": 0, "general_inpatient_beds": 0, "cots": 0, "maternity_beds": 0, "emergency_casualty_beds": 0, "intensive_care_unit_beds": 0, "high_dependancy_unit_beds": 0, "isolation_beds": 0, "general_theatres": 0, "maternity_theatres": false, "minor_theatres": false, "BMoc": true, "CeMoc": false, "Local_Validation": "Public Basic EmOC", "hcf_id": 24 }, "geometry": { "type": "Point", "coordinates": [ 34.80346, -0.03391 ] } },
{ "type": "Feature", "properties": { "field_1": 30, "Field_1_1": "Kenya", "Admin_1": "Kisumu", "facility_name": "Maisha Medical Clinic", "facility_type": "Medical Clinic", "owner_type_name": "Private Practice", "latitude": -0.11028, "longitude": 34.80967, "Sub_Couinty": "Kisumu East", "LL_Source": "KMHFR", "ward_name": "Kolwa East", "keph_level_name": "Level 2", "Operating_Time": "24 Hours", "total_ inpatient_beds": 0, "general_inpatient_beds": 0, "cots": 0, "maternity_beds": 0, "emergency_casualty_beds": 0, "intensive_care_unit_beds": 0, "high_dependancy_unit_beds": 0, "isolation_beds": 0, "general_theatres": 0, "maternity_theatres": false, "minor_theatres": false, "BMoc": true, "CeMoc": false, "Local_Validation": "Private Basic EmOC", "hcf_id": 25 }, "geometry": { "type": "Point", "coordinates": [ 34.80967, -0.11028 ] } },
{ "type": "Feature", "properties": { "field_1": 33, "Field_1_1": "Kenya", "Admin_1": "Kisumu", "facility_name": "Barkorumba Health Centre", "facility_type": "Basic Health Centre", "owner_type_name": "Ministry of Health", "latitude": -0.04839, "longitude": 34.75678, "Sub_Couinty": "Kisumu West", "LL_Source": "KMHFR", "ward_name": "Kisumu North", "keph_level_name": "Level 3", "Operating_Time": "24 Hours", "total_ inpatient_beds": 0, "general_inpatient_beds": 0, "cots": 0, "maternity_beds": 0, "emergency_casualty_beds": 0, "intensive_care_unit_beds": 0, "high_dependancy_unit_beds": 0, "isolation_beds": 0, "general_theatres": 0, "maternity_theatres": false, "minor_theatres": false, "BMoc": true, "CeMoc": false, "Local_Validation": "Public Basic EmOC", "hcf_id": 26 }, "geometry": { "type": "Point", "coordinates": [ 34.75678, -0.04839 ] } },
{ "type": "Feature", "properties": { "field_1": 34, "Field_1_1": "Kenya", "Admin_1": "Kisumu", "facility_name": "Geta Health Centre", "facility_type": "Basic Health Centre", "owner_type_name": "Ministry of Health", "latitude": -0.05006, "longitude": 34.69332, "Sub_Couinty": "Kisumu West", "LL_Source": "KMHFR", "ward_name": "Kisumu North", "keph_level_name": "Level 3", "Operating_Time": "24 Hours", "total_ inpatient_beds": 0, "general_inpatient_beds": 0, "cots": 0, "maternity_beds": 0, "emergency_casualty_beds": 0, "intensive_care_unit_beds": 0, "high_dependancy_unit_beds": 0, "isolation_beds": 0, "general_theatres": 0, "maternity_theatres": false, "minor_theatres": false, "BMoc": true, "CeMoc": false, "Local_Validation": "Public Basic EmOC", "hcf_id": 27 }, "geometry": { "type": "Point", "coordinates": [ 34.69332, -0.05006 ] } }
]
}
