{
"type": "FeatureCollection",
"name": "healthcare_facilities_emoc_hcfid",
"crs": { "type": "name", "properties": { "name": "urn:ogc:def:crs:OGC:1.3:CRS84" } },
"features": [
{ "type": "Feature", "properties": { "CodigoPrestador": 6600100217.0, "primary_hc": null, "basic_emoc": "x", "comp_emoc": "?", "NombrePrestador": "CAJA DE COMPENSACION FAMILIAR DE RISARALDA COMFAMILIAR RISARALDA", "CodigoHabilitacionSede": 660010000000.0, "NombreSede": "CLINICA COMFAMILIAR", "TipoIdentificacion": "NI", "NumeroIdentificacion": 891480000, "NaturalezaJuridica": "Privada", "ESE": "NO", "MunicipioPrestador": 66001, "DepartamentoPrestadorDesc": "Risaralda", "MunicipioPrestadorDesc": "PEREIRA", "DireccionPrestador": "AV CIRCUNVALAR # 3-01", "EmailPrestador": "comfarda@comfamiliar.com", "TelefonoPrestador": "3138700 ext 2324, 3135600 Ext 2148", "MunicipioSede": 66001, "DepartamentoSedeDesc": "Risaralda", "MunicipioSedeDesc": "PEREIRA", "DireccionSede": "AV CIRCUNVALAR # 3-01", "EmailSede": "comfarda@comfamiliar.com", "TelefonoSede": "3138700 3135600 EXT 2324", "ClasePrestadorDesc": "Instituciones Prestadoras de Servicios de Salud - IPS", "FechaCorte": "Fecha corte REPS: Jul 4 2023 1:19PM", "address_geocoding": "AV CIRCUNVALAR # 3-01, PEREIRA, Risaralda, COLOMBIA", "status": "OK", "latitude": 4.8075606, "longitude": -75.6809037, "project_validation": "Private Comprehensive EmOC", "hcf_id": 1 }, "geometry": { "type": "Point", "coordinates": [ -75.6809037, 4.8075606 ] } },
{ "type": "Feature", "properties": { "CodigoPrestador": 6600100299.0, "primary_hc": null, "basic_emoc": "x", "comp_emoc": "x", "NombrePrestador": "CRUZ ROJA SECCIONAL RISARALDA", "CodigoHabilitacionSede": 660010000000.0, "NombreSede": "CRUZ ROJA SECCIONAL RISARALDA", "TipoIdentificacion": "NI", "NumeroIdentificacion": 891408031, "NaturalezaJuridica": "Privada", "ESE": null, "MunicipioPrestador": 66001, "DepartamentoPrestadorDesc": "Risaralda", "MunicipioPrestadorDesc": "PEREIRA", "DireccionPrestador": "CLL 16 CRA 15 ESQUINA", "EmailPrestador": "saludrisaralda@cruzrojacolombiana.org", "TelefonoPrestador": "3498730", "MunicipioSede": 66001, "DepartamentoSedeDesc": "Risaralda", "MunicipioSedeDesc": "PEREIRA", "DireccionSede": "CLL 16 CRA 15 ESQUINA", "EmailSede": "saludrisaralda@cruzrojacolombiana.org - risaralda@cruzrojacolombiana.org", "TelefonoSede": "3498730", "ClasePrestadorDesc": "Instituciones Prestadoras de Servicios de Salud - IPS", "FechaCorte": "Fecha corte REPS: Jul 4 2023 1:19PM", "address_geocoding": "CLL 16 CRA 15 ESQUINA, PEREIRA, Risaralda, COLOMBIA", "status": "OK", "latitude": 4.807564, "longitude": -75.6924506, "project_validation": "Private Comprehensive EmOC", "hcf_id": 2 }, "geometry": { "type": "Point", "coordinates": [ -75.6924506, 4.807564 ] } },
{ "type": "Feature", "properties": { "CodigoPrestador": 6600100332.0, "primary_hc": null, "basic_emoc": "x", "comp_emoc": "x", "NombrePrestador": "EMPRESA SOCIAL DEL ESTADO SALUD PEREIRA", "CodigoHabilitacionSede": 660010000000.0, "NombreSede": "HOSPITAL DE KENNEDY", "TipoIdentificacion": "NI", "NumeroIdentificacion": 816005003, "NaturalezaJuridica": "P√∫blica", "ESE": "SI", "MunicipioPrestador": 66001, "DepartamentoPrestadorDesc": "Risaralda", "MunicipioPrestadorDesc": "PEREIRA", "DireccionPrestador": "CRA 7 CON CALLE 40", "EmailPrestador": "correo@esepereira.gov.co", "TelefonoPrestador": "3515252 EXT 529", "MunicipioSede": 66001, "DepartamentoSedeDesc": "Risaralda", "MunicipioSedeDesc": "PEREIRA", "DireccionSede": "CRA 12 CALLE 9 PLAZUELA ESTADIO MORA MORA", "EmailSede": "calidad@esepereira.gov.co", "TelefonoSede": "3515252 ext 501-520", "ClasePrestadorDesc": "Instituciones Prestadoras de Servicios de Salud - IPS", "FechaCorte": "Fecha corte REPS: Jul 4 2023 1:19PM", "address_geocoding": "CRA 12 CALLE 9 PLAZUELA ESTADIO MORA MORA, PEREIRA, Risaralda, COLOMBIA", "status": "OK", "latitude": 4.8157426, "longitude": -75.7332434, "project_validation": "Public Comprehensive EmOC", "hcf_id": 3 }, "geometry": { "type": "Point", "coordinates": [ -75.7332434, 4.8157426 ] } },
{ "type": "Feature", "properties": { "CodigoPrestador": 6600100332.0, "primary_hc": null, "basic_emoc": "x", "comp_emoc": "x", "NombrePrestador": "EMPRESA SOCIAL DEL ESTADO SALUD PEREIRA", "CodigoHabilitacionSede": 660010000000.0, "NombreSede": "HOSPITAL SAN JOAQUIN", "TipoIdentificacion": "NI", "NumeroIdentificacion": 816005003, "NaturalezaJuridica": "P√∫blica", "ESE": "SI", "MunicipioPrestador": 66001, "DepartamentoPrestadorDesc": "Risaralda", "MunicipioPrestadorDesc": "PEREIRA", "DireccionPrestador": "CRA 7 CON CALLE 40", "EmailPrestador": "correo@esepereira.gov.co", "TelefonoPrestador": "3515252 EXT 529", "MunicipioSede": 66001, "DepartamentoSedeDesc": "Risaralda", "MunicipioSedeDesc": "PEREIRA", "DireccionSede": "Carrera 26 # 77 - 32 Sector SAN JOAQUIN HOSPITAL", "EmailSede": "calidad@esepereira.gov.co", "TelefonoSede": "3515252 ext 501-520", "ClasePrestadorDesc": "Instituciones Prestadoras de Servicios de Salud - IPS", "FechaCorte": "Fecha corte REPS: Jul 4 2023 1:19PM", "address_geocoding": "Carrera 26 # 77 - 32 Sector SAN JOAQUIN HOSPITAL, PEREIRA, Risaralda, COLOMBIA", "status": "OK", "latitude": 4.7977457, "longitude": -75.7421036, "project_validation": "Public Comprehensive EmOC", "hcf_id": 4 }, "geometry": { "type": "Point", "coordinates": [ -75.7421036, 4.7977457 ] } },
{ "type": "Feature", "properties": { "CodigoPrestador": 6600100361.0, "primary_hc": null, "basic_emoc": "x", "comp_emoc": null, "NombrePrestador": "CLINICA LOS ROSALES S.A", "CodigoHabilitacionSede": 660010000000.0, "NombreSede": "CLINICA LOS ROSALES S.A", "TipoIdentificacion": "NI", "NumeroIdentificacion": 891409981, "NaturalezaJuridica": "Privada", "ESE": "NO", "MunicipioPrestador": 66001, "DepartamentoPrestadorDesc": "Risaralda", "MunicipioPrestadorDesc": "PEREIRA", "DireccionPrestador": "CRA 9 # 25-25", "EmailPrestador": "juridica@clirosales.com", "TelefonoPrestador": "3330380", "MunicipioSede": 66001, "DepartamentoSedeDesc": "Risaralda", "MunicipioSedeDesc": "PEREIRA", "DireccionSede": "CRA 9 # 25-25", "EmailSede": "gerencia@clirosales.com", "TelefonoSede": null, "ClasePrestadorDesc": "Instituciones Prestadoras de Servicios de Salud - IPS", "FechaCorte": "Fecha corte REPS: Jul 4 2023 1:19PM", "address_geocoding": "CRA 9 # 25-25, PEREIRA, Risaralda, COLOMBIA", "status": "OK", "latitude": 4.8134629, "longitude": -75.6997441, "project_validation": "Private Basic EmOC", "hcf_id": 5 }, "geometry": { "type": "Point", "coordinates": [ -75.6997441, 4.8134629 ] } },
{ "type": "Feature", "properties": { "CodigoPrestador": 6600100762.0, "primary_hc": null, "basic_emoc": null, "comp_emoc": "x", "NombrePrestador": "EMPRESA SOCIAL DEL ESTADO HOSPITAL UNIVERSITARIO SAN JORGE", "CodigoHabilitacionSede": 660010000000.0, "NombreSede": "EMPRESA SOCIAL DEL ESTADO HOSPITAL UNIVERSITARIO SAN JORGE", "TipoIdentificacion": "NI", "NumeroIdentificacion": 800231235, "NaturalezaJuridica": "P√∫blica", "ESE": "SI", "MunicipioPrestador": 66001, "DepartamentoPrestadorDesc": "Risaralda", "MunicipioPrestadorDesc": "PEREIRA", "DireccionPrestador": "Kr 4 No. 24-88", "EmailPrestador": "gerencia@husj.gov.co", "TelefonoPrestador": "3206745", "MunicipioSede": 66001, "DepartamentoSedeDesc": "Risaralda", "MunicipioSedeDesc": "PEREIRA", "DireccionSede": "Kr 4 No. 24-88", "EmailSede": "gerencia@husj.gov.co", "TelefonoSede": "3206745", "ClasePrestadorDesc": "Instituciones Prestadoras de Servicios de Salud - IPS", "FechaCorte": "Fecha corte REPS: Jul 4 2023 1:19PM", "address_geocoding": "Kr 4 No. 24-88, PEREIRA, Risaralda, COLOMBIA", "status": "OK", "latitude": 4.8180546, "longitude": -75.6988943, "project_validation": "Public Comprehensive EmOC", "hcf_id": 6 }, "geometry": { "type": "Point", "coordinates": [ -75.6988943, 4.8180546 ] } },
{ "type": "Feature", "properties": { "CodigoPrestador": 6600101308.0, "primary_hc": null, "basic_emoc": "x", "comp_emoc": null, "NombrePrestador": "REHABILITACION MEDICA INTEGRAL DEL EJE CAFETERO RMI SAS", "CodigoHabilitacionSede": 660010000000.0, "NombreSede": "CLINICA COMFAMILIAR", "TipoIdentificacion": "NI", "NumeroIdentificacion": 900096895, "NaturalezaJuridica": "Privada", "ESE": null, "MunicipioPrestador": 66001, "DepartamentoPrestadorDesc": "Risaralda", "MunicipioPrestadorDesc": "PEREIRA", "DireccionPrestador": "AV. CIRCUNVALAR # 3-01 CONSULTA EXTERNA 2", "EmailPrestador": "rmiltda@yahoo.es", "TelefonoPrestador": "3313751", "MunicipioSede": 66001, "DepartamentoSedeDesc": "Risaralda", "MunicipioSedeDesc": "PEREIRA", "DireccionSede": "AV. CIRCUNVALAR # 3-01", "EmailSede": "rmiltda@yahoo.es", "TelefonoSede": "3313751", "ClasePrestadorDesc": "Instituciones Prestadoras de Servicios de Salud - IPS", "FechaCorte": "Fecha corte REPS: Jul 4 2023 1:19PM", "address_geocoding": "AV. CIRCUNVALAR # 3-01, PEREIRA, Risaralda, COLOMBIA", "status": "OK", "latitude": 4.8075606, "longitude": -75.6809037, "project_validation": "Private Basic EmOC", "hcf_id": 7 }, "geometry": { "type": "Point", "coordinates": [ -75.6809037, 4.8075606 ] } },
{ "type": "Feature", "properties": { "CodigoPrestador": 6600101308.0, "primary_hc": null, "basic_emoc": "x", "comp_emoc": null, "NombrePrestador": "REHABILITACION MEDICA INTEGRAL DEL EJE CAFETERO RMI SAS", "CodigoHabilitacionSede": 660010000000.0, "NombreSede": "RMI S.A.S.", "TipoIdentificacion": "NI", "NumeroIdentificacion": 900096895, "NaturalezaJuridica": "Privada", "ESE": null, "MunicipioPrestador": 66001, "DepartamentoPrestadorDesc": "Risaralda", "MunicipioPrestadorDesc": "PEREIRA", "DireccionPrestador": "AV. CIRCUNVALAR # 3-01 CONSULTA EXTERNA 2", "EmailPrestador": "rmiltda@yahoo.es", "TelefonoPrestador": "3313751", "MunicipioSede": 66001, "DepartamentoSedeDesc": "Risaralda", "MunicipioSedeDesc": "PEREIRA", "DireccionSede": "CARREA 5 N¬∞ 18-33 LOBBY LOCAL 7 CENTRO DE ESPECIALISTAS", "EmailSede": "rmicentro@gmail.com rmiltda@yahoo.es", "TelefonoSede": "3164078", "ClasePrestadorDesc": "Instituciones Prestadoras de Servicios de Salud - IPS", "FechaCorte": "Fecha corte REPS: Jul 4 2023 1:19PM", "address_geocoding": "CARREA 5 N¬∞ 18-33 LOBBY LOCAL 7 CENTRO DE ESPECIALISTAS, PEREIRA, Risaralda, COLOMBIA", "status": "OK", "latitude": 4.8162269, "longitude": -75.693636, "project_validation": "Private Basic EmOC", "hcf_id": 8 }, "geometry": { "type": "Point", "coordinates": [ -75.693636, 4.8162269 ] } },
{ "type": "Feature", "properties": { "CodigoPrestador": 6600101587.0, "primary_hc": null, "basic_emoc": "x", "comp_emoc": null, "NombrePrestador": "Sociedad Comercializadora De Insumos y Servicios M√©dicos S.A.S", "CodigoHabilitacionSede": 660010000000.0, "NombreSede": "Clinica San Rafael sede CUBA", "TipoIdentificacion": "NI", "NumeroIdentificacion": 900342064, "NaturalezaJuridica": "Privada", "ESE": null, "MunicipioPrestador": 66001, "DepartamentoPrestadorDesc": "Risaralda", "MunicipioPrestadorDesc": "PEREIRA", "DireccionPrestador": "Carrera 25 # 74 A 87 Barrio San Rafael UribeII", "EmailPrestador": "gerencia@socimedicos.com", "TelefonoPrestador": "3270700-3115411", "MunicipioSede": 66001, "DepartamentoSedeDesc": "Risaralda", "MunicipioSedeDesc": "PEREIRA", "DireccionSede": "Carrera 25 #74 A 87", "EmailSede": "lideraseguramientocalidad@socimedicos.com", "TelefonoSede": "3270700 3115411", "ClasePrestadorDesc": "Instituciones Prestadoras de Servicios de Salud - IPS", "FechaCorte": "Fecha corte REPS: Jul 4 2023 1:19PM", "address_geocoding": "Carrera 25 #74 A 87, PEREIRA, Risaralda, COLOMBIA", "status": "OK", "latitude": 4.80161, "longitude": -75.741407, "project_validation": "Private Basic EmOC", "hcf_id": 9 }, "geometry": { "type": "Point", "coordinates": [ -75.741407, 4.80161 ] } },
{ "type": "Feature", "properties": { "CodigoPrestador": 6600101587.0, "primary_hc": null, "basic_emoc": "x", "comp_emoc": null, "NombrePrestador": "Sociedad Comercializadora De Insumos y Servicios M√©dicos S.A.S", "CodigoHabilitacionSede": 660010000000.0, "NombreSede": "Clinica San Rafael sede Megacentro", "TipoIdentificacion": "NI", "NumeroIdentificacion": 900342064, "NaturalezaJuridica": "Privada", "ESE": null, "MunicipioPrestador": 66001, "DepartamentoPrestadorDesc": "Risaralda", "MunicipioPrestadorDesc": "PEREIRA", "DireccionPrestador": "Carrera 25 # 74 A 87 Barrio San Rafael UribeII", "EmailPrestador": "gerencia@socimedicos.com", "TelefonoPrestador": "3270700-3115411", "MunicipioSede": 66001, "DepartamentoSedeDesc": "Risaralda", "MunicipioSedeDesc": "PEREIRA", "DireccionSede": "CALLE 12 # 18-50", "EmailSede": "lideraseguramientocalidad@socimedicos.com", "TelefonoSede": "3270700 3115411", "ClasePrestadorDesc": "Instituciones Prestadoras de Servicios de Salud - IPS", "FechaCorte": "Fecha corte REPS: Jul 4 2023 1:19PM", "address_geocoding": "CALLE 12 # 18-50, PEREIRA, Risaralda, COLOMBIA", "status": "OK", "latitude": 4.808116, "longitude": -75.689062, "project_validation": "Private Basic EmOC", "hcf_id": 10 }, "geometry": { "type": "Point", "coordinates": [ -75.689062, 4.808116 ] } },
{ "type": "Feature", "properties": { "CodigoPrestador": 6600102534.0, "primary_hc": null, "basic_emoc": "x", "comp_emoc": null, "NombrePrestador": "ALGIA- UNIDAD DE LAPAROSCOPIA GINECOLOGICA AVANZADA Y DOLOR PELVICO SAS", "CodigoHabilitacionSede": 660010000000.0, "NombreSede": "SEDE OVAL MEDICA", "TipoIdentificacion": "NI", "NumeroIdentificacion": 900945952, "NaturalezaJuridica": "Privada", "ESE": null, "MunicipioPrestador": 66001, "DepartamentoPrestadorDesc": "Risaralda", "MunicipioPrestadorDesc": "PEREIRA", "DireccionPrestador": "AV JUAN B GUTIERREZ No 18-60 CONSULTORIO 1104", "EmailPrestador": "direccionejecutiva@algia.com.co", "TelefonoPrestador": "3389311", "MunicipioSede": 66001, "DepartamentoSedeDesc": "Risaralda", "MunicipioSedeDesc": "PEREIRA", "DireccionSede": "AV JUAN B GUTIERREZ No 18-60 CONSULTORIO 1104", "EmailSede": "algia_direccionejecutiva@outlook.com", "TelefonoSede": "3389311", "ClasePrestadorDesc": "Instituciones Prestadoras de Servicios de Salud - IPS", "FechaCorte": "Fecha corte REPS: Jul 4 2023 1:19PM", "address_geocoding": "AV JUAN B GUTIERREZ No 18-60 CONSULTORIO 1104, PEREIRA, Risaralda, COLOMBIA", "status": "OK", "latitude": 4.8027788, "longitude": -75.6857281, "project_validation": "Private Basic EmOC", "hcf_id": 11 }, "geometry": { "type": "Point", "coordinates": [ -75.6857281, 4.8027788 ] } },
{ "type": "Feature", "properties": { "CodigoPrestador": 6600102686.0, "primary_hc": null, "basic_emoc": "x", "comp_emoc": null, "NombrePrestador": "CLINICA CRECER IPS SAS", "CodigoHabilitacionSede": 660010000000.0, "NombreSede": "CLINICA CRECER IPS SAS", "TipoIdentificacion": "NI", "NumeroIdentificacion": 901257598, "NaturalezaJuridica": "Privada", "ESE": null, "MunicipioPrestador": 66001, "DepartamentoPrestadorDesc": "Risaralda", "MunicipioPrestadorDesc": "PEREIRA", "DireccionPrestador": "CALLE 19 N¬∞5-13 LOCAL 2A-2B-3B Y 3C", "EmailPrestador": "clinicacrecerips@gmail.com", "TelefonoPrestador": "3016714533", "MunicipioSede": 66001, "DepartamentoSedeDesc": "Risaralda", "MunicipioSedeDesc": "PEREIRA", "DireccionSede": "CALLE 19 N¬∞ 5-13 LOCAL 3B Y 3C", "EmailSede": "clinicacrecerips@gmail.com calidadclinicacrecer2021@gmail.com", "TelefonoSede": "3016714533", "ClasePrestadorDesc": "Instituciones Prestadoras de Servicios de Salud - IPS", "FechaCorte": "Fecha corte REPS: Jul 4 2023 1:19PM", "address_geocoding": "CALLE 19 N¬∞ 5-13 LOCAL 3B Y 3C, PEREIRA, Risaralda, COLOMBIA", "status": "OK", "latitude": 4.822905, "longitude": -75.725151, "project_validation": "Private Basic EmOC", "hcf_id": 12 }, "geometry": { "type": "Point", "coordinates": [ -75.725151, 4.822905 ] } },
{ "type": "Feature", "properties": { "CodigoPrestador": 6600102761.0, "primary_hc": null, "basic_emoc": "x", "comp_emoc": null, "NombrePrestador": "SERVICIOS DE EMERGENCIAS MEDICAS GUADALUPE S.A.S", "CodigoHabilitacionSede": 660010000000.0, "NombreSede": "SERVICIOS DE EMERGENCIAS MEDICAS GUADALUPE SAS", "TipoIdentificacion": "NI", "NumeroIdentificacion": 901313907, "NaturalezaJuridica": "Privada", "ESE": null, "MunicipioPrestador": 66001, "DepartamentoPrestadorDesc": "Risaralda", "MunicipioPrestadorDesc": "PEREIRA", "DireccionPrestador": "CR 6 No. 37-47", "EmailPrestador": "sempereirasas@hotmail.com", "TelefonoPrestador": "3217141950 - 3116564357", "MunicipioSede": 66001, "DepartamentoSedeDesc": "Risaralda", "MunicipioSedeDesc": "PEREIRA", "DireccionSede": "CR 6 No. 37-47", "EmailSede": "sempereirasas@hotmail.com", "TelefonoSede": "3217141950 - 3116564357", "ClasePrestadorDesc": "Instituciones Prestadoras de Servicios de Salud - IPS", "FechaCorte": "Fecha corte REPS: Jul 4 2023 1:19PM", "address_geocoding": "CR 6 No. 37-47, PEREIRA, Risaralda, COLOMBIA", "status": "OK", "latitude": 4.817263, "longitude": -75.709662, "project_validation": "Private Basic EmOC", "hcf_id": 13 }, "geometry": { "type": "Point", "coordinates": [ -75.709662, 4.817263 ] } }
]
}
