{
"type": "FeatureCollection",
"name": "healthcare_facilities_emoc_hcfid",
"crs": { "type": "name", "properties": { "name": "urn:ogc:def:crs:OGC:1.3:CRS84" } },
"features": [
{ "type": "Feature", "properties": { "CodigoPrestador": 5200100096.0, "primary_hc": null, "basic_emoc": "x", "comp_emoc": "x", "NombrePrestador": "HOSPITAL SAN RAFAEL DE PASTO", "CodigoHabilitacionSede": 520010000000.0, "NombreSede": "HOSPITAL SAN RAFAEL DE PASTO", "TipoIdentificacion": "NI", "NumeroIdentificacion": 891200274, "NaturalezaJuridica": "Privada", "ESE": "NO", "MunicipioPrestador": 52001, "DepartamentoPrestadorDesc": "Narino", "MunicipioPrestadorDesc": "PASTO", "DireccionPrestador": "Calle 15 No. 42 C -35", "MunicipioSede": 52001, "DepartamentoSedeDesc": "Narino", "MunicipioSedeDesc": "PASTO", "DireccionSede": "CALLE 15 No 42C-35", "EmailSede": "hsrpasto@hospitalsanrafaelpasto.com", "TelefonoSede": "7362680", "ClasePrestadorDesc": "Instituciones Prestadoras de Servicios de Salud - IPS", "FechaCorte": "Fecha corte REPS: Jul 4 2023 1:19PM", "address_geocoding": "CALLE 15 No 42C-35, PASTO, Narino, COLOMBIA", "status": "OK", "latitude": 1.2201113, "longitude": -77.2870246, "project_validation": "Private Comprehensive EmOC", "hcf_id": 1 }, "geometry": { "type": "Point", "coordinates": [ -77.2870246, 1.2201113 ] } },
{ "type": "Feature", "properties": { "CodigoPrestador": 5200100121.0, "primary_hc": "?", "basic_emoc": "?", "comp_emoc": null, "NombrePrestador": "FUNDACION MARIA FORTALEZA", "CodigoHabilitacionSede": 520010000000.0, "NombreSede": "FUNDACION MARIA FORTALEZA", "TipoIdentificacion": "NI", "NumeroIdentificacion": 814000463, "NaturalezaJuridica": "Privada", "ESE": "NO", "MunicipioPrestador": 52001, "DepartamentoPrestadorDesc": "Narino", "MunicipioPrestadorDesc": "PASTO", "DireccionPrestador": "CARRERA 38 No 19 41 BARRIO PALERMO", "MunicipioSede": 52001, "DepartamentoSedeDesc": "Narino", "MunicipioSedeDesc": "PASTO", "DireccionSede": "Carrera 38 NO 19 - 41", "EmailSede": "mariafortaleza@hotmail.com", "TelefonoSede": "7290904", "ClasePrestadorDesc": "Instituciones Prestadoras de Servicios de Salud - IPS", "FechaCorte": "Fecha corte REPS: Jul 4 2023 1:19PM", "address_geocoding": "Carrera 38 NO 19 - 41, PASTO, Narino, COLOMBIA", "status": "OK", "latitude": 1.2266919, "longitude": -77.2841575, "project_validation": "Private Basic EmOC", "hcf_id": 2 }, "geometry": { "type": "Point", "coordinates": [ -77.2841575, 1.2266919 ] } },
{ "type": "Feature", "properties": { "CodigoPrestador": 5200100261.0, "primary_hc": null, "basic_emoc": "x", "comp_emoc": "x", "NombrePrestador": "CRUZ ROJA COLOMBIANA SECCIONAL NARIÑO", "CodigoHabilitacionSede": 520010000000.0, "NombreSede": "CRUZ ROJA COLOMBIANA SECCIONAL NARIÑO", "TipoIdentificacion": "NI", "NumeroIdentificacion": 891200372, "NaturalezaJuridica": "Privada", "ESE": null, "MunicipioPrestador": 52001, "DepartamentoPrestadorDesc": "Narino", "MunicipioPrestadorDesc": "PASTO", "DireccionPrestador": "Carrera 25 No. 13-26", "MunicipioSede": 52001, "DepartamentoSedeDesc": "Narino", "MunicipioSedeDesc": "PASTO", "DireccionSede": "Carrera 25 No. 13-26", "EmailSede": "diripsnarino@cruzrojacolombiana.org", "TelefonoSede": "7292886", "ClasePrestadorDesc": "Instituciones Prestadoras de Servicios de Salud - IPS", "FechaCorte": "Fecha corte REPS: Jul 4 2023 1:19PM", "address_geocoding": "Carrera 25 No. 13-26, PASTO, Narino, COLOMBIA", "status": "OK", "latitude": 1.2130697, "longitude": -77.2829078, "project_validation": "Private Comprehensive EmOC", "hcf_id": 3 }, "geometry": { "type": "Point", "coordinates": [ -77.2829078, 1.2130697 ] } },
{ "type": "Feature", "properties": { "CodigoPrestador": 5200100279.0, "primary_hc": null, "basic_emoc": "x", "comp_emoc": null, "NombrePrestador": "CLINICA NUESTRA SEÑORA DE FATIMA S.A.", "CodigoHabilitacionSede": 520010000000.0, "NombreSede": "CLINICA NUESTRA SEÑORA DE FATIMA", "TipoIdentificacion": "NI", "NumeroIdentificacion": 891200032, "NaturalezaJuridica": "Privada", "ESE": "NO", "MunicipioPrestador": 52001, "DepartamentoPrestadorDesc": "Narino", "MunicipioPrestadorDesc": "PASTO", "DireccionPrestador": "CALLE 21 NUMERO 26 40", "MunicipioSede": 52001, "DepartamentoSedeDesc": "Narino", "MunicipioSedeDesc": "PASTO", "DireccionSede": "CALLE 21 NUMERO 26 40", "EmailSede": "gerencia@clifatima.com", "TelefonoSede": "7333630 EXTENCION 289", "ClasePrestadorDesc": "Instituciones Prestadoras de Servicios de Salud - IPS", "FechaCorte": "Fecha corte REPS: Jul 4 2023 1:19PM", "address_geocoding": "CALLE 21 NUMERO 26 40, PASTO, Narino, COLOMBIA", "status": "OK", "latitude": 1.2173341, "longitude": -77.2765227, "project_validation": "Private Basic EmOC", "hcf_id": 4 }, "geometry": { "type": "Point", "coordinates": [ -77.2765227, 1.2173341 ] } },
{ "type": "Feature", "properties": { "CodigoPrestador": 5200100283.0, "primary_hc": null, "basic_emoc": "x", "comp_emoc": null, "NombrePrestador": "HOSPITAL INFANTIL LOS ANGELES", "CodigoHabilitacionSede": 520010000000.0, "NombreSede": "HOSPITAL INFANTIL LOS ANGELES", "TipoIdentificacion": "NI", "NumeroIdentificacion": 891200240, "NaturalezaJuridica": "Privada", "ESE": "NO", "MunicipioPrestador": 52001, "DepartamentoPrestadorDesc": "Narino", "MunicipioPrestadorDesc": "PASTO", "DireccionPrestador": "KR 32 # 21 A 30", "MunicipioSede": 52001, "DepartamentoSedeDesc": "Narino", "MunicipioSedeDesc": "PASTO", "DireccionSede": "KR 32 # 21 A 30", "EmailSede": "asesorcalidad@correohila.org", "TelefonoSede": "7311533", "ClasePrestadorDesc": "Instituciones Prestadoras de Servicios de Salud - IPS", "FechaCorte": "Fecha corte REPS: Jul 4 2023 1:19PM", "address_geocoding": "KR 32 # 21 A 30, PASTO, Narino, COLOMBIA", "status": "OK", "latitude": 1.2228498, "longitude": -77.2802218, "project_validation": "Private Basic EmOC", "hcf_id": 5 }, "geometry": { "type": "Point", "coordinates": [ -77.2802218, 1.2228498 ] } },
{ "type": "Feature", "properties": { "CodigoPrestador": 5200100557.0, "primary_hc": "x", "basic_emoc": "x", "comp_emoc": null, "NombrePrestador": "FUNDACION HOSPITAL SAN PEDRO", "CodigoHabilitacionSede": 520010000000.0, "NombreSede": "FUNDACION HOSPITAL SAN PEDRO", "TipoIdentificacion": "NI", "NumeroIdentificacion": 891200209, "NaturalezaJuridica": "Privada", "ESE": "NO", "MunicipioPrestador": 52001, "DepartamentoPrestadorDesc": "Narino", "MunicipioPrestadorDesc": "PASTO", "DireccionPrestador": "CL16  KR43 ESQ", "MunicipioSede": 52001, "DepartamentoSedeDesc": "Narino", "MunicipioSedeDesc": "PASTO", "DireccionSede": "CL16 KR43 ESQ", "EmailSede": "fhsp@hospitalsanpedro.org", "TelefonoSede": "7336000", "ClasePrestadorDesc": "Instituciones Prestadoras de Servicios de Salud - IPS", "FechaCorte": "Fecha corte REPS: Jul 4 2023 1:19PM", "address_geocoding": "CL16 KR43 ESQ, PASTO, Narino, COLOMBIA", "status": "OK", "latitude": 1.2242531, "longitude": -77.2904678, "project_validation": "Private Basic EmOC", "hcf_id": 6 }, "geometry": { "type": "Point", "coordinates": [ -77.2904678, 1.2242531 ] } },
{ "type": "Feature", "properties": { "CodigoPrestador": 5200101102.0, "primary_hc": "x", "basic_emoc": "x", "comp_emoc": "x", "NombrePrestador": "E.S.E. HOSPITAL UNIVERSITARIO DEPARTAMENTAL DE NARIÑO", "CodigoHabilitacionSede": 520010000000.0, "NombreSede": "HOSPITAL UNIVERSITARIO DEPARTAMENTAL DE NARIÑO", "TipoIdentificacion": "NI", "NumeroIdentificacion": 891200528, "NaturalezaJuridica": "Pública", "ESE": "SI", "MunicipioPrestador": 52001, "DepartamentoPrestadorDesc": "Narino", "MunicipioPrestadorDesc": "PASTO", "DireccionPrestador": "Calle 22 No. 7-93 parque Bolivar", "MunicipioSede": 52001, "DepartamentoSedeDesc": "Narino", "MunicipioSedeDesc": "PASTO", "DireccionSede": "Calle 22No. 7-93", "EmailSede": "hudn@hosdenar.gov.co", "TelefonoSede": "3113640760", "ClasePrestadorDesc": "Instituciones Prestadoras de Servicios de Salud - IPS", "FechaCorte": "Fecha corte REPS: Jul 4 2023 1:19PM", "address_geocoding": "Calle 22No. 7-93, PASTO, Narino, COLOMBIA", "status": "OK", "latitude": 1.204546, "longitude": -77.2613016, "project_validation": "Public Comprehensive EmOC", "hcf_id": 7 }, "geometry": { "type": "Point", "coordinates": [ -77.2613016, 1.204546 ] } },
{ "type": "Feature", "properties": { "CodigoPrestador": 5200101457.0, "primary_hc": null, "basic_emoc": "x", "comp_emoc": null, "NombrePrestador": "EMPRESA SOCIAL DEL ESTADO PASTO SALUD E.S.E.", "CodigoHabilitacionSede": 520010000000.0, "NombreSede": "HOSPITAL LA ROSA", "TipoIdentificacion": "NI", "NumeroIdentificacion": 900091143, "NaturalezaJuridica": "Pública", "ESE": "SI", "MunicipioPrestador": 52001, "DepartamentoPrestadorDesc": "Narino", "MunicipioPrestadorDesc": "PASTO", "DireccionPrestador": "KR 20 # 19 B 22", "MunicipioSede": 52001, "DepartamentoSedeDesc": "Narino", "MunicipioSedeDesc": "PASTO", "DireccionSede": "DIAGONAL 12 A No. 3A-19", "EmailSede": "dosur@pastosaludese.gov.co", "TelefonoSede": "7207183", "ClasePrestadorDesc": "Instituciones Prestadoras de Servicios de Salud - IPS", "FechaCorte": "Fecha corte REPS: Jul 4 2023 1:19PM", "address_geocoding": "DIAGONAL 12 A No. 3A-19, PASTO, Narino, COLOMBIA", "status": "OK", "latitude": 1.2198523, "longitude": -77.2913243, "project_validation": "Public Basic EmOC", "hcf_id": 9 }, "geometry": { "type": "Point", "coordinates": [ -77.2913243, 1.2198523 ] } },
{ "type": "Feature", "properties": { "CodigoPrestador": 5200101457.0, "primary_hc": null, "basic_emoc": "x", "comp_emoc": null, "NombrePrestador": "EMPRESA SOCIAL DEL ESTADO PASTO SALUD E.S.E.", "CodigoHabilitacionSede": 520010000000.0, "NombreSede": "HOSPITAL SANTA MONICA", "TipoIdentificacion": "NI", "NumeroIdentificacion": 900091143, "NaturalezaJuridica": "Pública", "ESE": "SI", "MunicipioPrestador": 52001, "DepartamentoPrestadorDesc": "Narino", "MunicipioPrestadorDesc": "PASTO", "DireccionPrestador": "KR 20 # 19 B 22", "MunicipioSede": 52001, "DepartamentoSedeDesc": "Narino", "MunicipioSedeDesc": "PASTO", "DireccionSede": "CALLE 21 No. 9 ESTE A 88", "EmailSede": "dooriente@pastosaludese.gov.co", "TelefonoSede": "CALLE 21 No. 9 ESTE A 88", "ClasePrestadorDesc": "Instituciones Prestadoras de Servicios de Salud - IPS", "FechaCorte": "Fecha corte REPS: Jul 4 2023 1:19PM", "address_geocoding": "CALLE 21 No. 9 ESTE A 88, PASTO, Narino, COLOMBIA", "status": "OK", "latitude": 1.2016167, "longitude": -77.2622629, "project_validation": "Public Basic EmOC", "hcf_id": 10 }, "geometry": { "type": "Point", "coordinates": [ -77.2622629, 1.2016167 ] } },
{ "type": "Feature", "properties": { "CodigoPrestador": 5200102047.0, "primary_hc": null, "basic_emoc": "x", "comp_emoc": null, "NombrePrestador": "COMPAÑIA OPERADORA CLINICA HISPANOAMERICA SAS", "CodigoHabilitacionSede": 520010000000.0, "NombreSede": "Clinica Hispanoamerica", "TipoIdentificacion": "NI", "NumeroIdentificacion": 900335691, "NaturalezaJuridica": "Privada", "ESE": null, "MunicipioPrestador": 52001, "DepartamentoPrestadorDesc": "Narino", "MunicipioPrestadorDesc": "PASTO", "DireccionPrestador": "CARRERA 41 No 19 D 147", "MunicipioSede": 52001, "DepartamentoSedeDesc": "Narino", "MunicipioSedeDesc": "PASTO", "DireccionSede": "Carrera 41 No. 19D - 147", "EmailSede": "direccioncalidad@clinicahispanoamerica.com.co", "TelefonoSede": "7382280", "ClasePrestadorDesc": "Instituciones Prestadoras de Servicios de Salud - IPS", "FechaCorte": "Fecha corte REPS: Jul 4 2023 1:19PM", "address_geocoding": "Carrera 41 No. 19D - 147, PASTO, Narino, COLOMBIA", "status": "OK", "latitude": 1.231422, "longitude": -77.285359, "project_validation": "Private Basic EmOC", "hcf_id": 11 }, "geometry": { "type": "Point", "coordinates": [ -77.285359, 1.231422 ] } },
{ "type": "Feature", "properties": { "CodigoPrestador": 5200103036.0, "primary_hc": null, "basic_emoc": "x", "comp_emoc": "?", "NombrePrestador": "OBSTETRICIA & GINECOLOGIA S.A.S. PERO PODRA UTILIZAR LA SIGLA O&G S.A.S.", "CodigoHabilitacionSede": 520010000000.0, "NombreSede": "O&G S.A.S. PASTO", "TipoIdentificacion": "NI", "NumeroIdentificacion": 830507291, "NaturalezaJuridica": "Privada", "ESE": null, "MunicipioPrestador": 52001, "DepartamentoPrestadorDesc": "Narino", "MunicipioPrestadorDesc": "PASTO", "DireccionPrestador": "Carrera 42 N° 18A - 94 Local 145", "MunicipioSede": 52001, "DepartamentoSedeDesc": "Narino", "MunicipioSedeDesc": "PASTO", "DireccionSede": "Cra. 42 N° 18A - 94 Local 145", "EmailSede": "calidad@oyg.com.co", "TelefonoSede": "(571) 7430150 Ext. 140 / 3215507261", "ClasePrestadorDesc": "Instituciones Prestadoras de Servicios de Salud - IPS", "FechaCorte": "Fecha corte REPS: Jul 4 2023 1:19PM", "address_geocoding": "Cra. 42 N° 18A - 94 Loca l 14 5, PAS TO, Nari no, C OLOMBIA ", "status": "OK", "latitude": 1.2278613, "longitude": -77.2860782, "project_validation": "Private Comprehensive EmOC", "hcf_id": 12 }, "geometry": { "type": "Point", "coordinates": [ -77.2860782, 1.2278613 ] } },
{ "type": "Feature", "properties": { "CodigoPrestador": 5200103264.0, "primary_hc": null, "basic_emoc": "?", "comp_emoc": null, "NombrePrestador": "GINECOLOGOS DEL SUR SAS", "CodigoHabilitacionSede": 520010000000.0, "NombreSede": "GINECOLOGOS DEL SUR S.A.S", "TipoIdentificacion": "NI", "NumeroIdentificacion": 900512814, "NaturalezaJuridica": "Privada", "ESE": null, "MunicipioPrestador": 52001, "DepartamentoPrestadorDesc": "Narino", "MunicipioPrestadorDesc": "PASTO", "DireccionPrestador": "cr 42 n 18a 94  local 238", "MunicipioSede": 52001, "DepartamentoSedeDesc": "Narino", "MunicipioSedeDesc": "PASTO", "DireccionSede": "CR 42 n18 A 94 LOCAL 238", "EmailSede": "ginecologosur@gmail.com", "TelefonoSede": "3154125400", "ClasePrestadorDesc": "Instituciones Prestadoras de Servicios de Salud - IPS", "FechaCorte": "Fecha corte REPS: Jul 4 2023 1:19PM", "address_geocoding": "CR 42 n18 A 94 LOCAL 238, PASTO, Narino, COLOMBIA", "status": "OK", "latitude": 1.2058837, "longitude": -77.285787, "project_validation": "Private Basic EmOC", "hcf_id": 13 }, "geometry": { "type": "Point", "coordinates": [ -77.285787, 1.2058837 ] } }
]
}
