{
"type": "FeatureCollection",
"name": "healthcare_facilities_general_pereira",
"crs": { "type": "name", "properties": { "name": "urn:ogc:def:crs:OGC:1.3:CRS84" } },
"features": [
{ "type": "Feature", "properties": { "CodigoPrestador": 6600100217, "primary_hc": "x", "NombrePrestador": "CAJA DE COMPENSACION FAMILIAR DE RISARALDA COMFAMILIAR RISARALDA", "CodigoHabilitacionSede": 661700000000.0, "NombreSede": "CENTRO M‚àö√¢DICO GUADALUPE DOSQUEBRADAS", "TipoIdentificacion": "NI", "NumeroIdentificacion": 891480000, "NaturalezaJuridica": "Privada", "ESE": "NO", "MunicipioPrestador": 66001, "DepartamentoPrestadorDesc": "Risaralda", "MunicipioPrestadorDesc": "PEREIRA", "DireccionPrestador": "AV CIRCUNVALAR # 3-01", "EmailPrestador": "comfarda@comfamiliar.com", "TelefonoPrestador": "3138700 ext 2324, 3135600 Ext 2148", "MunicipioSede": 66170, "DepartamentoSedeDesc": "Risaralda", "MunicipioSedeDesc": "DOSQUEBRADAS", "DireccionSede": "CALLE 35 # 15-19 LOCAL 504", "EmailSede": "comfarda@comfamiliar.com", "TelefonoSede": "3135600", "ClasePrestadorDesc": "Instituciones Prestadoras de Servicios de Salud - IPS", "FechaCorte": "Fecha corte REPS: Jul 4 2023 1:19PM", "address_geocoding": "CALLE 35 # 15-19 LOCAL 504, DOSQUEBRADAS, Risaralda, COLOMBIA", "status": "OK", "latitude": 4.834092, "longitude": -75.6726285 }, "geometry": { "type": "Point", "coordinates": [ -75.6726285, 4.834092 ] } },
{ "type": "Feature", "properties": { "CodigoPrestador": 6600100759, "primary_hc": "x", "NombrePrestador": "SALUD TOTAL EPS-S S.A.", "CodigoHabilitacionSede": 661700000000.0, "NombreSede": "SALUD TOTAL EPS-S S.A TOMA DE MUESTRAS DOSQUEBRADAS", "TipoIdentificacion": "NI", "NumeroIdentificacion": 800130907, "NaturalezaJuridica": "Privada", "ESE": "NO", "MunicipioPrestador": 66001, "DepartamentoPrestadorDesc": "Risaralda", "MunicipioPrestadorDesc": "PEREIRA", "DireccionPrestador": "AV 30 DE AGOSTO NO 40-51 - Barrio:", "EmailPrestador": "juanmm@saludtotal.com.co", "TelefonoPrestador": "3363865", "MunicipioSede": 66170, "DepartamentoSedeDesc": "Risaralda", "MunicipioSedeDesc": "DOSQUEBRADAS", "DireccionSede": "CRA 16 N¬¨‚àû 35 ? 03 LC 2 CENTRO COMERCIAL GUADALUPE PLAZA", "EmailSede": "juanmm@saludtotal.com.co", "TelefonoSede": "3267799", "ClasePrestadorDesc": "Instituciones Prestadoras de Servicios de Salud - IPS", "FechaCorte": "Fecha corte REPS: Jul 4 2023 1:19PM", "address_geocoding": "CRA 16 N¬¨‚àû 35 ? 03 LC 2 CENTRO COMERCIAL GUADALUPE PLAZA, DOSQUEBRADAS, Risaralda, COLOMBIA", "status": "OK", "latitude": 4.8341008, "longitude": -75.6726176 }, "geometry": { "type": "Point", "coordinates": [ -75.6726176, 4.8341008 ] } },
{ "type": "Feature", "properties": { "CodigoPrestador": 6600100790, "primary_hc": "x", "NombrePrestador": "Corporacion Mi IPS Eje Cafetero", "CodigoHabilitacionSede": 661700000000.0, "NombreSede": "DOSQUEBRADAS", "TipoIdentificacion": "NI", "NumeroIdentificacion": 816007943, "NaturalezaJuridica": "Privada", "ESE": "NO", "MunicipioPrestador": 66001, "DepartamentoPrestadorDesc": "Risaralda", "MunicipioPrestadorDesc": "PEREIRA", "DireccionPrestador": "CARRERA 11 # 47 - 35 - Barrio:MARAYA", "EmailPrestador": "mequinterop@miips.com.co", "TelefonoPrestador": "3008960140- 3008960831", "MunicipioSede": 66170, "DepartamentoSedeDesc": "Risaralda", "MunicipioSedeDesc": "DOSQUEBRADAS", "DireccionSede": "CARRERA 16 N¬¨‚àû 24 - 70 LA PRADERA", "EmailSede": "mequinterop@miips.com.co", "TelefonoSede": "3008960140-3008960831", "ClasePrestadorDesc": "Instituciones Prestadoras de Servicios de Salud - IPS", "FechaCorte": "Fecha corte REPS: Jul 4 2023 1:19PM", "address_geocoding": "CARRERA 16 N¬¨‚àû 24 - 70 LA PRADERA, DOSQUEBRADAS, Risaralda, COLOMBIA", "status": "OK", "latitude": 4.8275567, "longitude": -75.6777396 }, "geometry": { "type": "Point", "coordinates": [ -75.6777396, 4.8275567 ] } },
{ "type": "Feature", "properties": { "CodigoPrestador": 6600102601, "primary_hc": "x", "NombrePrestador": "VIRREY SOLIS IPS. S.A", "CodigoHabilitacionSede": 661700000000.0, "NombreSede": "VIRREY SOLIS IPS SA- DOSQUEBRADAS", "TipoIdentificacion": "NI", "NumeroIdentificacion": 800003765, "NaturalezaJuridica": "Privada", "ESE": null, "MunicipioPrestador": 66001, "DepartamentoPrestadorDesc": "Risaralda", "MunicipioPrestadorDesc": "PEREIRA", "DireccionPrestador": "AVENIDA 30 DE AGOSTO # 40 - 51", "EmailPrestador": "calidad@virreysolisips.com.co", "TelefonoPrestador": "3139900", "MunicipioSede": 66170, "DepartamentoSedeDesc": "Risaralda", "MunicipioSedeDesc": "DOSQUEBRADAS", "DireccionSede": "CARRERA 16 #38-130 LC 165 CENTRO COMERCIAL EL PROGRESO", "EmailSede": "calidad@virreysolisips.com.co", "TelefonoSede": "3223065", "ClasePrestadorDesc": "Instituciones Prestadoras de Servicios de Salud - IPS", "FechaCorte": "Fecha corte REPS: Jul 4 2023 1:19PM", "address_geocoding": "CARRERA 16 #38-130 LC 165 CENTRO COMERCIAL EL PROGRESO, DOSQUEBRADAS, Risaralda, COLOMBIA", "status": "OK", "latitude": 4.8357712, "longitude": -75.6694903 }, "geometry": { "type": "Point", "coordinates": [ -75.6694903, 4.8357712 ] } },
{ "type": "Feature", "properties": { "CodigoPrestador": 6600103079, "primary_hc": "x", "NombrePrestador": "MEDICINA INTEGRAL DE ESPECIALIDADES MEIDE SAS", "CodigoHabilitacionSede": 661700000000.0, "NombreSede": "MEDICINA INTEGRAL DE ESPECIALIDADES MEIDE SAS RISARALDA", "TipoIdentificacion": "NI", "NumeroIdentificacion": 900300358, "NaturalezaJuridica": "Privada", "ESE": null, "MunicipioPrestador": 66001, "DepartamentoPrestadorDesc": "Risaralda", "MunicipioPrestadorDesc": "PEREIRA", "DireccionPrestador": "CARRERA 13 No. 36-80 AVENIDA 30 DE AGOSTO", "EmailPrestador": "gerencia@meide.com.co", "TelefonoPrestador": "3185957697", "MunicipioSede": 66170, "DepartamentoSedeDesc": "Risaralda", "MunicipioSedeDesc": "DOSQUEBRADAS", "DireccionSede": "AVENIDA SIMON BOLIVAR CARRERA 16 N¬¨‚àû 24 70 LOCAL 214A", "EmailSede": "gerencia@meide.com.co", "TelefonoSede": "3244011745", "ClasePrestadorDesc": "Instituciones Prestadoras de Servicios de Salud - IPS", "FechaCorte": "Fecha corte REPS: Jul 4 2023 1:19PM", "address_geocoding": "AVENIDA SIMON BOLIVAR CARRERA 16 N¬¨‚àû 24 70 LOCAL 214A, DOSQUEBRADAS, Risaralda, COLOMBIA", "status": "OK", "latitude": 4.8326762, "longitude": -75.674053 }, "geometry": { "type": "Point", "coordinates": [ -75.674053, 4.8326762 ] } },
{ "type": "Feature", "properties": { "CodigoPrestador": 6617000278, "primary_hc": "x", "NombrePrestador": "ESE HOSPITAL SANTA M‚àö√¨NICA", "CodigoHabilitacionSede": 661700000000.0, "NombreSede": "EMPRESA SOCIAL DEL ESTADO HOSPITAL SANTA MONICA", "TipoIdentificacion": "NI", "NumeroIdentificacion": 891411663, "NaturalezaJuridica": "P‚àö‚à´blica", "ESE": "SI", "MunicipioPrestador": 66170, "DepartamentoPrestadorDesc": "Risaralda", "MunicipioPrestadorDesc": "DOSQUEBRADAS", "DireccionPrestador": "Calle 18 No. 19-20 Barrio Santa M‚àö‚â•nica", "EmailPrestador": "gerencia@hospitalsantamonica.gov.co", "TelefonoPrestador": "3154281 3302507 Ext. 103", "MunicipioSede": 66170, "DepartamentoSedeDesc": "Risaralda", "MunicipioSedeDesc": "DOSQUEBRADAS", "DireccionSede": "Calle 18 No. 19-20", "EmailSede": "coordinacioncalidad@hospitalsantamonica.gov.co", "TelefonoSede": null, "ClasePrestadorDesc": "Instituciones Prestadoras de Servicios de Salud - IPS", "FechaCorte": "Fecha corte REPS: Jul 4 2023 1:19PM", "address_geocoding": "Calle 18 No. 19-20, DOSQUEBRADAS, Risaralda, COLOMBIA", "status": "OK", "latitude": 4.8256947, "longitude": -75.6809005 }, "geometry": { "type": "Point", "coordinates": [ -75.6809005, 4.8256947 ] } },
{ "type": "Feature", "properties": { "CodigoPrestador": 6617000278, "primary_hc": "x", "NombrePrestador": "ESE HOSPITAL SANTA M‚àö√¨NICA", "CodigoHabilitacionSede": 661700000000.0, "NombreSede": "CENTRO DE ATENCI‚àö√¨N AMBULATORIO VILLA CAROLA", "TipoIdentificacion": "NI", "NumeroIdentificacion": 891411663, "NaturalezaJuridica": "P‚àö‚à´blica", "ESE": "SI", "MunicipioPrestador": 66170, "DepartamentoPrestadorDesc": "Risaralda", "MunicipioPrestadorDesc": "DOSQUEBRADAS", "DireccionPrestador": "Calle 18 No. 19-20 Barrio Santa M‚àö‚â•nica", "EmailPrestador": "gerencia@hospitalsantamonica.gov.co", "TelefonoPrestador": "3154281 3302507 Ext. 103", "MunicipioSede": 66170, "DepartamentoSedeDesc": "Risaralda", "MunicipioSedeDesc": "DOSQUEBRADAS", "DireccionSede": "Villa Carola Parque Recreacional", "EmailSede": "gerencia@hospitalsantamonica.gov.co", "TelefonoSede": "3154281 3302507 Ext. 103", "ClasePrestadorDesc": "Instituciones Prestadoras de Servicios de Salud - IPS", "FechaCorte": "Fecha corte REPS: Jul 4 2023 1:19PM", "address_geocoding": "Villa Carola Parque Recreacional, DOSQUEBRADAS, Risaralda, COLOMBIA", "status": "OK", "latitude": 4.861547, "longitude": -75.6555291 }, "geometry": { "type": "Point", "coordinates": [ -75.6555291, 4.861547 ] } },
{ "type": "Feature", "properties": { "CodigoPrestador": 6617000278, "primary_hc": "x", "NombrePrestador": "ESE HOSPITAL SANTA M‚àö√¨NICA", "CodigoHabilitacionSede": 661700000000.0, "NombreSede": "PUESTO DE SALUD FRAILES", "TipoIdentificacion": "NI", "NumeroIdentificacion": 891411663, "NaturalezaJuridica": "P‚àö‚à´blica", "ESE": "SI", "MunicipioPrestador": 66170, "DepartamentoPrestadorDesc": "Risaralda", "MunicipioPrestadorDesc": "DOSQUEBRADAS", "DireccionPrestador": "Calle 18 No. 19-20 Barrio Santa M‚àö‚â•nica", "EmailPrestador": "gerencia@hospitalsantamonica.gov.co", "TelefonoPrestador": "3154281 3302507 Ext. 103", "MunicipioSede": 66170, "DepartamentoSedeDesc": "Risaralda", "MunicipioSedeDesc": "DOSQUEBRADAS", "DireccionSede": "CRA 40B No. 14 - 20", "EmailSede": "gerencia@hospitalsantamonica.gov.co", "TelefonoSede": "3300500", "ClasePrestadorDesc": "Instituciones Prestadoras de Servicios de Salud - IPS", "FechaCorte": "Fecha corte REPS: Jul 4 2023 1:19PM", "address_geocoding": "CRA 40B No. 14 - 20, DOSQUEBRADAS, Risaralda, COLOMBIA", "status": "OK", "latitude": 4.8124469, "longitude": -75.664345 }, "geometry": { "type": "Point", "coordinates": [ -75.664345, 4.8124469 ] } },
{ "type": "Feature", "properties": { "CodigoPrestador": 6617000278, "primary_hc": "x", "NombrePrestador": "ESE HOSPITAL SANTA M‚àö√¨NICA", "CodigoHabilitacionSede": 661700000000.0, "NombreSede": "CENTRO DE ATENCI‚àö√¨N AMBULATORIO JAP‚àö√¨N", "TipoIdentificacion": "NI", "NumeroIdentificacion": 891411663, "NaturalezaJuridica": "P‚àö‚à´blica", "ESE": "SI", "MunicipioPrestador": 66170, "DepartamentoPrestadorDesc": "Risaralda", "MunicipioPrestadorDesc": "DOSQUEBRADAS", "DireccionPrestador": "Calle 18 No. 19-20 Barrio Santa M‚àö‚â•nica", "EmailPrestador": "gerencia@hospitalsantamonica.gov.co", "TelefonoPrestador": "3154281 3302507 Ext. 103", "MunicipioSede": 66170, "DepartamentoSedeDesc": "Risaralda", "MunicipioSedeDesc": "DOSQUEBRADAS", "DireccionSede": "Calle 9 No. 24 - 28", "EmailSede": "gerencia@hospitalsantamonica.gov.co", "TelefonoSede": "3301198", "ClasePrestadorDesc": "Instituciones Prestadoras de Servicios de Salud - IPS", "FechaCorte": "Fecha corte REPS: Jul 4 2023 1:19PM", "address_geocoding": "Calle 9 No. 24 - 28, DOSQUEBRADAS, Risaralda, COLOMBIA", "status": "OK", "latitude": 4.816609, "longitude": -75.678327 }, "geometry": { "type": "Point", "coordinates": [ -75.678327, 4.816609 ] } },
{ "type": "Feature", "properties": { "CodigoPrestador": 6617000278, "primary_hc": "x", "NombrePrestador": "ESE HOSPITAL SANTA M‚àö√¨NICA", "CodigoHabilitacionSede": 661700000000.0, "NombreSede": "CENTRO DE ATENCI‚àö√¨N AMBULATORIO SANTA TERESITA", "TipoIdentificacion": "NI", "NumeroIdentificacion": 891411663, "NaturalezaJuridica": "P‚àö‚à´blica", "ESE": "SI", "MunicipioPrestador": 66170, "DepartamentoPrestadorDesc": "Risaralda", "MunicipioPrestadorDesc": "DOSQUEBRADAS", "DireccionPrestador": "Calle 18 No. 19-20 Barrio Santa M‚àö‚â•nica", "EmailPrestador": "gerencia@hospitalsantamonica.gov.co", "TelefonoPrestador": "3154281 3302507 Ext. 103", "MunicipioSede": 66170, "DepartamentoSedeDesc": "Risaralda", "MunicipioSedeDesc": "DOSQUEBRADAS", "DireccionSede": "CALLE 61 CRA. 16 Y 17", "EmailSede": "gerencia@hospitalsantamonica.gov.co", "TelefonoSede": "3286198", "ClasePrestadorDesc": "Instituciones Prestadoras de Servicios de Salud - IPS", "FechaCorte": "Fecha corte REPS: Jul 4 2023 1:19PM", "address_geocoding": "CALLE 61 CRA. 16 Y 17, DOSQUEBRADAS, Risaralda, COLOMBIA", "status": "OK", "latitude": 4.844192, "longitude": -75.6663662 }, "geometry": { "type": "Point", "coordinates": [ -75.6663662, 4.844192 ] } },
{ "type": "Feature", "properties": { "CodigoPrestador": 6617000278, "primary_hc": "x", "NombrePrestador": "ESE HOSPITAL SANTA M‚àö√¨NICA", "CodigoHabilitacionSede": 661700000000.0, "NombreSede": "CENTRO DE ATENCI‚àö√¨N AMBULATORIA EL BALSO", "TipoIdentificacion": "NI", "NumeroIdentificacion": 891411663, "NaturalezaJuridica": "P‚àö‚à´blica", "ESE": "SI", "MunicipioPrestador": 66170, "DepartamentoPrestadorDesc": "Risaralda", "MunicipioPrestadorDesc": "DOSQUEBRADAS", "DireccionPrestador": "Calle 18 No. 19-20 Barrio Santa M‚àö‚â•nica", "EmailPrestador": "gerencia@hospitalsantamonica.gov.co", "TelefonoPrestador": "3154281 3302507 Ext. 103", "MunicipioSede": 66170, "DepartamentoSedeDesc": "Risaralda", "MunicipioSedeDesc": "DOSQUEBRADAS", "DireccionSede": "CALLE 3 No. 22-31", "EmailSede": "gerencia@hospitalsantamonica.gov.co", "TelefonoSede": "3343777 - 3306597 - 3284826", "ClasePrestadorDesc": "Instituciones Prestadoras de Servicios de Salud - IPS", "FechaCorte": "Fecha corte REPS: Jul 4 2023 1:19PM", "address_geocoding": "CALLE 3 No. 22-31, DOSQUEBRADAS, Risaralda, COLOMBIA", "status": "OK", "latitude": 4.8156398, "longitude": -75.6815749 }, "geometry": { "type": "Point", "coordinates": [ -75.6815749, 4.8156398 ] } },
{ "type": "Feature", "properties": { "CodigoPrestador": 6617001725, "primary_hc": "x", "NombrePrestador": "CENTRO MEDICO GUADALUPE MEDICINA GENERAL Y SALUD OCUPACIONAL S.A.S", "CodigoHabilitacionSede": 661700000000.0, "NombreSede": "CENTRO MEDICO GUADALUPE MEDICINA GENERAL Y SALUD OCUPACIONAL S.A.S", "TipoIdentificacion": "NI", "NumeroIdentificacion": 900447281, "NaturalezaJuridica": "Privada", "ESE": null, "MunicipioPrestador": 66170, "DepartamentoPrestadorDesc": "Risaralda", "MunicipioPrestadorDesc": "DOSQUEBRADAS", "DireccionPrestador": "CRA 15 No 35- 39", "EmailPrestador": "centromedicoguadalupe@gmail.com", "TelefonoPrestador": "3324112", "MunicipioSede": 66170, "DepartamentoSedeDesc": "Risaralda", "MunicipioSedeDesc": "DOSQUEBRADAS", "DireccionSede": "CRA 15 No 35-39", "EmailSede": "centromedicoguadalupe@gmail.com", "TelefonoSede": "3324112", "ClasePrestadorDesc": "Instituciones Prestadoras de Servicios de Salud - IPS", "FechaCorte": "Fecha corte REPS: Jul 4 2023 1:19PM", "address_geocoding": "CRA 15 No 35-39, DOSQUEBRADAS, Risaralda, COLOMBIA", "status": "OK", "latitude": 4.8345319, "longitude": -75.6724484 }, "geometry": { "type": "Point", "coordinates": [ -75.6724484, 4.8345319 ] } },
{ "type": "Feature", "properties": { "CodigoPrestador": 6617002760, "primary_hc": "x", "NombrePrestador": "SENTIDOS IPS S.A.S", "CodigoHabilitacionSede": 661700000000.0, "NombreSede": "SENTIDOS IPS S.A.S.", "TipoIdentificacion": "NI", "NumeroIdentificacion": 900715387, "NaturalezaJuridica": "Privada", "ESE": null, "MunicipioPrestador": 66170, "DepartamentoPrestadorDesc": "Risaralda", "MunicipioPrestadorDesc": "DOSQUEBRADAS", "DireccionPrestador": "CALLE 19 N 19-107", "EmailPrestador": "sentidosips@gmail.com", "TelefonoPrestador": "3143022 3108292864", "MunicipioSede": 66170, "DepartamentoSedeDesc": "Risaralda", "MunicipioSedeDesc": "DOSQUEBRADAS", "DireccionSede": "CALLE 19 N 19-107", "EmailSede": "sentidosips@gmail.com", "TelefonoSede": "3143022-2108292864", "ClasePrestadorDesc": "Instituciones Prestadoras de Servicios de Salud - IPS", "FechaCorte": "Fecha corte REPS: Jul 4 2023 1:19PM", "address_geocoding": "CALLE 19 N 19-107, DOSQUEBRADAS, Risaralda, COLOMBIA", "status": "OK", "latitude": 4.8254152, "longitude": -75.6786901 }, "geometry": { "type": "Point", "coordinates": [ -75.6786901, 4.8254152 ] } },
{ "type": "Feature", "properties": { "CodigoPrestador": 6617003104, "primary_hc": "x", "NombrePrestador": "IPS PARQUE DE LA SALUD DOCTOR ROJAS S.A.S", "CodigoHabilitacionSede": 661700000000.0, "NombreSede": "IPS PARQUE DE LA SALUD DOCTOR ROJAS", "TipoIdentificacion": "NI", "NumeroIdentificacion": 901391239, "NaturalezaJuridica": "Privada", "ESE": null, "MunicipioPrestador": 66170, "DepartamentoPrestadorDesc": "Risaralda", "MunicipioPrestadorDesc": "DOSQUEBRADAS", "DireccionPrestador": "CALLE 22 # 20-101", "EmailPrestador": "ipsparquedelasalud@gmail.com", "TelefonoPrestador": "3127500215", "MunicipioSede": 66170, "DepartamentoSedeDesc": "Risaralda", "MunicipioSedeDesc": "DOSQUEBRADAS", "DireccionSede": "CALLE 22 # 20-101", "EmailSede": "ipsparquedelasalud@gmail.com", "TelefonoSede": "3127500215", "ClasePrestadorDesc": "Instituciones Prestadoras de Servicios de Salud - IPS", "FechaCorte": "Fecha corte REPS: Jul 4 2023 1:19PM", "address_geocoding": "CALLE 22 # 20-101, DOSQUEBRADAS, Risaralda, COLOMBIA", "status": "OK", "latitude": 4.8257009, "longitude": -75.6765806 }, "geometry": { "type": "Point", "coordinates": [ -75.6765806, 4.8257009 ] } },
{ "type": "Feature", "properties": { "CodigoPrestador": 6617003134, "primary_hc": "X", "NombrePrestador": "GAXO COLOMBIA S.A.S.", "CodigoHabilitacionSede": 661700000000.0, "NombreSede": "GAXO IPS DOSQUEBRADAS", "TipoIdentificacion": "NI", "NumeroIdentificacion": 900779184, "NaturalezaJuridica": "Privada", "ESE": null, "MunicipioPrestador": 66170, "DepartamentoPrestadorDesc": "Risaralda", "MunicipioPrestadorDesc": "DOSQUEBRADAS", "DireccionPrestador": "CALLE 18 N¬¨‚àû 19A-42 BARRIO SANTA MONICA", "EmailPrestador": "gerencia@gaxo.com.co", "TelefonoPrestador": "3389734", "MunicipioSede": 66170, "DepartamentoSedeDesc": "Risaralda", "MunicipioSedeDesc": "DOSQUEBRADAS", "DireccionSede": "Calle 18 No. 19A-42 BARRIO SANTA MONICA", "EmailSede": "gerencia@gaxo.com.co", "TelefonoSede": "3389734", "ClasePrestadorDesc": "Instituciones Prestadoras de Servicios de Salud - IPS", "FechaCorte": "Fecha corte REPS: Jul 4 2023 1:19PM", "address_geocoding": "Calle 18 No. 19A-42 BARRIO SANTA MONICA, DOSQUEBRADAS, Risaralda, COLOMBIA", "status": "OK", "latitude": 4.8256947, "longitude": -75.6809005 }, "geometry": { "type": "Point", "coordinates": [ -75.6809005, 4.8256947 ] } },
{ "type": "Feature", "properties": { "CodigoPrestador": 6600100217, "primary_hc": "x", "NombrePrestador": "CAJA DE COMPENSACION FAMILIAR DE RISARALDA COMFAMILIAR RISARALDA", "CodigoHabilitacionSede": 660010000000.0, "NombreSede": "CENTRO MEDICO No. 1", "TipoIdentificacion": "NI", "NumeroIdentificacion": 891480000, "NaturalezaJuridica": "Privada", "ESE": "NO", "MunicipioPrestador": 66001, "DepartamentoPrestadorDesc": "Risaralda", "MunicipioPrestadorDesc": "PEREIRA", "DireccionPrestador": "AV CIRCUNVALAR # 3-01", "EmailPrestador": "comfarda@comfamiliar.com", "TelefonoPrestador": "3138700 ext 2324, 3135600 Ext 2148", "MunicipioSede": 66001, "DepartamentoSedeDesc": "Risaralda", "MunicipioSedeDesc": "PEREIRA", "DireccionSede": "CRA 5 # 21-70", "EmailSede": "comfarda@comfamiliar.com", "TelefonoSede": "3135626", "ClasePrestadorDesc": "Instituciones Prestadoras de Servicios de Salud - IPS", "FechaCorte": "Fecha corte REPS: Jul 4 2023 1:19PM", "address_geocoding": "CRA 5 # 21-70, PEREIRA, Risaralda, COLOMBIA", "status": "OK", "latitude": 4.816663, "longitude": -75.696326 }, "geometry": { "type": "Point", "coordinates": [ -75.696326, 4.816663 ] } },
{ "type": "Feature", "properties": { "CodigoPrestador": 6600100217, "primary_hc": "x", "NombrePrestador": "CAJA DE COMPENSACION FAMILIAR DE RISARALDA COMFAMILIAR RISARALDA", "CodigoHabilitacionSede": 660010000000.0, "NombreSede": "CLINICA ODONTOLOGICA LUIS EDUARDO BAENA HENAO", "TipoIdentificacion": "NI", "NumeroIdentificacion": 891480000, "NaturalezaJuridica": "Privada", "ESE": "NO", "MunicipioPrestador": 66001, "DepartamentoPrestadorDesc": "Risaralda", "MunicipioPrestadorDesc": "PEREIRA", "DireccionPrestador": "AV CIRCUNVALAR # 3-01", "EmailPrestador": "comfarda@comfamiliar.com", "TelefonoPrestador": "3138700 ext 2324, 3135600 Ext 2148", "MunicipioSede": 66001, "DepartamentoSedeDesc": "Risaralda", "MunicipioSedeDesc": "PEREIRA", "DireccionSede": "CALLE 30 # 4A -40", "EmailSede": "comfarda@comfamiliar.com", "TelefonoSede": "3135649", "ClasePrestadorDesc": "Instituciones Prestadoras de Servicios de Salud - IPS", "FechaCorte": "Fecha corte REPS: Jul 4 2023 1:19PM", "address_geocoding": "CALLE 30 # 4A -40, PEREIRA, Risaralda, COLOMBIA", "status": "OK", "latitude": 4.813399, "longitude": -75.7038199 }, "geometry": { "type": "Point", "coordinates": [ -75.7038199, 4.813399 ] } },
{ "type": "Feature", "properties": { "CodigoPrestador": 6600100217, "primary_hc": "x", "NombrePrestador": "CAJA DE COMPENSACION FAMILIAR DE RISARALDA COMFAMILIAR RISARALDA", "CodigoHabilitacionSede": 660010000000.0, "NombreSede": "CENTRO MEDICO Y ODONTOLOGICO DE LA CIRCUNVALAR", "TipoIdentificacion": "NI", "NumeroIdentificacion": 891480000, "NaturalezaJuridica": "Privada", "ESE": "NO", "MunicipioPrestador": 66001, "DepartamentoPrestadorDesc": "Risaralda", "MunicipioPrestadorDesc": "PEREIRA", "DireccionPrestador": "AV CIRCUNVALAR # 3-01", "EmailPrestador": "comfarda@comfamiliar.com", "TelefonoPrestador": "3138700 ext 2324, 3135600 Ext 2148", "MunicipioSede": 66001, "DepartamentoSedeDesc": "Risaralda", "MunicipioSedeDesc": "PEREIRA", "DireccionSede": "AV CIRCUNVALAR # 3-01", "EmailSede": "comfarda@comfamiliar.com", "TelefonoSede": "3135600 Ext: 2148", "ClasePrestadorDesc": "Instituciones Prestadoras de Servicios de Salud - IPS", "FechaCorte": "Fecha corte REPS: Jul 4 2023 1:19PM", "address_geocoding": "AV CIRCUNVALAR # 3-01, PEREIRA, Risaralda, COLOMBIA", "status": "OK", "latitude": 4.8075606, "longitude": -75.6809037 }, "geometry": { "type": "Point", "coordinates": [ -75.6809037, 4.8075606 ] } },
{ "type": "Feature", "properties": { "CodigoPrestador": 6600100332, "primary_hc": "x", "NombrePrestador": "EMPRESA SOCIAL DEL ESTADO SALUD PEREIRA", "CodigoHabilitacionSede": 660010000000.0, "NombreSede": "CENTRO DE SALUD DE BOSTON", "TipoIdentificacion": "NI", "NumeroIdentificacion": 816005003, "NaturalezaJuridica": "P‚àö‚à´blica", "ESE": "SI", "MunicipioPrestador": 66001, "DepartamentoPrestadorDesc": "Risaralda", "MunicipioPrestadorDesc": "PEREIRA", "DireccionPrestador": "CRA 7 CON CALLE 40", "EmailPrestador": "correo@esepereira.gov.co", "TelefonoPrestador": "3515252 EXT 529", "MunicipioSede": 66001, "DepartamentoSedeDesc": "Risaralda", "MunicipioSedeDesc": "PEREIRA", "DireccionSede": "CRA 23 CALLE 20bis", "EmailSede": "calidadesesaludpereira@gmail.com", "TelefonoSede": "3515252 ext 302", "ClasePrestadorDesc": "Instituciones Prestadoras de Servicios de Salud - IPS", "FechaCorte": "Fecha corte REPS: Jul 4 2023 1:19PM", "address_geocoding": "CRA 23 CALLE 20bis, PEREIRA, Risaralda, COLOMBIA", "status": "OK", "latitude": 4.800512, "longitude": -75.6971519 }, "geometry": { "type": "Point", "coordinates": [ -75.6971519, 4.800512 ] } },
{ "type": "Feature", "properties": { "CodigoPrestador": 6600100332, "primary_hc": "x", "NombrePrestador": "EMPRESA SOCIAL DEL ESTADO SALUD PEREIRA", "CodigoHabilitacionSede": 660010000000.0, "NombreSede": "CERTRO DE SALUD SANTA TERESITA", "TipoIdentificacion": "NI", "NumeroIdentificacion": 816005003, "NaturalezaJuridica": "P‚àö‚à´blica", "ESE": "SI", "MunicipioPrestador": 66001, "DepartamentoPrestadorDesc": "Risaralda", "MunicipioPrestadorDesc": "PEREIRA", "DireccionPrestador": "CRA 7 CON CALLE 40", "EmailPrestador": "correo@esepereira.gov.co", "TelefonoPrestador": "3515252 EXT 529", "MunicipioSede": 66001, "DepartamentoSedeDesc": "Risaralda", "MunicipioSedeDesc": "PEREIRA", "DireccionSede": "CRA 1 # 17-21", "EmailSede": "calidadesesaludpereira@gmail.com", "TelefonoSede": "3515252 ext 303", "ClasePrestadorDesc": "Instituciones Prestadoras de Servicios de Salud - IPS", "FechaCorte": "Fecha corte REPS: Jul 4 2023 1:19PM", "address_geocoding": "CRA 1 # 17-21, PEREIRA, Risaralda, COLOMBIA", "status": "OK", "latitude": 4.8194077, "longitude": -75.692122 }, "geometry": { "type": "Point", "coordinates": [ -75.692122, 4.8194077 ] } },
{ "type": "Feature", "properties": { "CodigoPrestador": 6600100332, "primary_hc": "x", "NombrePrestador": "EMPRESA SOCIAL DEL ESTADO SALUD PEREIRA", "CodigoHabilitacionSede": 660010000000.0, "NombreSede": "CENTRO DE SALUD DE SAN NICOLAS", "TipoIdentificacion": "NI", "NumeroIdentificacion": 816005003, "NaturalezaJuridica": "P‚àö‚à´blica", "ESE": "SI", "MunicipioPrestador": 66001, "DepartamentoPrestadorDesc": "Risaralda", "MunicipioPrestadorDesc": "PEREIRA", "DireccionPrestador": "CRA 7 CON CALLE 40", "EmailPrestador": "correo@esepereira.gov.co", "TelefonoPrestador": "3515252 EXT 529", "MunicipioSede": 66001, "DepartamentoSedeDesc": "Risaralda", "MunicipioSedeDesc": "PEREIRA", "DireccionSede": "CRA 15 CALLE 28", "EmailSede": "calidadesesaludpereira@gmail.com", "TelefonoSede": "3515252 ext 304", "ClasePrestadorDesc": "Instituciones Prestadoras de Servicios de Salud - IPS", "FechaCorte": "Fecha corte REPS: Jul 4 2023 1:19PM", "address_geocoding": "CRA 15 CALLE 28, PEREIRA, Risaralda, COLOMBIA", "status": "OK", "latitude": 4.80828, "longitude": -75.70254 }, "geometry": { "type": "Point", "coordinates": [ -75.70254, 4.80828 ] } },
{ "type": "Feature", "properties": { "CodigoPrestador": 6600100332, "primary_hc": "x", "NombrePrestador": "EMPRESA SOCIAL DEL ESTADO SALUD PEREIRA", "CodigoHabilitacionSede": 660010000000.0, "NombreSede": "CENTRO DE SALUD SAN CAMILO", "TipoIdentificacion": "NI", "NumeroIdentificacion": 816005003, "NaturalezaJuridica": "P‚àö‚à´blica", "ESE": "SI", "MunicipioPrestador": 66001, "DepartamentoPrestadorDesc": "Risaralda", "MunicipioPrestadorDesc": "PEREIRA", "DireccionPrestador": "CRA 7 CON CALLE 40", "EmailPrestador": "correo@esepereira.gov.co", "TelefonoPrestador": "3515252 EXT 529", "MunicipioSede": 66001, "DepartamentoSedeDesc": "Risaralda", "MunicipioSedeDesc": "PEREIRA", "DireccionSede": "CALLE 34 # 3b - 04", "EmailSede": "calidadesesaludpereira@gmail.com", "TelefonoSede": "3515252 ext 305", "ClasePrestadorDesc": "Instituciones Prestadoras de Servicios de Salud - IPS", "FechaCorte": "Fecha corte REPS: Jul 4 2023 1:19PM", "address_geocoding": "CALLE 34 # 3b - 04, PEREIRA, Risaralda, COLOMBIA", "status": "OK", "latitude": 4.8189887, "longitude": -75.7065769 }, "geometry": { "type": "Point", "coordinates": [ -75.7065769, 4.8189887 ] } },
{ "type": "Feature", "properties": { "CodigoPrestador": 6600100332, "primary_hc": "x", "NombrePrestador": "EMPRESA SOCIAL DEL ESTADO SALUD PEREIRA", "CodigoHabilitacionSede": 660010000000.0, "NombreSede": "CENTR0 DE SALUD VILLA SANTANA", "TipoIdentificacion": "NI", "NumeroIdentificacion": 816005003, "NaturalezaJuridica": "P‚àö‚à´blica", "ESE": "SI", "MunicipioPrestador": 66001, "DepartamentoPrestadorDesc": "Risaralda", "MunicipioPrestadorDesc": "PEREIRA", "DireccionPrestador": "CRA 7 CON CALLE 40", "EmailPrestador": "correo@esepereira.gov.co", "TelefonoPrestador": "3515252 EXT 529", "MunicipioSede": 66001, "DepartamentoSedeDesc": "Risaralda", "MunicipioSedeDesc": "PEREIRA", "DireccionSede": "CRA 21 # 17e-49", "EmailSede": "calidadesesaludpereira@gmail.com", "TelefonoSede": "3515252 ext 300", "ClasePrestadorDesc": "Instituciones Prestadoras de Servicios de Salud - IPS", "FechaCorte": "Fecha corte REPS: Jul 4 2023 1:19PM", "address_geocoding": "CRA 21 # 17e-49, PEREIRA, Risaralda, COLOMBIA", "status": "OK", "latitude": 4.8043292, "longitude": -75.7006072 }, "geometry": { "type": "Point", "coordinates": [ -75.7006072, 4.8043292 ] } },
{ "type": "Feature", "properties": { "CodigoPrestador": 6600100332, "primary_hc": "x", "NombrePrestador": "EMPRESA SOCIAL DEL ESTADO SALUD PEREIRA", "CodigoHabilitacionSede": 660010000000.0, "NombreSede": "CENTRO DE SALUD PERLA DEL OTUN", "TipoIdentificacion": "NI", "NumeroIdentificacion": 816005003, "NaturalezaJuridica": "P‚àö‚à´blica", "ESE": "SI", "MunicipioPrestador": 66001, "DepartamentoPrestadorDesc": "Risaralda", "MunicipioPrestadorDesc": "PEREIRA", "DireccionPrestador": "CRA 7 CON CALLE 40", "EmailPrestador": "correo@esepereira.gov.co", "TelefonoPrestador": "3515252 EXT 529", "MunicipioSede": 66001, "DepartamentoSedeDesc": "Risaralda", "MunicipioSedeDesc": "PEREIRA", "DireccionSede": "CLL 74 # 39C - 10 (MANZANA 29 CAS 0) LA ALBANIA 2500 LOTES", "EmailSede": "calidadesesaludpereira@gmail.com", "TelefonoSede": "3515252 ext 301", "ClasePrestadorDesc": "Instituciones Prestadoras de Servicios de Salud - IPS", "FechaCorte": "Fecha corte REPS: Jul 4 2023 1:19PM", "address_geocoding": "CLL 74 # 39C - 10 (MANZANA 29 CAS 0) LA ALBANIA 2500 LOTES, PEREIRA, Risaralda, COLOMBIA", "status": "OK", "latitude": 4.7963273, "longitude": -75.729648 }, "geometry": { "type": "Point", "coordinates": [ -75.729648, 4.7963273 ] } },
{ "type": "Feature", "properties": { "CodigoPrestador": 6600100332, "primary_hc": "x", "NombrePrestador": "EMPRESA SOCIAL DEL ESTADO SALUD PEREIRA", "CodigoHabilitacionSede": 660010000000.0, "NombreSede": "CENTRO DE SALUD VILLA CONSOTA", "TipoIdentificacion": "NI", "NumeroIdentificacion": 816005003, "NaturalezaJuridica": "P‚àö‚à´blica", "ESE": "SI", "MunicipioPrestador": 66001, "DepartamentoPrestadorDesc": "Risaralda", "MunicipioPrestadorDesc": "PEREIRA", "DireccionPrestador": "CRA 7 CON CALLE 40", "EmailPrestador": "correo@esepereira.gov.co", "TelefonoPrestador": "3515252 EXT 529", "MunicipioSede": 66001, "DepartamentoSedeDesc": "Risaralda", "MunicipioSedeDesc": "PEREIRA", "DireccionSede": "Calle 40 Carrera 70 esquina Barrio Panorama Cuba", "EmailSede": "calidadesesaludpereira@gmail.com", "TelefonoSede": "3515252 ext 307", "ClasePrestadorDesc": "Instituciones Prestadoras de Servicios de Salud - IPS", "FechaCorte": "Fecha corte REPS: Jul 4 2023 1:19PM", "address_geocoding": "Calle 40 Carrera 70 esquina Barrio Panorama Cuba, PEREIRA, Risaralda, COLOMBIA", "status": "OK", "latitude": 4.81405, "longitude": -75.71207 }, "geometry": { "type": "Point", "coordinates": [ -75.71207, 4.81405 ] } },
{ "type": "Feature", "properties": { "CodigoPrestador": 6600100332, "primary_hc": "x", "NombrePrestador": "EMPRESA SOCIAL DEL ESTADO SALUD PEREIRA", "CodigoHabilitacionSede": 660010000000.0, "NombreSede": "PUESTO DE SALUD CAIMALITO", "TipoIdentificacion": "NI", "NumeroIdentificacion": 816005003, "NaturalezaJuridica": "P‚àö‚à´blica", "ESE": "SI", "MunicipioPrestador": 66001, "DepartamentoPrestadorDesc": "Risaralda", "MunicipioPrestadorDesc": "PEREIRA", "DireccionPrestador": "CRA 7 CON CALLE 40", "EmailPrestador": "correo@esepereira.gov.co", "TelefonoPrestador": "3515252 EXT 529", "MunicipioSede": 66001, "DepartamentoSedeDesc": "Risaralda", "MunicipioSedeDesc": "PEREIRA", "DireccionSede": "CORREGIMIENTO CAIMALITO FRENTE A LA ESTACION DE BOMBEROS", "EmailSede": "calidadesesaludpereira@gmail.com", "TelefonoSede": "3515252 ext 311", "ClasePrestadorDesc": "Instituciones Prestadoras de Servicios de Salud - IPS", "FechaCorte": "Fecha corte REPS: Jul 4 2023 1:19PM", "address_geocoding": "CORREGIMIENTO CAIMALITO FRENTE A LA ESTACION DE BOMBEROS, PEREIRA, Risaralda, COLOMBIA", "status": "OK", "latitude": 4.8083908, "longitude": -75.7253807 }, "geometry": { "type": "Point", "coordinates": [ -75.7253807, 4.8083908 ] } },
{ "type": "Feature", "properties": { "CodigoPrestador": 6600100332, "primary_hc": "x", "NombrePrestador": "EMPRESA SOCIAL DEL ESTADO SALUD PEREIRA", "CodigoHabilitacionSede": 660010000000.0, "NombreSede": "PUESTO DE SALUD FONDA CENTRAL", "TipoIdentificacion": "NI", "NumeroIdentificacion": 816005003, "NaturalezaJuridica": "P‚àö‚à´blica", "ESE": "SI", "MunicipioPrestador": 66001, "DepartamentoPrestadorDesc": "Risaralda", "MunicipioPrestadorDesc": "PEREIRA", "DireccionPrestador": "CRA 7 CON CALLE 40", "EmailPrestador": "correo@esepereira.gov.co", "TelefonoPrestador": "3515252 EXT 529", "MunicipioSede": 66001, "DepartamentoSedeDesc": "Risaralda", "MunicipioSedeDesc": "PEREIRA", "DireccionSede": "Fonda Central", "EmailSede": "calidadesesaludpereira@gmail.com", "TelefonoSede": "3515252 ext 314", "ClasePrestadorDesc": "Instituciones Prestadoras de Servicios de Salud - IPS", "FechaCorte": "Fecha corte REPS: Jul 4 2023 1:19PM", "address_geocoding": "Fonda Central, PEREIRA, Risaralda, COLOMBIA", "status": "OK", "latitude": 4.80008, "longitude": -75.81665 }, "geometry": { "type": "Point", "coordinates": [ -75.81665, 4.80008 ] } },
{ "type": "Feature", "properties": { "CodigoPrestador": 6600100332, "primary_hc": "x", "NombrePrestador": "EMPRESA SOCIAL DEL ESTADO SALUD PEREIRA", "CodigoHabilitacionSede": 660010000000.0, "NombreSede": "PUESTO DESALUD CRUCERO DE COMBIA", "TipoIdentificacion": "NI", "NumeroIdentificacion": 816005003, "NaturalezaJuridica": "P‚àö‚à´blica", "ESE": "SI", "MunicipioPrestador": 66001, "DepartamentoPrestadorDesc": "Risaralda", "MunicipioPrestadorDesc": "PEREIRA", "DireccionPrestador": "CRA 7 CON CALLE 40", "EmailPrestador": "correo@esepereira.gov.co", "TelefonoPrestador": "3515252 EXT 529", "MunicipioSede": 66001, "DepartamentoSedeDesc": "Risaralda", "MunicipioSedeDesc": "PEREIRA", "DireccionSede": "CORREGIMIENTO CRUCERO DE COMBIA", "EmailSede": "calidadesesaludpereira@gmail.com", "TelefonoSede": "3515252 ext 313", "ClasePrestadorDesc": "Instituciones Prestadoras de Servicios de Salud - IPS", "FechaCorte": "Fecha corte REPS: Jul 4 2023 1:19PM", "address_geocoding": "CORREGIMIENTO CRUCERO DE COMBIA, PEREIRA, Risaralda, COLOMBIA", "status": "OK", "latitude": 4.8362226, "longitude": -75.7630166 }, "geometry": { "type": "Point", "coordinates": [ -75.7630166, 4.8362226 ] } },
{ "type": "Feature", "properties": { "CodigoPrestador": 6600100332, "primary_hc": "x", "NombrePrestador": "EMPRESA SOCIAL DEL ESTADO SALUD PEREIRA", "CodigoHabilitacionSede": 660010000000.0, "NombreSede": "PUESTO DE SALUD PITAL DE COMBIA", "TipoIdentificacion": "NI", "NumeroIdentificacion": 816005003, "NaturalezaJuridica": "P‚àö‚à´blica", "ESE": "SI", "MunicipioPrestador": 66001, "DepartamentoPrestadorDesc": "Risaralda", "MunicipioPrestadorDesc": "PEREIRA", "DireccionPrestador": "CRA 7 CON CALLE 40", "EmailPrestador": "correo@esepereira.gov.co", "TelefonoPrestador": "3515252 EXT 529", "MunicipioSede": 66001, "DepartamentoSedeDesc": "Risaralda", "MunicipioSedeDesc": "PEREIRA", "DireccionSede": "VEREDA PITAL DE COMBIA, DIAGONAL INSTITUCI‚àö√¨N EDUCATIVA AGROPECUARIA EL PITAL", "EmailSede": "calidadesesaludpereira@gmail.com", "TelefonoSede": "3515252 ext 322", "ClasePrestadorDesc": "Instituciones Prestadoras de Servicios de Salud - IPS", "FechaCorte": "Fecha corte REPS: Jul 4 2023 1:19PM", "address_geocoding": "VEREDA PITAL DE COMBIA, DIAGONAL INSTITUCI‚àö√¨N EDUCATIVA AGROPECUARIA EL PITAL, PEREIRA, Risaralda, COLOMBIA", "status": "OK", "latitude": 4.82889, "longitude": -75.7277593 }, "geometry": { "type": "Point", "coordinates": [ -75.7277593, 4.82889 ] } },
{ "type": "Feature", "properties": { "CodigoPrestador": 6600100332, "primary_hc": "x", "NombrePrestador": "EMPRESA SOCIAL DEL ESTADO SALUD PEREIRA", "CodigoHabilitacionSede": 660010000000.0, "NombreSede": "PUESTO DE SALUD LA BELLA", "TipoIdentificacion": "NI", "NumeroIdentificacion": 816005003, "NaturalezaJuridica": "P‚àö‚à´blica", "ESE": "SI", "MunicipioPrestador": 66001, "DepartamentoPrestadorDesc": "Risaralda", "MunicipioPrestadorDesc": "PEREIRA", "DireccionPrestador": "CRA 7 CON CALLE 40", "EmailPrestador": "correo@esepereira.gov.co", "TelefonoPrestador": "3515252 EXT 529", "MunicipioSede": 66001, "DepartamentoSedeDesc": "Risaralda", "MunicipioSedeDesc": "PEREIRA", "DireccionSede": "CORREGIMIENTO LA BELLA CONTIGUO A LA ESTACION DE POLICIA", "EmailSede": "calidadesesaludpereira@gmail.com", "TelefonoSede": "3515252 ext 316", "ClasePrestadorDesc": "Instituciones Prestadoras de Servicios de Salud - IPS", "FechaCorte": "Fecha corte REPS: Jul 4 2023 1:19PM", "address_geocoding": "CORREGIMIENTO LA BELLA CONTIGUO A LA ESTACION DE POLICIA, PEREIRA, Risaralda, COLOMBIA", "status": "OK", "latitude": 4.8119714, "longitude": -75.6867365 }, "geometry": { "type": "Point", "coordinates": [ -75.6867365, 4.8119714 ] } },
{ "type": "Feature", "properties": { "CodigoPrestador": 6600100332, "primary_hc": "x", "NombrePrestador": "EMPRESA SOCIAL DEL ESTADO SALUD PEREIRA", "CodigoHabilitacionSede": 660010000000.0, "NombreSede": "PUESTO DE SALUD ALTA GRACIA", "TipoIdentificacion": "NI", "NumeroIdentificacion": 816005003, "NaturalezaJuridica": "P‚àö‚à´blica", "ESE": "SI", "MunicipioPrestador": 66001, "DepartamentoPrestadorDesc": "Risaralda", "MunicipioPrestadorDesc": "PEREIRA", "DireccionPrestador": "CRA 7 CON CALLE 40", "EmailPrestador": "correo@esepereira.gov.co", "TelefonoPrestador": "3515252 EXT 529", "MunicipioSede": 66001, "DepartamentoSedeDesc": "Risaralda", "MunicipioSedeDesc": "PEREIRA", "DireccionSede": "CORREGEMIENTO ALTAGRACIA CONTIGUO AL ACUEDUCTO", "EmailSede": "calidadesesaludpereira@gmail.com", "TelefonoSede": "3515252 ext 309", "ClasePrestadorDesc": "Instituciones Prestadoras de Servicios de Salud - IPS", "FechaCorte": "Fecha corte REPS: Jul 4 2023 1:19PM", "address_geocoding": "CORREGEMIENTO ALTAGRACIA CONTIGUO AL ACUEDUCTO, PEREIRA, Risaralda, COLOMBIA", "status": "OK", "latitude": 4.8046172, "longitude": -75.6762121 }, "geometry": { "type": "Point", "coordinates": [ -75.6762121, 4.8046172 ] } },
{ "type": "Feature", "properties": { "CodigoPrestador": 6600100332, "primary_hc": "x", "NombrePrestador": "EMPRESA SOCIAL DEL ESTADO SALUD PEREIRA", "CodigoHabilitacionSede": 660010000000.0, "NombreSede": "PUESTO DE SALUD MORELIA", "TipoIdentificacion": "NI", "NumeroIdentificacion": 816005003, "NaturalezaJuridica": "P‚àö‚à´blica", "ESE": "SI", "MunicipioPrestador": 66001, "DepartamentoPrestadorDesc": "Risaralda", "MunicipioPrestadorDesc": "PEREIRA", "DireccionPrestador": "CRA 7 CON CALLE 40", "EmailPrestador": "correo@esepereira.gov.co", "TelefonoPrestador": "3515252 EXT 529", "MunicipioSede": 66001, "DepartamentoSedeDesc": "Risaralda", "MunicipioSedeDesc": "PEREIRA", "DireccionSede": "SECTOR MORELIA VIA PEREIRA ALCALA", "EmailSede": "calidadesesaludpereira@gmail.com", "TelefonoSede": "3515252 ext 315", "ClasePrestadorDesc": "Instituciones Prestadoras de Servicios de Salud - IPS", "FechaCorte": "Fecha corte REPS: Jul 4 2023 1:19PM", "address_geocoding": "SECTOR MORELIA VIA PEREIRA ALCALA, PEREIRA, Risaralda, COLOMBIA", "status": "OK", "latitude": 4.8156544, "longitude": -75.6945048 }, "geometry": { "type": "Point", "coordinates": [ -75.6945048, 4.8156544 ] } },
{ "type": "Feature", "properties": { "CodigoPrestador": 6600100332, "primary_hc": "x", "NombrePrestador": "EMPRESA SOCIAL DEL ESTADO SALUD PEREIRA", "CodigoHabilitacionSede": 660010000000.0, "NombreSede": "HOSPITAL DEL CENTRO", "TipoIdentificacion": "NI", "NumeroIdentificacion": 816005003, "NaturalezaJuridica": "P‚àö‚à´blica", "ESE": "SI", "MunicipioPrestador": 66001, "DepartamentoPrestadorDesc": "Risaralda", "MunicipioPrestadorDesc": "PEREIRA", "DireccionPrestador": "CRA 7 CON CALLE 40", "EmailPrestador": "correo@esepereira.gov.co", "TelefonoPrestador": "3515252 EXT 529", "MunicipioSede": 66001, "DepartamentoSedeDesc": "Risaralda", "MunicipioSedeDesc": "PEREIRA", "DireccionSede": "CRA 7 # 40-40", "EmailSede": "calidad@esepereira.gov.co", "TelefonoSede": "3515252 ext 501-520", "ClasePrestadorDesc": "Instituciones Prestadoras de Servicios de Salud - IPS", "FechaCorte": "Fecha corte REPS: Jul 4 2023 1:19PM", "address_geocoding": "CRA 7 # 40-40, PEREIRA, Risaralda, COLOMBIA", "status": "OK", "latitude": 4.816972, "longitude": -75.712232 }, "geometry": { "type": "Point", "coordinates": [ -75.712232, 4.816972 ] } },
{ "type": "Feature", "properties": { "CodigoPrestador": 6600100332, "primary_hc": "x", "NombrePrestador": "EMPRESA SOCIAL DEL ESTADO SALUD PEREIRA", "CodigoHabilitacionSede": 660010000000.0, "NombreSede": "CENTRO DE SALUD CASA DEL ABUELO", "TipoIdentificacion": "NI", "NumeroIdentificacion": 816005003, "NaturalezaJuridica": "P‚àö‚à´blica", "ESE": "SI", "MunicipioPrestador": 66001, "DepartamentoPrestadorDesc": "Risaralda", "MunicipioPrestadorDesc": "PEREIRA", "DireccionPrestador": "CRA 7 CON CALLE 40", "EmailPrestador": "correo@esepereira.gov.co", "TelefonoPrestador": "3515252 EXT 529", "MunicipioSede": 66001, "DepartamentoSedeDesc": "Risaralda", "MunicipioSedeDesc": "PEREIRA", "DireccionSede": "CIUDAD BOQUIA FRENTE ESTACION DE POLICIA", "EmailSede": "calidadesesaludpereira@gmail.com", "TelefonoSede": "3515252 ext 306", "ClasePrestadorDesc": "Instituciones Prestadoras de Servicios de Salud - IPS", "FechaCorte": "Fecha corte REPS: Jul 4 2023 1:19PM", "address_geocoding": "CIUDAD BOQUIA FRENTE ESTACION DE POLICIA, PEREIRA, Risaralda, COLOMBIA", "status": "OK", "latitude": 4.8232181, "longitude": -75.7306073 }, "geometry": { "type": "Point", "coordinates": [ -75.7306073, 4.8232181 ] } },
{ "type": "Feature", "properties": { "CodigoPrestador": 6600100332, "primary_hc": "x", "NombrePrestador": "EMPRESA SOCIAL DEL ESTADO SALUD PEREIRA", "CodigoHabilitacionSede": 660010000000.0, "NombreSede": "CENTRO DE SALUD EL REMANSO", "TipoIdentificacion": "NI", "NumeroIdentificacion": 816005003, "NaturalezaJuridica": "P‚àö‚à´blica", "ESE": "SI", "MunicipioPrestador": 66001, "DepartamentoPrestadorDesc": "Risaralda", "MunicipioPrestadorDesc": "PEREIRA", "DireccionPrestador": "CRA 7 CON CALLE 40", "EmailPrestador": "correo@esepereira.gov.co", "TelefonoPrestador": "3515252 EXT 529", "MunicipioSede": 66001, "DepartamentoSedeDesc": "Risaralda", "MunicipioSedeDesc": "PEREIRA", "DireccionSede": "CONTIGUO A VIVE DIGITAL", "EmailSede": "calidadesesaludpereira@gmail.com", "TelefonoSede": "3515252 ext 308", "ClasePrestadorDesc": "Instituciones Prestadoras de Servicios de Salud - IPS", "FechaCorte": "Fecha corte REPS: Jul 4 2023 1:19PM", "address_geocoding": "CONTIGUO A VIVE DIGITAL, PEREIRA, Risaralda, COLOMBIA", "status": "OK", "latitude": 4.812071, "longitude": -75.692611 }, "geometry": { "type": "Point", "coordinates": [ -75.692611, 4.812071 ] } },
{ "type": "Feature", "properties": { "CodigoPrestador": 6600100759, "primary_hc": "x", "NombrePrestador": "SALUD TOTAL EPS-S S.A.", "CodigoHabilitacionSede": 660010000000.0, "NombreSede": "SALUD TOTAL EPS-S S.A 30 de AGOSTO", "TipoIdentificacion": "NI", "NumeroIdentificacion": 800130907, "NaturalezaJuridica": "Privada", "ESE": "NO", "MunicipioPrestador": 66001, "DepartamentoPrestadorDesc": "Risaralda", "MunicipioPrestadorDesc": "PEREIRA", "DireccionPrestador": "AV 30 DE AGOSTO NO 40-51 - Barrio:", "EmailPrestador": "juanmm@saludtotal.com.co", "TelefonoPrestador": "3363865", "MunicipioSede": 66001, "DepartamentoSedeDesc": "Risaralda", "MunicipioSedeDesc": "PEREIRA", "DireccionSede": "AV 30 DE AGOSTO NO 40-51", "EmailSede": "juanmm@saludtotal.com.co", "TelefonoSede": "3363865", "ClasePrestadorDesc": "Instituciones Prestadoras de Servicios de Salud - IPS", "FechaCorte": "Fecha corte REPS: Jul 4 2023 1:19PM", "address_geocoding": "AV 30 DE AGOSTO NO 40-51, PEREIRA, Risaralda, COLOMBIA", "status": "OK", "latitude": 4.8133811, "longitude": -75.7125802 }, "geometry": { "type": "Point", "coordinates": [ -75.7125802, 4.8133811 ] } },
{ "type": "Feature", "properties": { "CodigoPrestador": 6600100759, "primary_hc": "x", "NombrePrestador": "SALUD TOTAL EPS-S S.A.", "CodigoHabilitacionSede": 660010000000.0, "NombreSede": "SALUD TOTAL EPS-S S.A. SEDE ROSALES", "TipoIdentificacion": "NI", "NumeroIdentificacion": 800130907, "NaturalezaJuridica": "Privada", "ESE": "NO", "MunicipioPrestador": 66001, "DepartamentoPrestadorDesc": "Risaralda", "MunicipioPrestadorDesc": "PEREIRA", "DireccionPrestador": "AV 30 DE AGOSTO NO 40-51 - Barrio:", "EmailPrestador": "juanmm@saludtotal.com.co", "TelefonoPrestador": "3363865", "MunicipioSede": 66001, "DepartamentoSedeDesc": "Risaralda", "MunicipioSedeDesc": "PEREIRA", "DireccionSede": "CARRERA 9 N 25-25 TB PISO 6 A603", "EmailSede": "juanmm@saludtotal.com.co", "TelefonoSede": "3257621", "ClasePrestadorDesc": "Instituciones Prestadoras de Servicios de Salud - IPS", "FechaCorte": "Fecha corte REPS: Jul 4 2023 1:19PM", "address_geocoding": "CARRERA 9 N 25-25 TB PISO 6 A603, PEREIRA, Risaralda, COLOMBIA", "status": "OK", "latitude": 4.8134629, "longitude": -75.6997441 }, "geometry": { "type": "Point", "coordinates": [ -75.6997441, 4.8134629 ] } },
{ "type": "Feature", "properties": { "CodigoPrestador": 6600100771, "primary_hc": "x", "NombrePrestador": "IPS SAN SEBASTIAN LTDA", "CodigoHabilitacionSede": 660010000000.0, "NombreSede": "IPS SAN SEBASTIAN LTDA", "TipoIdentificacion": "NI", "NumeroIdentificacion": 816003137, "NaturalezaJuridica": "Privada", "ESE": null, "MunicipioPrestador": 66001, "DepartamentoPrestadorDesc": "Risaralda", "MunicipioPrestadorDesc": "PEREIRA", "DireccionPrestador": "Carrera 7 No. 28-32 Local 102", "EmailPrestador": "contabilidad@ipssansebastian.com", "TelefonoPrestador": "3367963", "MunicipioSede": 66001, "DepartamentoSedeDesc": "Risaralda", "MunicipioSedeDesc": "PEREIRA", "DireccionSede": "Carrera 7 No 28-32 Local 102", "EmailSede": "contabilidad@ipssansebastian.com", "TelefonoSede": "3267448 - 3367963", "ClasePrestadorDesc": "Instituciones Prestadoras de Servicios de Salud - IPS", "FechaCorte": "Fecha corte REPS: Jul 4 2023 1:19PM", "address_geocoding": "Carrera 7 No 28-32 Local 102, PEREIRA, Risaralda, COLOMBIA", "status": "OK", "latitude": 4.8157575, "longitude": -75.7020451 }, "geometry": { "type": "Point", "coordinates": [ -75.7020451, 4.8157575 ] } },
{ "type": "Feature", "properties": { "CodigoPrestador": 6600100811, "primary_hc": "x", "NombrePrestador": "COSMITET LTDA, CORPORACION DE SERVICIOS MEDICOS INTERNACIONALES THEM Y COMPA‚àö√´‚àö√ßA LTDA", "CodigoHabilitacionSede": 660010000000.0, "NombreSede": "CENTRO MEDICO COSMITET LTDA PEREIRA", "TipoIdentificacion": "NI", "NumeroIdentificacion": 830023202, "NaturalezaJuridica": "Privada", "ESE": "NO", "MunicipioPrestador": 66001, "DepartamentoPrestadorDesc": "Risaralda", "MunicipioPrestadorDesc": "PEREIRA", "DireccionPrestador": "CARRERA 14 BIS # 10-17 NIVEL 1 EDIFICIO MONT BLANC  Barrio: LOS ALPES", "EmailPrestador": "audicalidad.pereira@cosmitet.net", "TelefonoPrestador": "3400359 Ext 5421 cel 3137258450 - 3116406591", "MunicipioSede": 66001, "DepartamentoSedeDesc": "Risaralda", "MunicipioSedeDesc": "PEREIRA", "DireccionSede": "CARRERA 14 BIS # 10 - 17 NIVEL 1 EDIFICIO MONT BLANC", "EmailSede": "audicalidad.pereira@cosmitet.net", "TelefonoSede": "3400359 Ext 5413", "ClasePrestadorDesc": "Instituciones Prestadoras de Servicios de Salud - IPS", "FechaCorte": "Fecha corte REPS: Jul 4 2023 1:19PM", "address_geocoding": "CARRERA 14 BIS # 10 - 17 NIVEL 1 EDIFICIO MONT BLANC, PEREIRA, Risaralda, COLOMBIA", "status": "OK", "latitude": 4.8076311, "longitude": -75.6872613 }, "geometry": { "type": "Point", "coordinates": [ -75.6872613, 4.8076311 ] } },
{ "type": "Feature", "properties": { "CodigoPrestador": 6600101587, "primary_hc": "x", "NombrePrestador": "Sociedad Comercializadora De Insumos y Servicios M‚àö¬©dicos S.A.S", "CodigoHabilitacionSede": 660010000000.0, "NombreSede": "SEDE OVAL MEDICA", "TipoIdentificacion": "NI", "NumeroIdentificacion": 900342064, "NaturalezaJuridica": "Privada", "ESE": null, "MunicipioPrestador": 66001, "DepartamentoPrestadorDesc": "Risaralda", "MunicipioPrestadorDesc": "PEREIRA", "DireccionPrestador": "Carrera 25 # 74 A 87 Barrio San Rafael UribeII", "EmailPrestador": "gerencia@socimedicos.com", "TelefonoPrestador": "3270700-3115411", "MunicipioSede": 66001, "DepartamentoSedeDesc": "Risaralda", "MunicipioSedeDesc": "PEREIRA", "DireccionSede": "AVENIDA JUAN B GUTIERREZ N¬¨‚à´ 18-60 OVAL MEDICA CONSULTORIOS 703", "EmailSede": "lideraseguramientocalidad@socimedicos.com", "TelefonoSede": "3270700 3115411", "ClasePrestadorDesc": "Instituciones Prestadoras de Servicios de Salud - IPS", "FechaCorte": "Fecha corte REPS: Jul 4 2023 1:19PM", "address_geocoding": "AVENIDA JUAN B GUTIERREZ N¬¨‚à´ 18-60 OVAL MEDICA CONSULTORIOS 703, PEREIRA, Risaralda, COLOMBIA", "status": "OK", "latitude": 4.8027788, "longitude": -75.6857281 }, "geometry": { "type": "Point", "coordinates": [ -75.6857281, 4.8027788 ] } },
{ "type": "Feature", "properties": { "CodigoPrestador": 6600101877, "primary_hc": "x", "NombrePrestador": "IPS Fundaci‚àö‚â•n Nueve Lunas", "CodigoHabilitacionSede": 660010000000.0, "NombreSede": "IPS Fundaci‚àö‚â•n Nueve Lunas", "TipoIdentificacion": "NI", "NumeroIdentificacion": 900596335, "NaturalezaJuridica": "Privada", "ESE": null, "MunicipioPrestador": 66001, "DepartamentoPrestadorDesc": "Risaralda", "MunicipioPrestadorDesc": "PEREIRA", "DireccionPrestador": "Cra 16 N¬¨‚àû 8-26 Los Alpes", "EmailPrestador": "infonuevelunaspereira@gmail.com", "TelefonoPrestador": "3451999 - 3451115", "MunicipioSede": 66001, "DepartamentoSedeDesc": "Risaralda", "MunicipioSedeDesc": "PEREIRA", "DireccionSede": "Cra 16 N¬¨‚àû 8-26", "EmailSede": "infonuevelunaspereira@gmail.com", "TelefonoSede": "3451999 - 3451115", "ClasePrestadorDesc": "Instituciones Prestadoras de Servicios de Salud - IPS", "FechaCorte": "Fecha corte REPS: Jul 4 2023 1:19PM", "address_geocoding": "Cra 16 N¬¨‚àû 8-26, PEREIRA, Risaralda, COLOMBIA", "status": "OK", "latitude": 4.8064651, "longitude": -75.7490099 }, "geometry": { "type": "Point", "coordinates": [ -75.7490099, 4.8064651 ] } },
{ "type": "Feature", "properties": { "CodigoPrestador": 6600102446, "primary_hc": "x", "NombrePrestador": "CAJA COLOMBIANA DE SUBSIDIO FAMILIAR COLSUBSIDIO", "CodigoHabilitacionSede": 660010000000.0, "NombreSede": "CENTRO M‚àö√¢DICO COLSUBSIDIO PEREIRA", "TipoIdentificacion": "NI", "NumeroIdentificacion": 860007336, "NaturalezaJuridica": "Privada", "ESE": null, "MunicipioPrestador": 66001, "DepartamentoPrestadorDesc": "Risaralda", "MunicipioPrestadorDesc": "PEREIRA", "DireccionPrestador": "Av 30 de agosto N¬¨‚àû 48 -74/84/92", "EmailPrestador": "calidad.colsubsidio@colsubsidio.com", "TelefonoPrestador": "3401672", "MunicipioSede": 66001, "DepartamentoSedeDesc": "Risaralda", "MunicipioSedeDesc": "PEREIRA", "DireccionSede": "AVENIDA 30 DE AGOSTO N¬¨‚àû 48 - 74/84/92", "EmailSede": "calidad.colsubsidio@colsubsidio.com", "TelefonoSede": "7420100 EXT 71301", "ClasePrestadorDesc": "Instituciones Prestadoras de Servicios de Salud - IPS", "FechaCorte": "Fecha corte REPS: Jul 4 2023 1:19PM", "address_geocoding": "AVENIDA 30 DE AGOSTO N¬¨‚àû 48 - 74/84/92, PEREIRA, Risaralda, COLOMBIA", "status": "OK", "latitude": 4.8137851, "longitude": -75.73169 }, "geometry": { "type": "Point", "coordinates": [ -75.73169, 4.8137851 ] } },
{ "type": "Feature", "properties": { "CodigoPrestador": 6600102446, "primary_hc": "x", "NombrePrestador": "CAJA COLOMBIANA DE SUBSIDIO FAMILIAR COLSUBSIDIO", "CodigoHabilitacionSede": 660010000000.0, "NombreSede": "CENTRO M‚àö√¢DICO SURA PINARES", "TipoIdentificacion": "NI", "NumeroIdentificacion": 860007336, "NaturalezaJuridica": "Privada", "ESE": null, "MunicipioPrestador": 66001, "DepartamentoPrestadorDesc": "Risaralda", "MunicipioPrestadorDesc": "PEREIRA", "DireccionPrestador": "Av 30 de agosto N¬¨‚àû 48 -74/84/92", "EmailPrestador": "calidad.colsubsidio@colsubsidio.com", "TelefonoPrestador": "3401672", "MunicipioSede": 66001, "DepartamentoSedeDesc": "Risaralda", "MunicipioSedeDesc": "PEREIRA", "DireccionSede": "CARRERA 16 BIS # 8 - 24 Local 1 y 2", "EmailSede": "calidad.colsubsidio@colsubsidio.com", "TelefonoSede": "7420100 EXT 71301", "ClasePrestadorDesc": "Instituciones Prestadoras de Servicios de Salud - IPS", "FechaCorte": "Fecha corte REPS: Jul 4 2023 1:19PM", "address_geocoding": "CARRERA 16 BIS # 8 - 24 Local 1 y 2, PEREIRA, Risaralda, COLOMBIA", "status": "OK", "latitude": 4.804874, "longitude": -75.6855402 }, "geometry": { "type": "Point", "coordinates": [ -75.6855402, 4.804874 ] } },
{ "type": "Feature", "properties": { "CodigoPrestador": 6600102601, "primary_hc": "x", "NombrePrestador": "VIRREY SOLIS IPS. S.A", "CodigoHabilitacionSede": 660010000000.0, "NombreSede": "VIRREY SOLIS IPS S.A. PINARES", "TipoIdentificacion": "NI", "NumeroIdentificacion": 800003765, "NaturalezaJuridica": "Privada", "ESE": null, "MunicipioPrestador": 66001, "DepartamentoPrestadorDesc": "Risaralda", "MunicipioPrestadorDesc": "PEREIRA", "DireccionPrestador": "AVENIDA 30 DE AGOSTO # 40 - 51", "EmailPrestador": "calidad@virreysolisips.com.co", "TelefonoPrestador": "3139900", "MunicipioSede": 66001, "DepartamentoSedeDesc": "Risaralda", "MunicipioSedeDesc": "PEREIRA", "DireccionSede": "CLL 12 # 18-24 T 3, P 0 LOCAL 015 MEGACENTRO PINARES", "EmailSede": "calidad@virreysolisips.com.co", "TelefonoSede": "3210876", "ClasePrestadorDesc": "Instituciones Prestadoras de Servicios de Salud - IPS", "FechaCorte": "Fecha corte REPS: Jul 4 2023 1:19PM", "address_geocoding": "CLL 12 # 18-24 T 3, P 0 LOCAL 015 MEGACENTRO PINARES, PEREIRA, Risaralda, COLOMBIA", "status": "OK", "latitude": 4.8040904, "longitude": -75.6897384 }, "geometry": { "type": "Point", "coordinates": [ -75.6897384, 4.8040904 ] } },
{ "type": "Feature", "properties": { "CodigoPrestador": 6600102601, "primary_hc": "x", "NombrePrestador": "VIRREY SOLIS IPS. S.A", "CodigoHabilitacionSede": 660010000000.0, "NombreSede": "VIRREY SOLIS IPS SA - LAGO", "TipoIdentificacion": "NI", "NumeroIdentificacion": 800003765, "NaturalezaJuridica": "Privada", "ESE": null, "MunicipioPrestador": 66001, "DepartamentoPrestadorDesc": "Risaralda", "MunicipioPrestadorDesc": "PEREIRA", "DireccionPrestador": "AVENIDA 30 DE AGOSTO # 40 - 51", "EmailPrestador": "calidad@virreysolisips.com.co", "TelefonoPrestador": "3139900", "MunicipioSede": 66001, "DepartamentoSedeDesc": "Risaralda", "MunicipioSedeDesc": "PEREIRA", "DireccionSede": "CARRERA 8 Nro 24 - 59", "EmailSede": "calidad@virreysolisips.com.co", "TelefonoSede": "3330392", "ClasePrestadorDesc": "Instituciones Prestadoras de Servicios de Salud - IPS", "FechaCorte": "Fecha corte REPS: Jul 4 2023 1:19PM", "address_geocoding": "CARRERA 8 Nro 24 - 59, PEREIRA, Risaralda, COLOMBIA", "status": "OK", "latitude": 4.8142231, "longitude": -75.6989747 }, "geometry": { "type": "Point", "coordinates": [ -75.6989747, 4.8142231 ] } },
{ "type": "Feature", "properties": { "CodigoPrestador": 6600102601, "primary_hc": "x", "NombrePrestador": "VIRREY SOLIS IPS. S.A", "CodigoHabilitacionSede": 660010000000.0, "NombreSede": "VIRREY SOLIS IPS SA UOD-SAN NICOLAS", "TipoIdentificacion": "NI", "NumeroIdentificacion": 800003765, "NaturalezaJuridica": "Privada", "ESE": null, "MunicipioPrestador": 66001, "DepartamentoPrestadorDesc": "Risaralda", "MunicipioPrestadorDesc": "PEREIRA", "DireccionPrestador": "AVENIDA 30 DE AGOSTO # 40 - 51", "EmailPrestador": "calidad@virreysolisips.com.co", "TelefonoPrestador": "3139900", "MunicipioSede": 66001, "DepartamentoSedeDesc": "Risaralda", "MunicipioSedeDesc": "PEREIRA", "DireccionSede": "AVENIDA 30 DE AGOSTO NRO. 30-07 PISO-1", "EmailSede": "calidad@virreysolisips.com.co", "TelefonoSede": "3139900 EXT. 230", "ClasePrestadorDesc": "Instituciones Prestadoras de Servicios de Salud - IPS", "FechaCorte": "Fecha corte REPS: Jul 4 2023 1:19PM", "address_geocoding": "AVENIDA 30 DE AGOSTO NRO. 30-07 PISO-1, PEREIRA, Risaralda, COLOMBIA", "status": "OK", "latitude": 4.8110397, "longitude": -75.7040135 }, "geometry": { "type": "Point", "coordinates": [ -75.7040135, 4.8110397 ] } },
{ "type": "Feature", "properties": { "CodigoPrestador": 6600102601, "primary_hc": "x", "NombrePrestador": "VIRREY SOLIS IPS. S.A", "CodigoHabilitacionSede": 660010000000.0, "NombreSede": "VIRREY SOLIS IPS SA ALPES", "TipoIdentificacion": "NI", "NumeroIdentificacion": 800003765, "NaturalezaJuridica": "Privada", "ESE": null, "MunicipioPrestador": 66001, "DepartamentoPrestadorDesc": "Risaralda", "MunicipioPrestadorDesc": "PEREIRA", "DireccionPrestador": "AVENIDA 30 DE AGOSTO # 40 - 51", "EmailPrestador": "calidad@virreysolisips.com.co", "TelefonoPrestador": "3139900", "MunicipioSede": 66001, "DepartamentoSedeDesc": "Risaralda", "MunicipioSedeDesc": "PEREIRA", "DireccionSede": "CARRERA 14 BIS # 10 05 LOCAL 2A", "EmailSede": "calidad@virreysolisips.com.co", "TelefonoSede": "3419093", "ClasePrestadorDesc": "Instituciones Prestadoras de Servicios de Salud - IPS", "FechaCorte": "Fecha corte REPS: Jul 4 2023 1:19PM", "address_geocoding": "CARRERA 14 BIS # 10 05 LOCAL 2A, PEREIRA, Risaralda, COLOMBIA", "status": "OK", "latitude": 4.8075485, "longitude": -75.6874344 }, "geometry": { "type": "Point", "coordinates": [ -75.6874344, 4.8075485 ] } },
{ "type": "Feature", "properties": { "CodigoPrestador": 6600102601, "primary_hc": "x", "NombrePrestador": "VIRREY SOLIS IPS. S.A", "CodigoHabilitacionSede": 660010000000.0, "NombreSede": "VIRREY SOLIS IPS SA LA REBECA", "TipoIdentificacion": "NI", "NumeroIdentificacion": 800003765, "NaturalezaJuridica": "Privada", "ESE": null, "MunicipioPrestador": 66001, "DepartamentoPrestadorDesc": "Risaralda", "MunicipioPrestadorDesc": "PEREIRA", "DireccionPrestador": "AVENIDA 30 DE AGOSTO # 40 - 51", "EmailPrestador": "calidad@virreysolisips.com.co", "TelefonoPrestador": "3139900", "MunicipioSede": 66001, "DepartamentoSedeDesc": "Risaralda", "MunicipioSedeDesc": "PEREIRA", "DireccionSede": "CARRERA 12 No. 2 B - 17", "EmailSede": "calidad@virreysolisips.com.co", "TelefonoSede": "6063419167", "ClasePrestadorDesc": "Instituciones Prestadoras de Servicios de Salud - IPS", "FechaCorte": "Fecha corte REPS: Jul 4 2023 1:19PM", "address_geocoding": "CARRERA 12 No. 2 B - 17, PEREIRA, Risaralda, COLOMBIA", "status": "OK", "latitude": 4.8088009, "longitude": -75.6810751 }, "geometry": { "type": "Point", "coordinates": [ -75.6810751, 4.8088009 ] } },
{ "type": "Feature", "properties": { "CodigoPrestador": 6600102681, "primary_hc": "x", "NombrePrestador": "IPS PRO RED SALUD INTEGRAL S.A.S", "CodigoHabilitacionSede": 660010000000.0, "NombreSede": "IPS PRO RED SALUD INTEGRAL S.A.S", "TipoIdentificacion": "NI", "NumeroIdentificacion": 901267760, "NaturalezaJuridica": "Privada", "ESE": null, "MunicipioPrestador": 66001, "DepartamentoPrestadorDesc": "Risaralda", "MunicipioPrestadorDesc": "PEREIRA", "DireccionPrestador": "Cra 13 Bis No. 32-17", "EmailPrestador": "gerencia@proredsaludintegral.co", "TelefonoPrestador": "3225956170-3166739", "MunicipioSede": 66001, "DepartamentoSedeDesc": "Risaralda", "MunicipioSedeDesc": "PEREIRA", "DireccionSede": "Cra 13 bis No. 32-17", "EmailSede": "calidad@proredsaludintegral.co", "TelefonoSede": "3225956170-3166739", "ClasePrestadorDesc": "Instituciones Prestadoras de Servicios de Salud - IPS", "FechaCorte": "Fecha corte REPS: Jul 4 2023 1:19PM", "address_geocoding": "Cra 13 bis No. 32-17, PEREIRA, Risaralda, COLOMBIA", "status": "OK", "latitude": 4.8101594, "longitude": -75.6974076 }, "geometry": { "type": "Point", "coordinates": [ -75.6974076, 4.8101594 ] } }
]
}
