{
"type": "FeatureCollection",
"name": "healthcare_facilities_general",
"crs": { "type": "name", "properties": { "name": "urn:ogc:def:crs:OGC:1.3:CRS84" } },
"features": [
{ "type": "Feature", "properties": { "Region": "Greater Accra", "District": "Accra Metropolitan", "FacilityName": "Arakan Medical Centre", "Type": "Clinic", "Town": "Burma Camp", "Ownership": "Quasi-Government", "Latitude": 5.59714, "Longitude": -0.15088 }, "geometry": { "type": "Point", "coordinates": [ -0.15088, 5.59714 ] } },
{ "type": "Feature", "properties": { "Region": "Greater Accra", "District": "Ga East", "FacilityName": "Abokobi Health Centre", "Type": "Health Centre", "Town": "Abokobi", "Ownership": "Government", "Latitude": 5.7345, "Longitude": -0.20296 }, "geometry": { "type": "Point", "coordinates": [ -0.20296, 5.7345 ] } },
{ "type": "Feature", "properties": { "Region": "Greater Accra", "District": "Accra Metropolitan", "FacilityName": "Adjabeng Leprosy Clinic", "Type": "Clinic", "Town": "Adjabeng", "Ownership": "Government", "Latitude": 5.55234, "Longitude": -0.2115 }, "geometry": { "type": "Point", "coordinates": [ -0.2115, 5.55234 ] } },
{ "type": "Feature", "properties": { "Region": "Greater Accra", "District": "Accra Metropolitan", "FacilityName": "Airport Clinic Ltd", "Type": "Clinic", "Town": "Airport", "Ownership": "Government", "Latitude": 5.60399, "Longitude": -0.1722 }, "geometry": { "type": "Point", "coordinates": [ -0.1722, 5.60399 ] } },
{ "type": "Feature", "properties": { "Region": "Greater Accra", "District": "Ga East", "FacilityName": "Amasaman Health Centre", "Type": "Health Centre", "Town": "Amasaman", "Ownership": "Government", "Latitude": 5.70185, "Longitude": -0.29998 }, "geometry": { "type": "Point", "coordinates": [ -0.29998, 5.70185 ] } },
{ "type": "Feature", "properties": { "Region": "Greater Accra", "District": "Tema Metropolitan", "FacilityName": "Ashaiman Health Centre", "Type": "Health Centre", "Town": "Ashaiman", "Ownership": "Government", "Latitude": 5.68576, "Longitude": -0.03945 }, "geometry": { "type": "Point", "coordinates": [ -0.03945, 5.68576 ] } },
{ "type": "Feature", "properties": { "Region": "Greater Accra", "District": "Accra Metropolitan", "FacilityName": "Bank of Ghana Clinic", "Type": "Clinic", "Town": "Ridge", "Ownership": "Quasi-Government", "Latitude": 5.56584, "Longitude": -0.19736 }, "geometry": { "type": "Point", "coordinates": [ -0.19736, 5.56584 ] } },
{ "type": "Feature", "properties": { "Region": "Greater Accra", "District": "Accra Metropolitan", "FacilityName": "Beach Community Clinic (Ga Mantse Community Clinic)", "Type": "Clinic", "Town": "James Town", "Ownership": "Government", "Latitude": 5.53312, "Longitude": -0.21164 }, "geometry": { "type": "Point", "coordinates": [ -0.21164, 5.53312 ] } },
{ "type": "Feature", "properties": { "Region": "Greater Accra", "District": "Ga West", "FacilityName": "CDH Weija Clinic", "Type": "Clinic", "Town": "Marcathy Hill Junction", "Ownership": "Government", "Latitude": 5.5656, "Longitude": -0.28957 }, "geometry": { "type": "Point", "coordinates": [ -0.28957, 5.5656 ] } },
{ "type": "Feature", "properties": { "Region": "Greater Accra", "District": "Tema Metropolitan", "FacilityName": "Cocoa Processing Clinic", "Type": "Clinic", "Town": "Tema Heavy Industrial Town", "Ownership": "Quasi-Government", "Latitude": 5.65744, "Longitude": 0.00246 }, "geometry": { "type": "Point", "coordinates": [ 0.00246, 5.65744 ] } },
{ "type": "Feature", "properties": { "Region": "Greater Accra", "District": "Tema Metropolitan", "FacilityName": "Crocodile Matchette Clinic", "Type": "Clinic", "Town": "Tema", "Ownership": "Quasi-Government", "Latitude": 5.66642, "Longitude": -0.00032 }, "geometry": { "type": "Point", "coordinates": [ -0.00032, 5.66642 ] } },
{ "type": "Feature", "properties": { "Region": "Greater Accra", "District": "Ga East", "FacilityName": "Danfa Health Centre", "Type": "Health Centre", "Town": "Danfa", "Ownership": "Government", "Latitude": 5.78942, "Longitude": -0.15948 }, "geometry": { "type": "Point", "coordinates": [ -0.15948, 5.78942 ] } },
{ "type": "Feature", "properties": { "Region": "Greater Accra", "District": "Accra Metropolitan", "FacilityName": "Dansoman Health Centre", "Type": "Clinic", "Town": "Dansoman", "Ownership": "Government", "Latitude": 5.56125, "Longitude": -0.26 }, "geometry": { "type": "Point", "coordinates": [ -0.26, 5.56125 ] } },
{ "type": "Feature", "properties": { "Region": "Greater Accra", "District": "Dangme West", "FacilityName": "Dawhenya  Clinic", "Type": "Clinic", "Town": "Dawhenya", "Ownership": "Government", "Latitude": 5.76708, "Longitude": 0.05434 }, "geometry": { "type": "Point", "coordinates": [ 0.05434, 5.76708 ] } },
{ "type": "Feature", "properties": { "Region": "Greater Accra", "District": "Accra Metropolitan", "FacilityName": "Duala Medical Centre", "Type": "Clinic", "Town": "Burma Camp", "Ownership": "Quasi-Government", "Latitude": 5.58805, "Longitude": -0.15001 }, "geometry": { "type": "Point", "coordinates": [ -0.15001, 5.58805 ] } },
{ "type": "Feature", "properties": { "Region": "Greater Accra", "District": "Ga East", "FacilityName": "Ghana Atomic Energy Commission Clinic", "Type": "Clinic", "Town": "Atomic", "Ownership": "Quasi-Government", "Latitude": 5.66854, "Longitude": -0.23162 }, "geometry": { "type": "Point", "coordinates": [ -0.23162, 5.66854 ] } },
{ "type": "Feature", "properties": { "Region": "Greater Accra", "District": "Accra Metropolitan", "FacilityName": "Ghana Police Clinic", "Type": "Clinic", "Town": "37 Licencing Office", "Ownership": "Quasi-Government", "Latitude": 5.59374, "Longitude": -0.17854 }, "geometry": { "type": "Point", "coordinates": [ -0.17854, 5.59374 ] } },
{ "type": "Feature", "properties": { "Region": "Greater Accra", "District": "Accra Metropolitan", "FacilityName": "Gimpa Clinic", "Type": "Clinic", "Town": "Greenhill", "Ownership": "Quasi-Government", "Latitude": 5.63633, "Longitude": -0.20028 }, "geometry": { "type": "Point", "coordinates": [ -0.20028, 5.63633 ] } },
{ "type": "Feature", "properties": { "Region": "Greater Accra", "District": "Tema Metropolitan", "FacilityName": "GPHA Main Clinic", "Type": "Clinic", "Town": "Tema Community 2", "Ownership": "Quasi-Government", "Latitude": 5.63276, "Longitude": -0.00654 }, "geometry": { "type": "Point", "coordinates": [ -0.00654, 5.63276 ] } },
{ "type": "Feature", "properties": { "Region": "Greater Accra", "District": "Accra Metropolitan", "FacilityName": "James Camp Borstral Clinic", "Type": "Clinic", "Town": "Roman Ridge", "Ownership": "Quasi-Government", "Latitude": 5.60807, "Longitude": -0.19085 }, "geometry": { "type": "Point", "coordinates": [ -0.19085, 5.60807 ] } },
{ "type": "Feature", "properties": { "Region": "Greater Accra", "District": "Accra Metropolitan", "FacilityName": "James Fort Prison's Clinic", "Type": "Clinic", "Town": "James Town", "Ownership": "Quasi-Government", "Latitude": 5.53423, "Longitude": -0.21111 }, "geometry": { "type": "Point", "coordinates": [ -0.21111, 5.53423 ] } },
{ "type": "Feature", "properties": { "Region": "Greater Accra", "District": "Tema Metropolitan", "FacilityName": "Kpone Health Centre", "Type": "Health Centre", "Town": "Kpone", "Ownership": "Government", "Latitude": 5.69206, "Longitude": 0.05842 }, "geometry": { "type": "Point", "coordinates": [ 0.05842, 5.69206 ] } },
{ "type": "Feature", "properties": { "Region": "Greater Accra", "District": "Accra Metropolitan", "FacilityName": "Kaneshie School Clinic", "Type": "Clinic", "Town": "Kaneshie", "Ownership": "Government", "Latitude": 5.57281, "Longitude": -0.23295 }, "geometry": { "type": "Point", "coordinates": [ -0.23295, 5.57281 ] } },
{ "type": "Feature", "properties": { "Region": "Greater Accra", "District": "Ga West", "FacilityName": "Kokrobite Community Clinic", "Type": "Clinic", "Town": "Kokrobite", "Ownership": "Government", "Latitude": 5.50179, "Longitude": -0.37017 }, "geometry": { "type": "Point", "coordinates": [ -0.37017, 5.50179 ] } },
{ "type": "Feature", "properties": { "Region": "Greater Accra", "District": "Tema Metropolitan", "FacilityName": "Lube Oil Clinic", "Type": "Clinic", "Town": "Tema Heavy Industrial Town", "Ownership": "Quasi-Government", "Latitude": 5.65042, "Longitude": 0.00836 }, "geometry": { "type": "Point", "coordinates": [ 0.00836, 5.65042 ] } },
{ "type": "Feature", "properties": { "Region": "Greater Accra", "District": "Ga East", "FacilityName": "Madina RCH Clinic (near Market)", "Type": "Clinic", "Town": "Madina (Old road)", "Ownership": "Government", "Latitude": 5.6788, "Longitude": -0.16751 }, "geometry": { "type": "Point", "coordinates": [ -0.16751, 5.6788 ] } },
{ "type": "Feature", "properties": { "Region": "Greater Accra", "District": "Accra Metropolitan", "FacilityName": "Makola Government Clinic", "Type": "Clinic", "Town": "Makola", "Ownership": "Government", "Latitude": 5.54857, "Longitude": -0.20599 }, "geometry": { "type": "Point", "coordinates": [ -0.20599, 5.54857 ] } },
{ "type": "Feature", "properties": { "Region": "Greater Accra", "District": "Accra Metropolitan", "FacilityName": "Mallam Atta Market Clinic", "Type": "Clinic", "Town": "Mallam Atta", "Ownership": "Government", "Latitude": 5.57872, "Longitude": -0.20832 }, "geometry": { "type": "Point", "coordinates": [ -0.20832, 5.57872 ] } },
{ "type": "Feature", "properties": { "Region": "Greater Accra", "District": "Ga West", "FacilityName": "Mallam Demonstration Clinic", "Type": "Clinic", "Town": "Mallam", "Ownership": "Government", "Latitude": 5.57781, "Longitude": -0.29942 }, "geometry": { "type": "Point", "coordinates": [ -0.29942, 5.57781 ] } },
{ "type": "Feature", "properties": { "Region": "Greater Accra", "District": "Ga West", "FacilityName": "Mamprobi School Dental Clinic", "Type": "Clinic", "Town": "Mamprobi (salvation army schls)", "Ownership": "Government", "Latitude": 5.54138, "Longitude": -0.24118 }, "geometry": { "type": "Point", "coordinates": [ -0.24118, 5.54138 ] } },
{ "type": "Feature", "properties": { "Region": "Greater Accra", "District": "Tema Metropolitan", "FacilityName": "Nestle Clinic", "Type": "Clinic", "Town": "Tema", "Ownership": "Quasi-Government", "Latitude": 5.67518, "Longitude": -0.00305 }, "geometry": { "type": "Point", "coordinates": [ -0.00305, 5.67518 ] } },
{ "type": "Feature", "properties": { "Region": "Greater Accra", "District": "Accra Metropolitan", "FacilityName": "New Town School Dental Clinic", "Type": "Clinic", "Town": "New Town ( school compound)", "Ownership": "Government", "Latitude": 5.58552, "Longitude": -0.21001 }, "geometry": { "type": "Point", "coordinates": [ -0.21001, 5.58552 ] } },
{ "type": "Feature", "properties": { "Region": "Greater Accra", "District": "Ga West", "FacilityName": "Ngleshie Amanfro Community Health Centre", "Type": "Clinic", "Town": "Ngleshie Amamfrom", "Ownership": "Government", "Latitude": 5.53638, "Longitude": -0.41126 }, "geometry": { "type": "Point", "coordinates": [ -0.41126, 5.53638 ] } },
{ "type": "Feature", "properties": { "Region": "Greater Accra", "District": "Accra Metropolitan", "FacilityName": "Nima Government Clinic", "Type": "Clinic", "Town": "Nima", "Ownership": "Government", "Latitude": 5.57771, "Longitude": -0.20008 }, "geometry": { "type": "Point", "coordinates": [ -0.20008, 5.57771 ] } },
{ "type": "Feature", "properties": { "Region": "Greater Accra", "District": "Accra Metropolitan", "FacilityName": "Nungua Community Clinic", "Type": "Clinic", "Town": "Nungua", "Ownership": "Government", "Latitude": 5.5974, "Longitude": -0.07896 }, "geometry": { "type": "Point", "coordinates": [ -0.07896, 5.5974 ] } },
{ "type": "Feature", "properties": { "Region": "Greater Accra", "District": "Tema Metropolitan", "FacilityName": "Port Health", "Type": "clinic", "Town": "Tema", "Ownership": "Government", "Latitude": 5.63433, "Longitude": 0.00461 }, "geometry": { "type": "Point", "coordinates": [ 0.00461, 5.63433 ] } },
{ "type": "Feature", "properties": { "Region": "Greater Accra", "District": "Accra Metropolitan", "FacilityName": "Opec Clinic (Teshie Health Centre)", "Type": "Clinic", "Town": "Teshie", "Ownership": "Government", "Latitude": 5.6021, "Longitude": -0.11996 }, "geometry": { "type": "Point", "coordinates": [ -0.11996, 5.6021 ] } },
{ "type": "Feature", "properties": { "Region": "Greater Accra", "District": "Ga West", "FacilityName": "Oduman Health Centre", "Type": "Health Centre", "Town": "Oduman", "Ownership": "Government", "Latitude": 5.64171, "Longitude": -0.33028 }, "geometry": { "type": "Point", "coordinates": [ -0.33028, 5.64171 ] } },
{ "type": "Feature", "properties": { "Region": "Greater Accra", "District": "Accra Metropolitan", "FacilityName": "Parliament Clinic", "Type": "Clinic", "Town": "Osu", "Ownership": "Government", "Latitude": 5.55668, "Longitude": -0.19011 }, "geometry": { "type": "Point", "coordinates": [ -0.19011, 5.55668 ] } },
{ "type": "Feature", "properties": { "Region": "Greater Accra", "District": "Tema Metropolitan", "FacilityName": "Tema Naval Base Clinic", "Type": "Clinic", "Town": "Tema New Town", "Ownership": "Quasi-Government", "Latitude": 5.64838, "Longitude": 0.02257 }, "geometry": { "type": "Point", "coordinates": [ 0.02257, 5.64838 ] } },
{ "type": "Feature", "properties": { "Region": "Greater Accra", "District": "Tema Metropolitan", "FacilityName": "SSNIT Clinic", "Type": "Clinic", "Town": "Tema Community 2", "Ownership": "Quasi-Government", "Latitude": 5.6333, "Longitude": -0.01261 }, "geometry": { "type": "Point", "coordinates": [ -0.01261, 5.6333 ] } },
{ "type": "Feature", "properties": { "Region": "Greater Accra", "District": "Tema Metropolitan", "FacilityName": "Stadium Clinic", "Type": "Clinic", "Town": "Osu", "Ownership": "Government", "Latitude": 5.55119, "Longitude": -0.19382 }, "geometry": { "type": "Point", "coordinates": [ -0.19382, 5.55119 ] } },
{ "type": "Feature", "properties": { "Region": "Greater Accra", "District": "Tema Metropolitan", "FacilityName": "Tema Manhean Health Centre", "Type": "Health Centre", "Town": "Tema Manhean", "Ownership": "Government", "Latitude": 5.64783, "Longitude": 0.02428 }, "geometry": { "type": "Point", "coordinates": [ 0.02428, 5.64783 ] } },
{ "type": "Feature", "properties": { "Region": "Greater Accra", "District": "Tema Metropolitan", "FacilityName": "Tema Oil Refinary Clinic", "Type": "Clinic", "Town": "Tema Heavy Industrial Town", "Ownership": "Quasi-Government", "Latitude": 5.66575, "Longitude": 0.00578 }, "geometry": { "type": "Point", "coordinates": [ 0.00578, 5.66575 ] } },
{ "type": "Feature", "properties": { "Region": "Greater Accra", "District": "Accra Metropolitan", "FacilityName": "Teshie Community Clinic", "Type": "Clinic", "Town": "Teshie", "Ownership": "Government", "Latitude": 5.57696, "Longitude": -0.10644 }, "geometry": { "type": "Point", "coordinates": [ -0.10644, 5.57696 ] } },
{ "type": "Feature", "properties": { "Region": "Greater Accra", "District": "Tema Metropolitan", "FacilityName": "The Achimota Clinic", "Type": "Clinic", "Town": "Mile 7 (New Achimota)", "Ownership": "Government", "Latitude": 5.6293, "Longitude": -0.24781 }, "geometry": { "type": "Point", "coordinates": [ -0.24781, 5.6293 ] } },
{ "type": "Feature", "properties": { "Region": "Greater Accra", "District": "Accra Metropolitan", "FacilityName": "TUC Clinic", "Type": "Clinic", "Town": "Adabraka", "Ownership": "government", "Latitude": 5.5555, "Longitude": -0.20495 }, "geometry": { "type": "Point", "coordinates": [ -0.20495, 5.5555 ] } },
{ "type": "Feature", "properties": { "Region": "Greater Accra", "District": "Accra Metropolitan", "FacilityName": "VRA Clinic", "Type": "Clinic", "Town": "Osu", "Ownership": "Quasi-Government", "Latitude": 5.55437, "Longitude": -0.18078 }, "geometry": { "type": "Point", "coordinates": [ -0.18078, 5.55437 ] } },
{ "type": "Feature", "properties": { "Region": "Greater Accra", "District": "Accra Metropolitan", "FacilityName": "James Camp Borstral Clinic", "Type": "Clinic", "Town": "Roman Ridge", "Ownership": "Quasi-Government", "Latitude": 5.580728, "Longitude": -0.210467 }, "geometry": { "type": "Point", "coordinates": [ -0.210467, 5.580728 ] } },
{ "type": "Feature", "properties": { "Region": "Greater Accra", "District": "Accra Metropolitan", "FacilityName": "Civil Service Clinic", "Type": "Clinic", "Town": "Osu", "Ownership": "Government", "Latitude": 5.580728, "Longitude": -0.210467 }, "geometry": { "type": "Point", "coordinates": [ -0.210467, 5.580728 ] } },
{ "type": "Feature", "properties": { "Region": "Greater Accra", "District": "Accra Metropolitan", "FacilityName": "Fire Medical Centre", "Type": "Clinic", "Town": "James Town", "Ownership": "Government", "Latitude": 5.580728, "Longitude": -0.210467 }, "geometry": { "type": "Point", "coordinates": [ -0.210467, 5.580728 ] } },
{ "type": "Feature", "properties": { "Region": "Greater Accra", "District": "Ga East", "FacilityName": "Madina Health Centre", "Type": "Clinic", "Town": "Madina (New Road)", "Ownership": "Government", "Latitude": 5.708873, "Longitude": -0.2432307 }, "geometry": { "type": "Point", "coordinates": [ -0.2432307, 5.708873 ] } },
{ "type": "Feature", "properties": { "Region": "Greater Accra", "District": "Ga East", "FacilityName": "Taifa CHPS", "Type": "Clinic", "Town": "Taifa", "Ownership": "Government", "Latitude": 5.708873, "Longitude": -0.2432307 }, "geometry": { "type": "Point", "coordinates": [ -0.2432307, 5.708873 ] } }
]
}
