{
"type": "FeatureCollection",
"name": "healthcare_facilities_general_pasto",
"crs": { "type": "name", "properties": { "name": "urn:ogc:def:crs:OGC:1.3:CRS84" } },
"features": [
{ "type": "Feature", "properties": { "CodigoPrestador": 5200100852, "primary_hc": "?", "NombrePrestador": "FUNDACION SOCIAL GUADALUPE", "CodigoHabilitacionSede": 520010000000.0, "NombreSede": "FUNDACION SOCIAL GUADALUPE", "TipoIdentificacion": "NI", "NumeroIdentificacion": 800085459, "NaturalezaJuridica": "Privada", "ESE": null, "MunicipioPrestador": 52001, "DepartamentoPrestadorDesc": "Narino", "MunicipioPrestadorDesc": "PASTO", "DireccionPrestador": "CALLE 18 No 13-33", "MunicipioSede": 52001, "DepartamentoSedeDesc": "Narino", "MunicipioSedeDesc": "PASTO", "DireccionSede": "CALLE 18 No 13-33", "EmailSede": "funguadalupe@hotmail.com", "TelefonoSede": "7214698", "ClasePrestadorDesc": "Instituciones Prestadoras de Servicios de Salud - IPS", "FechaCorte": "Fecha corte REPS: Jul 4 2023 1:19PM", "address_geocoding": "CALLE 18 No 13-33, PASTO, Narino, COLOMBIA", "status": "OK", "latitude": 1.2036839, "longitude": -77.2742283 }, "geometry": { "type": "Point", "coordinates": [ -77.2742283, 1.2036839 ] } },
{ "type": "Feature", "properties": { "CodigoPrestador": 5200101012, "primary_hc": "x", "NombrePrestador": "CENTRO MEDICO VALLE DE ATRIZ E.U.", "CodigoHabilitacionSede": 520010000000.0, "NombreSede": "CENTRO MEDICO VALLE DE ATRIZ E.U.", "TipoIdentificacion": "NI", "NumeroIdentificacion": 830504400, "NaturalezaJuridica": "Privada", "ESE": "NO", "MunicipioPrestador": 52001, "DepartamentoPrestadorDesc": "Narino", "MunicipioPrestadorDesc": "PASTO", "DireccionPrestador": "CL 16 No. 29-63", "MunicipioSede": 52001, "DepartamentoSedeDesc": "Narino", "MunicipioSedeDesc": "PASTO", "DireccionSede": "CL 16 No. 29-63", "EmailSede": "cordinacionmedicacmva@gmail.com", "TelefonoSede": "7317026", "ClasePrestadorDesc": "Instituciones Prestadoras de Servicios de Salud - IPS", "FechaCorte": "Fecha corte REPS: Jul 4 2023 1:19PM", "address_geocoding": "CL 16 No. 29-63, PASTO, Narino, COLOMBIA", "status": "OK", "latitude": 1.2174859, "longitude": -77.2828397 }, "geometry": { "type": "Point", "coordinates": [ -77.2828397, 1.2174859 ] } },
{ "type": "Feature", "properties": { "CodigoPrestador": 5200101213, "primary_hc": "x", "NombrePrestador": "COOPERATIVA DE SERVICIOS INTEGRALES DE SALUD RED MEDICRON IPS", "CodigoHabilitacionSede": 520010000000.0, "NombreSede": "RED MEDICRON IPS - AURORA", "TipoIdentificacion": "NI", "NumeroIdentificacion": 900077584, "NaturalezaJuridica": "Privada", "ESE": null, "MunicipioPrestador": 52001, "DepartamentoPrestadorDesc": "Narino", "MunicipioPrestadorDesc": "PASTO", "DireccionPrestador": "Carrera 29 No 12a-15 San Ignacio", "MunicipioSede": 52001, "DepartamentoSedeDesc": "Narino", "MunicipioSedeDesc": "PASTO", "DireccionSede": "CALLE 11 No 29-27", "EmailSede": "notificaciones@redmedicronips.com", "TelefonoSede": "3184155017 - 7236180 - 7336030", "ClasePrestadorDesc": "Instituciones Prestadoras de Servicios de Salud - IPS", "FechaCorte": "Fecha corte REPS: Jul 4 2023 1:19PM", "address_geocoding": "CALLE 11 No 29-27, PASTO, N arin o, C OLOMBI A", "status": "OK", "latitude": 1.213969, "longitude": -77.286651 }, "geometry": { "type": "Point", "coordinates": [ -77.286651, 1.213969 ] } },
{ "type": "Feature", "properties": { "CodigoPrestador": 5200101213, "primary_hc": "x", "NombrePrestador": "COOPERATIVA DE SERVICIOS INTEGRALES DE SALUD RED MEDICRON IPS", "CodigoHabilitacionSede": 520010000000.0, "NombreSede": "RED MEDICRON IPS - PARQUE BOLIVAR", "TipoIdentificacion": "NI", "NumeroIdentificacion": 900077584, "NaturalezaJuridica": "Privada", "ESE": null, "MunicipioPrestador": 52001, "DepartamentoPrestadorDesc": "Narino", "MunicipioPrestadorDesc": "PASTO", "DireccionPrestador": "Carrera 29 No 12a-15 San Ignacio", "MunicipioSede": 52001, "DepartamentoSedeDesc": "Narino", "MunicipioSedeDesc": "PASTO", "DireccionSede": "CALLE 22 No 11-30", "EmailSede": "notificaciones@redmedicronips.com", "TelefonoSede": "31222582989 - 3234899467 - 7236180 - 7336030", "ClasePrestadorDesc": "Instituciones Prestadoras de Servicios de Salud - IPS", "FechaCorte": "Fecha corte REPS: Jul 4 2023 1:19PM", "address_geocoding": "CALLE 22 No 1 1-30, PASTO, N arino , COLOM BIA", "status": "OK", "latitude": 1.2048013, "longitude": -77.2605536 }, "geometry": { "type": "Point", "coordinates": [ -77.2605536, 1.2048013 ] } },
{ "type": "Feature", "properties": { "CodigoPrestador": 5200101213, "primary_hc": "x", "NombrePrestador": "COOPERATIVA DE SERVICIOS INTEGRALES DE SALUD RED MEDICRON IPS", "CodigoHabilitacionSede": 520010000000.0, "NombreSede": "RED MEDICRON IPS - UNIDAD DE TERAPIAS FATIMA", "TipoIdentificacion": "NI", "NumeroIdentificacion": 900077584, "NaturalezaJuridica": "Privada", "ESE": null, "MunicipioPrestador": 52001, "DepartamentoPrestadorDesc": "Narino", "MunicipioPrestadorDesc": "PASTO", "DireccionPrestador": "Carrera 29 No 12a-15 San Ignacio", "MunicipioSede": 52001, "DepartamentoSedeDesc": "Narino", "MunicipioSedeDesc": "PASTO", "DireccionSede": "CALLE 20 N¬∞ 11-40", "EmailSede": "notificaciones@redmedicronips.com", "TelefonoSede": "3226928259 - 7236180", "ClasePrestadorDesc": "Instituciones Prestadoras de Servicios de Salud - IPS", "FechaCorte": "Fecha corte REPS: Jul 4 2023 1:19PM", "address_geocoding": "CALLE 20 N¬∞ 11-4 0, P ASTO , Nari no, COLO MBIA\" ", "status": "OK", "latitude": 1.2184254, "longitude": -77.2785652 }, "geometry": { "type": "Point", "coordinates": [ -77.2785652, 1.2184254 ] } },
{ "type": "Feature", "properties": { "CodigoPrestador": 5200101213, "primary_hc": "x", "NombrePrestador": "COOPERATIVA DE SERVICIOS INTEGRALES DE SALUD RED MEDICRON IPS", "CodigoHabilitacionSede": 520010000000.0, "NombreSede": "RED MEDICRON IPS - OBRERO", "TipoIdentificacion": "NI", "NumeroIdentificacion": 900077584, "NaturalezaJuridica": "Privada", "ESE": null, "MunicipioPrestador": 52001, "DepartamentoPrestadorDesc": "Narino", "MunicipioPrestadorDesc": "PASTO", "DireccionPrestador": "Carrera 29 No 12a-15 San Ignacio", "MunicipioSede": 52001, "DepartamentoSedeDesc": "Narino", "MunicipioSedeDesc": "PASTO", "DireccionSede": "CRA 26 #9-23", "EmailSede": "notificaciones@redmedicronips.com", "TelefonoSede": "3232890214 - 3232890212 - 7236180 - 7336030", "ClasePrestadorDesc": "Instituciones Prestadoras de Servicios de Salud - IPS", "FechaCorte": "Fecha corte REPS: Jul 4 2023 1:19PM", "address_geocoding": "CRA 26 #9-23, PASTO , Na rino , COLO MBIA", "status": "OK", "latitude": 1.2123441, "longitude": -77.2861458 }, "geometry": { "type": "Point", "coordinates": [ -77.2861458, 1.2123441 ] } },
{ "type": "Feature", "properties": { "CodigoPrestador": 5200101213, "primary_hc": "x", "NombrePrestador": "COOPERATIVA DE SERVICIOS INTEGRALES DE SALUD RED MEDICRON IPS", "CodigoHabilitacionSede": 520010000000.0, "NombreSede": "RED MEDICRON IPS - LORENZO", "TipoIdentificacion": "NI", "NumeroIdentificacion": 900077584, "NaturalezaJuridica": "Privada", "ESE": null, "MunicipioPrestador": 52001, "DepartamentoPrestadorDesc": "Narino", "MunicipioPrestadorDesc": "PASTO", "DireccionPrestador": "Carrera 29 No 12a-15 San Ignacio", "MunicipioSede": 52001, "DepartamentoSedeDesc": "Narino", "MunicipioSedeDesc": "PASTO", "DireccionSede": "CALLE 18 No 3E-24", "EmailSede": "notificaciones@redmedicronips.com.co", "TelefonoSede": "7304078", "ClasePrestadorDesc": "Instituciones Prestadoras de Servicios de Salud - IPS", "FechaCorte": "Fecha corte REPS: Jul 4 2023 1:19PM", "address_geocoding": "CALLE 18 No 3E-24, PASTO, Narino, COLOMBIA", "status": "OK", "latitude": 1.1974655, "longitude": -77.2645867 }, "geometry": { "type": "Point", "coordinates": [ -77.2645867, 1.1974655 ] } },
{ "type": "Feature", "properties": { "CodigoPrestador": 5200101267, "primary_hc": "?", "NombrePrestador": "CEDIT DEL SUR SAS", "CodigoHabilitacionSede": 520010000000.0, "NombreSede": "CEDIT DEL SUR LTDA", "TipoIdentificacion": "NI", "NumeroIdentificacion": 900091644, "NaturalezaJuridica": "Privada", "ESE": "NO", "MunicipioPrestador": 52001, "DepartamentoPrestadorDesc": "Narino", "MunicipioPrestadorDesc": "PASTO", "DireccionPrestador": "KR 24 # 14-21 esquina", "MunicipioSede": 52001, "DepartamentoSedeDesc": "Narino", "MunicipioSedeDesc": "PASTO", "DireccionSede": "KR 24 # 14-21 esquina", "EmailSede": "gerencia@ceditdelsur.com", "TelefonoSede": "7419271", "ClasePrestadorDesc": "Instituciones Prestadoras de Servicios de Salud - IPS", "FechaCorte": "Fecha corte REPS: Jul 4 2023 1:19PM", "address_geocoding": "KR 24 # 14-21 esquina, PASTO, Narino, COLOMBIA", "status": "OK", "latitude": 1.2126797, "longitude": -77.2817664 }, "geometry": { "type": "Point", "coordinates": [ -77.2817664, 1.2126797 ] } },
{ "type": "Feature", "properties": { "CodigoPrestador": 5200101457, "primary_hc": "x", "NombrePrestador": "EMPRESA SOCIAL DEL ESTADO PASTO SALUD E.S.E.", "CodigoHabilitacionSede": 520010000000.0, "NombreSede": "HOSPITAL LOCAL CIVIL", "TipoIdentificacion": "NI", "NumeroIdentificacion": 900091143, "NaturalezaJuridica": "P√∫blica", "ESE": "SI", "MunicipioPrestador": 52001, "DepartamentoPrestadorDesc": "Narino", "MunicipioPrestadorDesc": "PASTO", "DireccionPrestador": "KR 20 # 19 B 22", "MunicipioSede": 52001, "DepartamentoSedeDesc": "Narino", "MunicipioSedeDesc": "PASTO", "DireccionSede": "CARRERA 24 No 29-50", "EmailSede": "donorte@pastosaludese.gov.co", "TelefonoSede": "7213912", "ClasePrestadorDesc": "Instituciones Prestadoras de Servicios de Salud - IPS", "FechaCorte": "Fecha corte REPS: Jul 4 2023 1:19PM", "address_geocoding": "CARRERA 24 No 29-50, PASTO, Narino, COLOMBIA", "status": "OK", "latitude": 1.2199732, "longitude": -77.26844 }, "geometry": { "type": "Point", "coordinates": [ -77.26844, 1.2199732 ] } },
{ "type": "Feature", "properties": { "CodigoPrestador": 5200101457, "primary_hc": "x", "NombrePrestador": "EMPRESA SOCIAL DEL ESTADO PASTO SALUD E.S.E.", "CodigoHabilitacionSede": 520010000000.0, "NombreSede": "CENTRO DE SALUD PANDIACO", "TipoIdentificacion": "NI", "NumeroIdentificacion": 900091143, "NaturalezaJuridica": "P√∫blica", "ESE": "SI", "MunicipioPrestador": 52001, "DepartamentoPrestadorDesc": "Narino", "MunicipioPrestadorDesc": "PASTO", "DireccionPrestador": "KR 20 # 19 B 22", "MunicipioSede": 52001, "DepartamentoSedeDesc": "Narino", "MunicipioSedeDesc": "PASTO", "DireccionSede": "CALLE 19 CARRERA 44 ESQUINA", "EmailSede": "donorte@pastosaludese.gov.co", "TelefonoSede": "7313040", "ClasePrestadorDesc": "Instituciones Prestadoras de Servicios de Salud - IPS", "FechaCorte": "Fecha corte REPS: Jul 4 2023 1:19PM", "address_geocoding": "CALLE 19 CARRERA 44 ESQUINA, PASTO, Narino, COLOMBIA", "status": "OK", "latitude": 1.230543, "longitude": -77.2880328 }, "geometry": { "type": "Point", "coordinates": [ -77.2880328, 1.230543 ] } },
{ "type": "Feature", "properties": { "CodigoPrestador": 5200101457, "primary_hc": "x", "NombrePrestador": "EMPRESA SOCIAL DEL ESTADO PASTO SALUD E.S.E.", "CodigoHabilitacionSede": 520010000000.0, "NombreSede": "CENTRO DE SALUD BUESAQUILLO", "TipoIdentificacion": "NI", "NumeroIdentificacion": 900091143, "NaturalezaJuridica": "P√∫blica", "ESE": "SI", "MunicipioPrestador": 52001, "DepartamentoPrestadorDesc": "Narino", "MunicipioPrestadorDesc": "PASTO", "DireccionPrestador": "KR 20 # 19 B 22", "MunicipioSede": 52001, "DepartamentoSedeDesc": "Narino", "MunicipioSedeDesc": "PASTO", "DireccionSede": "CORREGIMIENTO BUESAQUILLO", "EmailSede": "donorte@pastosaludese.gov.co", "TelefonoSede": "7201372", "ClasePrestadorDesc": "Instituciones Prestadoras de Servicios de Salud - IPS", "FechaCorte": "Fecha corte REPS: Jul 4 2023 1:19PM", "address_geocoding": "CORREGIMIENTO BUESAQUILLO, PASTO, Narino, COLOMBIA", "status": "OK", "latitude": 1.21081, "longitude": -77.24011 }, "geometry": { "type": "Point", "coordinates": [ -77.24011, 1.21081 ] } },
{ "type": "Feature", "properties": { "CodigoPrestador": 5200101457, "primary_hc": "x", "NombrePrestador": "EMPRESA SOCIAL DEL ESTADO PASTO SALUD E.S.E.", "CodigoHabilitacionSede": 520010000000.0, "NombreSede": "CENTRO DE SALUD MORASURCO", "TipoIdentificacion": "NI", "NumeroIdentificacion": 900091143, "NaturalezaJuridica": "P√∫blica", "ESE": "SI", "MunicipioPrestador": 52001, "DepartamentoPrestadorDesc": "Narino", "MunicipioPrestadorDesc": "PASTO", "DireccionPrestador": "KR 20 # 19 B 22", "MunicipioSede": 52001, "DepartamentoSedeDesc": "Narino", "MunicipioSedeDesc": "PASTO", "DireccionSede": "CORREGIMIENTO DE MORASURCO", "EmailSede": "donorte@pastosaludese.gov.co", "TelefonoSede": "7201372", "ClasePrestadorDesc": "Instituciones Prestadoras de Servicios de Salud - IPS", "FechaCorte": "Fecha corte REPS: Jul 4 2023 1:19PM", "address_geocoding": "CORREGIMIENTO DE MORASURCO, PASTO, Narino, COLOMBIA", "status": "OK", "latitude": 1.2312625, "longitude": -77.2842734 }, "geometry": { "type": "Point", "coordinates": [ -77.2842734, 1.2312625 ] } },
{ "type": "Feature", "properties": { "CodigoPrestador": 5200101457, "primary_hc": "x", "NombrePrestador": "EMPRESA SOCIAL DEL ESTADO PASTO SALUD E.S.E.", "CodigoHabilitacionSede": 520010000000.0, "NombreSede": "CENTRO DE SALUD EL ROSARIO", "TipoIdentificacion": "NI", "NumeroIdentificacion": 900091143, "NaturalezaJuridica": "P√∫blica", "ESE": "SI", "MunicipioPrestador": 52001, "DepartamentoPrestadorDesc": "Narino", "MunicipioPrestadorDesc": "PASTO", "DireccionPrestador": "KR 20 # 19 B 22", "MunicipioSede": 52001, "DepartamentoSedeDesc": "Narino", "MunicipioSedeDesc": "PASTO", "DireccionSede": "VEREDA EL ROSARIO", "EmailSede": "dooriente@pastosaludese.gov.co", "TelefonoSede": "7325742", "ClasePrestadorDesc": "Instituciones Prestadoras de Servicios de Salud - IPS", "FechaCorte": "Fecha corte REPS: Jul 4 2023 1:19PM", "address_geocoding": "VEREDA EL ROSARIO, PASTO, Narino, COLOMBIA", "status": "OK", "latitude": 1.1898394, "longitude": -77.2624574 }, "geometry": { "type": "Point", "coordinates": [ -77.2624574, 1.1898394 ] } },
{ "type": "Feature", "properties": { "CodigoPrestador": 5200101457, "primary_hc": "x", "NombrePrestador": "EMPRESA SOCIAL DEL ESTADO PASTO SALUD E.S.E.", "CodigoHabilitacionSede": 520010000000.0, "NombreSede": "CENTRO DE SALUD LA LAGUNA", "TipoIdentificacion": "NI", "NumeroIdentificacion": 900091143, "NaturalezaJuridica": "P√∫blica", "ESE": "SI", "MunicipioPrestador": 52001, "DepartamentoPrestadorDesc": "Narino", "MunicipioPrestadorDesc": "PASTO", "DireccionPrestador": "KR 20 # 19 B 22", "MunicipioSede": 52001, "DepartamentoSedeDesc": "Narino", "MunicipioSedeDesc": "PASTO", "DireccionSede": "VEREDA LA LAGUNA", "EmailSede": "dooriente@pastosaludese.gov.co", "TelefonoSede": "7232942", "ClasePrestadorDesc": "Instituciones Prestadoras de Servicios de Salud - IPS", "FechaCorte": "Fecha corte REPS: Jul 4 2023 1:19PM", "address_geocoding": "VEREDA LA LAGUNA, PASTO, Narino, COLOMBIA", "status": "OK", "latitude": 1.1991826, "longitude": -77.2337649 }, "geometry": { "type": "Point", "coordinates": [ -77.2337649, 1.1991826 ] } },
{ "type": "Feature", "properties": { "CodigoPrestador": 5200101457, "primary_hc": "x", "NombrePrestador": "EMPRESA SOCIAL DEL ESTADO PASTO SALUD E.S.E.", "CodigoHabilitacionSede": 520010000000.0, "NombreSede": "CENTRO DE SALUD CABRERA", "TipoIdentificacion": "NI", "NumeroIdentificacion": 900091143, "NaturalezaJuridica": "P√∫blica", "ESE": "SI", "MunicipioPrestador": 52001, "DepartamentoPrestadorDesc": "Narino", "MunicipioPrestadorDesc": "PASTO", "DireccionPrestador": "KR 20 # 19 B 22", "MunicipioSede": 52001, "DepartamentoSedeDesc": "Narino", "MunicipioSedeDesc": "PASTO", "DireccionSede": "CORREGIMIENTO DE CABRERA", "EmailSede": "dooriente@pastosaludese.gov.co", "TelefonoSede": "7233343", "ClasePrestadorDesc": "Instituciones Prestadoras de Servicios de Salud - IPS", "FechaCorte": "Fecha corte REPS: Jul 4 2023 1:19PM", "address_geocoding": "CORREGIMIENTO DE CABRERA, PASTO, Narino, COLOMBIA", "status": "OK", "latitude": 1.2058837, "longitude": -77.285787 }, "geometry": { "type": "Point", "coordinates": [ -77.285787, 1.2058837 ] } },
{ "type": "Feature", "properties": { "CodigoPrestador": 5200101457, "primary_hc": "x", "NombrePrestador": "EMPRESA SOCIAL DEL ESTADO PASTO SALUD E.S.E.", "CodigoHabilitacionSede": 520010000000.0, "NombreSede": "CENTRO DE SALUD EL PROGRESO", "TipoIdentificacion": "NI", "NumeroIdentificacion": 900091143, "NaturalezaJuridica": "P√∫blica", "ESE": "SI", "MunicipioPrestador": 52001, "DepartamentoPrestadorDesc": "Narino", "MunicipioPrestadorDesc": "PASTO", "DireccionPrestador": "KR 20 # 19 B 22", "MunicipioSede": 52001, "DepartamentoSedeDesc": "Narino", "MunicipioSedeDesc": "PASTO", "DireccionSede": "CARRERA 9 No. 16-170", "EmailSede": "dosur@pastosaludese.gov.co", "TelefonoSede": "7207199", "ClasePrestadorDesc": "Instituciones Prestadoras de Servicios de Salud - IPS", "FechaCorte": "Fecha corte REPS: Jul 4 2023 1:19PM", "address_geocoding": "CARRERA 9 No. 16-170, PASTO, Narino, COLOMBIA", "status": "OK", "latitude": 1.1994186, "longitude": -77.2726625 }, "geometry": { "type": "Point", "coordinates": [ -77.2726625, 1.1994186 ] } },
{ "type": "Feature", "properties": { "CodigoPrestador": 5200101457, "primary_hc": "x", "NombrePrestador": "EMPRESA SOCIAL DEL ESTADO PASTO SALUD E.S.E.", "CodigoHabilitacionSede": 520010000000.0, "NombreSede": "CENTRO DE SALUD CATAMBUCO", "TipoIdentificacion": "NI", "NumeroIdentificacion": 900091143, "NaturalezaJuridica": "P√∫blica", "ESE": "SI", "MunicipioPrestador": 52001, "DepartamentoPrestadorDesc": "Narino", "MunicipioPrestadorDesc": "PASTO", "DireccionPrestador": "KR 20 # 19 B 22", "MunicipioSede": 52001, "DepartamentoSedeDesc": "Narino", "MunicipioSedeDesc": "PASTO", "DireccionSede": "CORREGIMIENTO DE CATAMBUCO", "EmailSede": "dosur@pastosaludese.gov.co", "TelefonoSede": "7217717", "ClasePrestadorDesc": "Instituciones Prestadoras de Servicios de Salud - IPS", "FechaCorte": "Fecha corte REPS: Jul 4 2023 1:19PM", "address_geocoding": "CORREGIMIENTO DE CATAMBUCO, PASTO, Narino, COLOMBIA", "status": "OK", "latitude": 1.2059168, "longitude": -77.2857624 }, "geometry": { "type": "Point", "coordinates": [ -77.2857624, 1.2059168 ] } },
{ "type": "Feature", "properties": { "CodigoPrestador": 5200101457, "primary_hc": "x", "NombrePrestador": "EMPRESA SOCIAL DEL ESTADO PASTO SALUD E.S.E.", "CodigoHabilitacionSede": 520010000000.0, "NombreSede": "CENTRO DE SALUD SANTA BARBARA", "TipoIdentificacion": "NI", "NumeroIdentificacion": 900091143, "NaturalezaJuridica": "P√∫blica", "ESE": "SI", "MunicipioPrestador": 52001, "DepartamentoPrestadorDesc": "Narino", "MunicipioPrestadorDesc": "PASTO", "DireccionPrestador": "KR 20 # 19 B 22", "MunicipioSede": 52001, "DepartamentoSedeDesc": "Narino", "MunicipioSedeDesc": "PASTO", "DireccionSede": "CALLE 3 No. 2-85 CORREGIMIENTO DE SANTA BARBARA", "EmailSede": "dosur@pastosaludese.gov.co", "TelefonoSede": "RADIO TELEFONO", "ClasePrestadorDesc": "Instituciones Prestadoras de Servicios de Salud - IPS", "FechaCorte": "Fecha corte REPS: Jul 4 2023 1:19PM", "address_geocoding": "CALLE 3 No. 2-85 CORREGIMIENTO DE SANTA BARBARA, P ASTO , Na rino, COLOMBIA ", "status": "OK", "latitude": 1.2005624, "longitude": -77.2645004 }, "geometry": { "type": "Point", "coordinates": [ -77.2645004, 1.2005624 ] } },
{ "type": "Feature", "properties": { "CodigoPrestador": 5200101457, "primary_hc": "x", "NombrePrestador": "EMPRESA SOCIAL DEL ESTADO PASTO SALUD E.S.E.", "CodigoHabilitacionSede": 520010000000.0, "NombreSede": "CENTRO DE SALUD GUALMATAN", "TipoIdentificacion": "NI", "NumeroIdentificacion": 900091143, "NaturalezaJuridica": "P√∫blica", "ESE": "SI", "MunicipioPrestador": 52001, "DepartamentoPrestadorDesc": "Narino", "MunicipioPrestadorDesc": "PASTO", "DireccionPrestador": "KR 20 # 19 B 22", "MunicipioSede": 52001, "DepartamentoSedeDesc": "Narino", "MunicipioSedeDesc": "PASTO", "DireccionSede": "CORREGIMIENTO DE GUALMATAN", "EmailSede": "dosur@pastosaludese.gov.co", "TelefonoSede": "7201372", "ClasePrestadorDesc": "Instituciones Prestadoras de Servicios de Salud - IPS", "FechaCorte": "Fecha corte REPS: Jul 4 2023 1:19PM", "address_geocoding": "CORREGIMIENTO DE GUALMATAN, PASTO, Narino, COLOMBIA", "status": "OK", "latitude": 1.1759479, "longitude": -77.3141992 }, "geometry": { "type": "Point", "coordinates": [ -77.3141992, 1.1759479 ] } },
{ "type": "Feature", "properties": { "CodigoPrestador": 5200101457, "primary_hc": "x", "NombrePrestador": "EMPRESA SOCIAL DEL ESTADO PASTO SALUD E.S.E.", "CodigoHabilitacionSede": 520010000000.0, "NombreSede": "CENTRO DE SALUD TAMASAGRA", "TipoIdentificacion": "NI", "NumeroIdentificacion": 900091143, "NaturalezaJuridica": "P√∫blica", "ESE": "SI", "MunicipioPrestador": 52001, "DepartamentoPrestadorDesc": "Narino", "MunicipioPrestadorDesc": "PASTO", "DireccionPrestador": "KR 20 # 19 B 22", "MunicipioSede": 52001, "DepartamentoSedeDesc": "Narino", "MunicipioSedeDesc": "PASTO", "DireccionSede": "CALLE 8 F No 22 B - 95", "EmailSede": "dooccidente@pastosaludese.gov.co", "TelefonoSede": "7223463", "ClasePrestadorDesc": "Instituciones Prestadoras de Servicios de Salud - IPS", "FechaCorte": "Fecha corte REPS: Jul 4 2023 1:19PM", "address_geocoding": "CALLE 8 F No 22 B - 95, PASTO, Narino, COLOMBIA", "status": "OK", "latitude": 1.2074279, "longitude": -77.2850023 }, "geometry": { "type": "Point", "coordinates": [ -77.2850023, 1.2074279 ] } },
{ "type": "Feature", "properties": { "CodigoPrestador": 5200101457, "primary_hc": "x", "NombrePrestador": "EMPRESA SOCIAL DEL ESTADO PASTO SALUD E.S.E.", "CodigoHabilitacionSede": 520010000000.0, "NombreSede": "CENTRO DE SALUD SAN VICENTE", "TipoIdentificacion": "NI", "NumeroIdentificacion": 900091143, "NaturalezaJuridica": "P√∫blica", "ESE": "SI", "MunicipioPrestador": 52001, "DepartamentoPrestadorDesc": "Narino", "MunicipioPrestadorDesc": "PASTO", "DireccionPrestador": "KR 20 # 19 B 22", "MunicipioSede": 52001, "DepartamentoSedeDesc": "Narino", "MunicipioSedeDesc": "PASTO", "DireccionSede": "CARRERA 35 No. 6 A 45", "EmailSede": "dooccidente@pastosaludese.gov.co", "TelefonoSede": "7230132", "ClasePrestadorDesc": "Instituciones Prestadoras de Servicios de Salud - IPS", "FechaCorte": "Fecha corte REPS: Jul 4 2023 1:19PM", "address_geocoding": "CARRERA 35 No. 6 A 45, PASTO, Narino, COLOMBIA", "status": "OK", "latitude": 1.2165336, "longitude": -77.2923564 }, "geometry": { "type": "Point", "coordinates": [ -77.2923564, 1.2165336 ] } },
{ "type": "Feature", "properties": { "CodigoPrestador": 5200101457, "primary_hc": "x", "NombrePrestador": "EMPRESA SOCIAL DEL ESTADO PASTO SALUD E.S.E.", "CodigoHabilitacionSede": 520010000000.0, "NombreSede": "CENTRO DE SALUD OBONUCO", "TipoIdentificacion": "NI", "NumeroIdentificacion": 900091143, "NaturalezaJuridica": "P√∫blica", "ESE": "SI", "MunicipioPrestador": 52001, "DepartamentoPrestadorDesc": "Narino", "MunicipioPrestadorDesc": "PASTO", "DireccionPrestador": "KR 20 # 19 B 22", "MunicipioSede": 52001, "DepartamentoSedeDesc": "Narino", "MunicipioSedeDesc": "PASTO", "DireccionSede": "CORREMIENTO DE OBONUCO", "EmailSede": "dooccidente@pastosaludese.gov.co", "TelefonoSede": "7334295", "ClasePrestadorDesc": "Instituciones Prestadoras de Servicios de Salud - IPS", "FechaCorte": "Fecha corte REPS: Jul 4 2023 1:19PM", "address_geocoding": "CORREMIENTO DE OBONUCO, PASTO, Narino, COLOMBIA", "status": "OK", "latitude": 1.2035376, "longitude": -77.2923401 }, "geometry": { "type": "Point", "coordinates": [ -77.2923401, 1.2035376 ] } },
{ "type": "Feature", "properties": { "CodigoPrestador": 5200101457, "primary_hc": "x", "NombrePrestador": "EMPRESA SOCIAL DEL ESTADO PASTO SALUD E.S.E.", "CodigoHabilitacionSede": 520010000000.0, "NombreSede": "PUESTO DE SALUD LA CALDERA", "TipoIdentificacion": "NI", "NumeroIdentificacion": 900091143, "NaturalezaJuridica": "P√∫blica", "ESE": "SI", "MunicipioPrestador": 52001, "DepartamentoPrestadorDesc": "Narino", "MunicipioPrestadorDesc": "PASTO", "DireccionPrestador": "KR 20 # 19 B 22", "MunicipioSede": 52001, "DepartamentoSedeDesc": "Narino", "MunicipioSedeDesc": "PASTO", "DireccionSede": "LA CALDERA", "EmailSede": "dooccidente@pastosaludese.gov.co", "TelefonoSede": "7313851", "ClasePrestadorDesc": "Instituciones Prestadoras de Servicios de Salud - IPS", "FechaCorte": "Fecha corte REPS: Jul 4 2023 1:19PM", "address_geocoding": "LA CALDERA, PASTO, Narino, COLOMBIA", "status": "OK", "latitude": 1.2192444, "longitude": -77.2778958 }, "geometry": { "type": "Point", "coordinates": [ -77.2778958, 1.2192444 ] } },
{ "type": "Feature", "properties": { "CodigoPrestador": 5200101517, "primary_hc": "x", "NombrePrestador": "IPS KINESIS SAS", "CodigoHabilitacionSede": 520010000000.0, "NombreSede": "IPS KINESIS", "TipoIdentificacion": "NI", "NumeroIdentificacion": 900197094, "NaturalezaJuridica": "Privada", "ESE": "NO", "MunicipioPrestador": 52001, "DepartamentoPrestadorDesc": "Narino", "MunicipioPrestadorDesc": "PASTO", "DireccionPrestador": "CALLE 22 No. 9 - 86 PARQUE BOLIVAR", "MunicipioSede": 52001, "DepartamentoSedeDesc": "Narino", "MunicipioSedeDesc": "PASTO", "DireccionSede": "CALLE 22 No. 9 - 86", "EmailSede": "informacion@ipskinesis.com", "TelefonoSede": "7218522", "ClasePrestadorDesc": "Instituciones Prestadoras de Servicios de Salud - IPS", "FechaCorte": "Fecha corte REPS: Jul 4 2023 1:19PM", "address_geocoding": "CALLE 22 No. 9 - 86, PASTO, Narino, COLOMBIA", "status": "OK", "latitude": 1.2071859, "longitude": -77.2718204 }, "geometry": { "type": "Point", "coordinates": [ -77.2718204, 1.2071859 ] } },
{ "type": "Feature", "properties": { "CodigoPrestador": 5200101517, "primary_hc": "x", "NombrePrestador": "IPS KINESIS SAS", "CodigoHabilitacionSede": 520010000000.0, "NombreSede": "IPS KINESIS - LA AURORA", "TipoIdentificacion": "NI", "NumeroIdentificacion": 900197094, "NaturalezaJuridica": "Privada", "ESE": "NO", "MunicipioPrestador": 52001, "DepartamentoPrestadorDesc": "Narino", "MunicipioPrestadorDesc": "PASTO", "DireccionPrestador": "CALLE 22 No. 9 - 86 PARQUE BOLIVAR", "MunicipioSede": 52001, "DepartamentoSedeDesc": "Narino", "MunicipioSedeDesc": "PASTO", "DireccionSede": "CALLE 12 N¬∫ 32 58 PISO 2", "EmailSede": "informacion@ipskinesis.com", "TelefonoSede": "7218522", "ClasePrestadorDesc": "Instituciones Prestadoras de Servicios de Salud - IPS", "FechaCorte": "Fecha corte REPS: Jul 4 2023 1:19PM", "address_geocoding": "CALLE 12 N¬∫ 32 58 PISO 2, PASTO, Narino, COLOMBIA", "status": "OK", "latitude": 1.2161578, "longitude": -77.2870259 }, "geometry": { "type": "Point", "coordinates": [ -77.2870259, 1.2161578 ] } },
{ "type": "Feature", "properties": { "CodigoPrestador": 5200101781, "primary_hc": "?", "NombrePrestador": "SIES SALUD PASTO", "CodigoHabilitacionSede": 520010000000.0, "NombreSede": "SIES SALUD PASTO", "TipoIdentificacion": "NI", "NumeroIdentificacion": 900123436, "NaturalezaJuridica": "Privada", "ESE": null, "MunicipioPrestador": 52001, "DepartamentoPrestadorDesc": "Narino", "MunicipioPrestadorDesc": "PASTO", "DireccionPrestador": "KR 32 ¬∑ 16A- 31/35", "MunicipioSede": 52001, "DepartamentoSedeDesc": "Narino", "MunicipioSedeDesc": "PASTO", "DireccionSede": "KR 32 N¬∞ 16 A 31/35", "EmailSede": "garantia_delacalidad@sies.com.co", "TelefonoSede": "3228670569", "ClasePrestadorDesc": "Instituciones Prestadoras de Servicios de Salud - IPS", "FechaCorte": "Fecha corte REPS: Jul 4 2023 1:19PM", "address_geocoding": "KR 32 N¬∞ 16 A 31/35, PASTO, Narino, COLOMBIA", "status": "OK", "latitude": 1.2195299, "longitude": -77.2836363 }, "geometry": { "type": "Point", "coordinates": [ -77.2836363, 1.2195299 ] } },
{ "type": "Feature", "properties": { "CodigoPrestador": 5200101809, "primary_hc": "x", "NombrePrestador": "IPS DOMICILIARIA S.A.S.", "CodigoHabilitacionSede": 520010000000.0, "NombreSede": "IPS DOMICILIARIA S.A.S.", "TipoIdentificacion": "NI", "NumeroIdentificacion": 900278648, "NaturalezaJuridica": "Privada", "ESE": null, "MunicipioPrestador": 52001, "DepartamentoPrestadorDesc": "Narino", "MunicipioPrestadorDesc": "PASTO", "DireccionPrestador": "CARRERA 38 N¬∞ 18 90", "MunicipioSede": 52001, "DepartamentoSedeDesc": "Narino", "MunicipioSedeDesc": "PASTO", "DireccionSede": "CARRERA 38 N¬∞ 18 90", "EmailSede": "guerraglor@yahoo.es", "TelefonoSede": "3148797815", "ClasePrestadorDesc": "Instituciones Prestadoras de Servicios de Salud - IPS", "FechaCorte": "Fecha corte REPS: Jul 4 2023 1:19PM", "address_geocoding": "CARRERA 38 N¬∞ 18 90, PASTO, Narino, COLOMBIA", "status": "OK", "latitude": 1.2257603, "longitude": -77.2847407 }, "geometry": { "type": "Point", "coordinates": [ -77.2847407, 1.2257603 ] } },
{ "type": "Feature", "properties": { "CodigoPrestador": 5200101822, "primary_hc": "x", "NombrePrestador": "IPS ISALUD TOTAL S.A.S", "CodigoHabilitacionSede": 520010000000.0, "NombreSede": "IPS ISALUD TOTAL S.A.S", "TipoIdentificacion": "NI", "NumeroIdentificacion": 900409913, "NaturalezaJuridica": "Privada", "ESE": null, "MunicipioPrestador": 52001, "DepartamentoPrestadorDesc": "Narino", "MunicipioPrestadorDesc": "PASTO", "DireccionPrestador": "CALLE 2 SUR No 22-44 BARRIO BACHUE", "MunicipioSede": 52001, "DepartamentoSedeDesc": "Narino", "MunicipioSedeDesc": "PASTO", "DireccionSede": "CALLE 2 SUR No 22-44", "EmailSede": "ipsisaludtotalsas@hotmail.com", "TelefonoSede": "7294106", "ClasePrestadorDesc": "Instituciones Prestadoras de Servicios de Salud - IPS", "FechaCorte": "Fecha corte REPS: Jul 4 2023 1:19PM", "address_geocoding": "CALLE 2 SUR No 22-44, PASTO, Narino, COLOMBIA", "status": "OK", "latitude": 1.204242, "longitude": -77.285396 }, "geometry": { "type": "Point", "coordinates": [ -77.285396, 1.204242 ] } },
{ "type": "Feature", "properties": { "CodigoPrestador": 5200101825, "primary_hc": "x", "NombrePrestador": "SALUD VIDA IPS S.A.S.", "CodigoHabilitacionSede": 520010000000.0, "NombreSede": "SALUD VIDA IPS S.A.S.", "TipoIdentificacion": "NI", "NumeroIdentificacion": 900410267, "NaturalezaJuridica": "Privada", "ESE": null, "MunicipioPrestador": 52001, "DepartamentoPrestadorDesc": "Narino", "MunicipioPrestadorDesc": "PASTO", "DireccionPrestador": "CALLE 19 No. 14 A 05", "MunicipioSede": 52001, "DepartamentoSedeDesc": "Narino", "MunicipioSedeDesc": "PASTO", "DireccionSede": "CALLE 19 No. 14 A 05", "EmailSede": "ipssaludvida@hotmail.com", "TelefonoSede": "7362254", "ClasePrestadorDesc": "Instituciones Prestadoras de Servicios de Salud - IPS", "FechaCorte": "Fecha corte REPS: Jul 4 2023 1:19PM", "address_geocoding": "CALLE 19 No. 14 A 05, PASTO, Narino, COLOMBIA", "status": "OK", "latitude": 1.205347, "longitude": -77.273583 }, "geometry": { "type": "Point", "coordinates": [ -77.273583, 1.205347 ] } },
{ "type": "Feature", "properties": { "CodigoPrestador": 5200101878, "primary_hc": "x", "NombrePrestador": "AHARA IPS Y HOME CARE SAS", "CodigoHabilitacionSede": 520010000000.0, "NombreSede": "AHARA IPS", "TipoIdentificacion": "NI", "NumeroIdentificacion": 900452452, "NaturalezaJuridica": "Privada", "ESE": null, "MunicipioPrestador": 52001, "DepartamentoPrestadorDesc": "Narino", "MunicipioPrestadorDesc": "PASTO", "DireccionPrestador": "CALLE 20 # 34- 34 AVENIDA DE LOS ESTUDIANTES", "MunicipioSede": 52001, "DepartamentoSedeDesc": "Narino", "MunicipioSedeDesc": "PASTO", "DireccionSede": "CALLE 20 # 34-34", "EmailSede": "aharahomecare@hotmail.com", "TelefonoSede": "7209468-3188277921", "ClasePrestadorDesc": "Instituciones Prestadoras de Servicios de Salud - IPS", "FechaCorte": "Fecha corte REPS: Jul 4 2023 1:19PM", "address_geocoding": "CALLE 20 # 34-34, PASTO, Narino, COLOMBIA", "status": "OK", "latitude": 1.2255026, "longitude": -77.2816222 }, "geometry": { "type": "Point", "coordinates": [ -77.2816222, 1.2255026 ] } },
{ "type": "Feature", "properties": { "CodigoPrestador": 5200102042, "primary_hc": "x", "NombrePrestador": "IPS PROTEGEMOS SALUD Y BIENESTAR SAS", "CodigoHabilitacionSede": 520010000000.0, "NombreSede": "ips protegemos salud y bienestar sas", "TipoIdentificacion": "NI", "NumeroIdentificacion": 900589666, "NaturalezaJuridica": "Privada", "ESE": null, "MunicipioPrestador": 52001, "DepartamentoPrestadorDesc": "Narino", "MunicipioPrestadorDesc": "PASTO", "DireccionPrestador": "cra 35 a No.20-10", "MunicipioSede": 52001, "DepartamentoSedeDesc": "Narino", "MunicipioSedeDesc": "PASTO", "DireccionSede": "cra 35 a No.20-10 centro medico la Riviera", "EmailSede": "calidadipsprotegemos@gmail.com", "TelefonoSede": "7317085", "ClasePrestadorDesc": "Instituciones Prestadoras de Servicios de Salud - IPS", "FechaCorte": "Fecha corte REPS: Jul 4 2023 1:19PM", "address_geocoding": "cra 35 a No.20-10 centro medico la Riviera, PASTO, Narino , CO LOMB IA", "status": "OK", "latitude": 1.2262681, "longitude": -77.2819462 }, "geometry": { "type": "Point", "coordinates": [ -77.2819462, 1.2262681 ] } },
{ "type": "Feature", "properties": { "CodigoPrestador": 5200102042, "primary_hc": "x", "NombrePrestador": "IPS PROTEGEMOS SALUD Y BIENESTAR SAS", "CodigoHabilitacionSede": 520010000000.0, "NombreSede": "IPS PROTEGEMOS SALUD Y BIENESTAR CENTRO MEDICO LA CASONA", "TipoIdentificacion": "NI", "NumeroIdentificacion": 900589666, "NaturalezaJuridica": "Privada", "ESE": null, "MunicipioPrestador": 52001, "DepartamentoPrestadorDesc": "Narino", "MunicipioPrestadorDesc": "PASTO", "DireccionPrestador": "cra 35 a No.20-10", "MunicipioSede": 52001, "DepartamentoSedeDesc": "Narino", "MunicipioSedeDesc": "PASTO", "DireccionSede": "Cra. 25 No. 16-37", "EmailSede": "calidadipsprotegemos@gmail.com", "TelefonoSede": "7374240", "ClasePrestadorDesc": "Instituciones Prestadoras de Servicios de Salud - IPS", "FechaCorte": "Fecha corte REPS: Jul 4 2023 1:19PM", "address_geocoding": "Cra. 25 No. 16-37, PASTO, Narino, COLOMBIA", "status": "OK", "latitude": 1.214502, "longitude": -77.280194 }, "geometry": { "type": "Point", "coordinates": [ -77.280194, 1.214502 ] } },
{ "type": "Feature", "properties": { "CodigoPrestador": 5200102045, "primary_hc": "x", "NombrePrestador": "IPSSANFELIPE", "CodigoHabilitacionSede": 520010000000.0, "NombreSede": "IPS San Felipe", "TipoIdentificacion": "NI", "NumeroIdentificacion": 900544001, "NaturalezaJuridica": "Privada", "ESE": null, "MunicipioPrestador": 52001, "DepartamentoPrestadorDesc": "Narino", "MunicipioPrestadorDesc": "PASTO", "DireccionPrestador": "CALLE 16 NO 29 37", "MunicipioSede": 52001, "DepartamentoSedeDesc": "Narino", "MunicipioSedeDesc": "PASTO", "DireccionSede": "CALLE 11 A # 29-43", "EmailSede": "ipssanfelipe.sas@gmail.com", "TelefonoSede": "7214514", "ClasePrestadorDesc": "Instituciones Prestadoras de Servicios de Salud - IPS", "FechaCorte": "Fecha corte REPS: Jul 4 2023 1:19PM", "address_geocoding": "CALLE 11 A # 29-43, PASTO, Narino, COLOMBIA", "status": "OK", "latitude": 1.2144918, "longitude": -77.2863351 }, "geometry": { "type": "Point", "coordinates": [ -77.2863351, 1.2144918 ] } },
{ "type": "Feature", "properties": { "CodigoPrestador": 5200102112, "primary_hc": "x", "NombrePrestador": "ips san miguel sas", "CodigoHabilitacionSede": 520010000000.0, "NombreSede": "ips san miguel sas", "TipoIdentificacion": "NI", "NumeroIdentificacion": 900661857, "NaturalezaJuridica": "Privada", "ESE": null, "MunicipioPrestador": 52001, "DepartamentoPrestadorDesc": "Narino", "MunicipioPrestadorDesc": "PASTO", "DireccionPrestador": "CARRERA 31 # 20-13", "MunicipioSede": 52001, "DepartamentoSedeDesc": "Narino", "MunicipioSedeDesc": "PASTO", "DireccionSede": "CARRERA 31 # 20-13", "EmailSede": "gerenciaipssanmiguel@gmail.com", "TelefonoSede": "3108905638", "ClasePrestadorDesc": "Instituciones Prestadoras de Servicios de Salud - IPS", "FechaCorte": "Fecha corte REPS: Jul 4 2023 1:19PM", "address_geocoding": "CARRERA 31 # 20-13, PASTO, Narino, COLOMBIA", "status": "OK", "latitude": 1.2207845, "longitude": -77.2793171 }, "geometry": { "type": "Point", "coordinates": [ -77.2793171, 1.2207845 ] } },
{ "type": "Feature", "properties": { "CodigoPrestador": 5200102256, "primary_hc": "x", "NombrePrestador": "CENTRO MEDICO PABON SAS", "CodigoHabilitacionSede": 520010000000.0, "NombreSede": "CENTRO MEDICO PABON SAS", "TipoIdentificacion": "NI", "NumeroIdentificacion": 900801035, "NaturalezaJuridica": "Privada", "ESE": null, "MunicipioPrestador": 52001, "DepartamentoPrestadorDesc": "Narino", "MunicipioPrestadorDesc": "PASTO", "DireccionPrestador": "CARRERA 33 - 12 A - 44 PISO 3 BARRIO LA AURORA", "MunicipioSede": 52001, "DepartamentoSedeDesc": "Narino", "MunicipioSedeDesc": "PASTO", "DireccionSede": "CARRERA 33 NO. 12A-44 PISO 3", "EmailSede": "centromedicopabon@gmail.com", "TelefonoSede": "7316102", "ClasePrestadorDesc": "Instituciones Prestadoras de Servicios de Salud - IPS", "FechaCorte": "Fecha corte REPS: Jul 4 2023 1:19PM", "address_geocoding": "CARRERA 33 NO. 12A-44 PISO 3, PASTO, Narino, COLOMBIA", "status": "OK", "latitude": 1.2169888, "longitude": -77.2867507 }, "geometry": { "type": "Point", "coordinates": [ -77.2867507, 1.2169888 ] } },
{ "type": "Feature", "properties": { "CodigoPrestador": 5200102438, "primary_hc": "x", "NombrePrestador": "IPS MEDICALFISIO SAS", "CodigoHabilitacionSede": 520010000000.0, "NombreSede": "IPS MEDICALFISIO SAS", "TipoIdentificacion": "NI", "NumeroIdentificacion": 900987119, "NaturalezaJuridica": "Privada", "ESE": null, "MunicipioPrestador": 52001, "DepartamentoPrestadorDesc": "Narino", "MunicipioPrestadorDesc": "PASTO", "DireccionPrestador": "CALLE 2 NUMERO 22E - 18 BARRIO CAPUSIGRA", "MunicipioSede": 52001, "DepartamentoSedeDesc": "Narino", "MunicipioSedeDesc": "PASTO", "DireccionSede": "CALLE 2 NUMERO 22E - 18", "EmailSede": "ipsmedicalfisio@gmail.com", "TelefonoSede": "3008478436", "ClasePrestadorDesc": "Instituciones Prestadoras de Servicios de Salud - IPS", "FechaCorte": "Fecha corte REPS: Jul 4 2023 1:19PM", "address_geocoding": "CALLE 2 NUMERO 22E - 18, PASTO, Narino, COLOMBIA", "status": "OK", "latitude": 1.207426, "longitude": -77.287684 }, "geometry": { "type": "Point", "coordinates": [ -77.287684, 1.207426 ] } },
{ "type": "Feature", "properties": { "CodigoPrestador": 5200102459, "primary_hc": "x", "NombrePrestador": "LUZ MEDICA IPS S.A.S", "CodigoHabilitacionSede": 520010000000.0, "NombreSede": "LUZ MEDICA IPS S.A.S.", "TipoIdentificacion": "NI", "NumeroIdentificacion": 900972966, "NaturalezaJuridica": "Privada", "ESE": null, "MunicipioPrestador": 52001, "DepartamentoPrestadorDesc": "Narino", "MunicipioPrestadorDesc": "PASTO", "DireccionPrestador": "CRA 35 N 18 10 BARRIO PALERMO", "MunicipioSede": 52001, "DepartamentoSedeDesc": "Narino", "MunicipioSedeDesc": "PASTO", "DireccionSede": "CRA 35 N 18 - 10", "EmailSede": "luzmedicapasto@gmail.com", "TelefonoSede": "7208485", "ClasePrestadorDesc": "Instituciones Prestadoras de Servicios de Salud - IPS", "FechaCorte": "Fecha corte REPS: Jul 4 2023 1:19PM", "address_geocoding": "CRA 35 N 18 - 10, PASTO, Narino, COLOMBIA", "status": "OK", "latitude": 1.22412, "longitude": -77.284191 }, "geometry": { "type": "Point", "coordinates": [ -77.284191, 1.22412 ] } },
{ "type": "Feature", "properties": { "CodigoPrestador": 5200102526, "primary_hc": "x", "NombrePrestador": "UNIMEDIC IPS S.A.S", "CodigoHabilitacionSede": 520010000000.0, "NombreSede": "UNIMEDIC IPS S.A.S", "TipoIdentificacion": "NI", "NumeroIdentificacion": 901047630, "NaturalezaJuridica": "Privada", "ESE": null, "MunicipioPrestador": 52001, "DepartamentoPrestadorDesc": "Narino", "MunicipioPrestadorDesc": "PASTO", "DireccionPrestador": "CARRERA 34 No 19-79 barrio versalles", "MunicipioSede": 52001, "DepartamentoSedeDesc": "Narino", "MunicipioSedeDesc": "PASTO", "DireccionSede": "CARREA 34 No 19-79 EDIFICIO PLATINUM", "EmailSede": "ipsunimedicsas@gmail.com", "TelefonoSede": "3187126105", "ClasePrestadorDesc": "Instituciones Prestadoras de Servicios de Salud - IPS", "FechaCorte": "Fecha corte REPS: Jul 4 2023 1:19PM", "address_geocoding": "CARREA 34 No 19-79 EDIFICIO PLATINUM, PASTO, Narino, COLOMBIA", "status": "OK", "latitude": 1.2248511, "longitude": -77.2821615 }, "geometry": { "type": "Point", "coordinates": [ -77.2821615, 1.2248511 ] } },
{ "type": "Feature", "properties": { "CodigoPrestador": 5200102574, "primary_hc": "x", "NombrePrestador": "ART MEDICA SAS PASTO", "CodigoHabilitacionSede": 520010000000.0, "NombreSede": "ART MEDICA SAS PASTO", "TipoIdentificacion": "NI", "NumeroIdentificacion": 900298928, "NaturalezaJuridica": "Privada", "ESE": null, "MunicipioPrestador": 52001, "DepartamentoPrestadorDesc": "Narino", "MunicipioPrestadorDesc": "PASTO", "DireccionPrestador": "Cra 25 #16 -37 Centro medico La Casona", "MunicipioSede": 52001, "DepartamentoSedeDesc": "Narino", "MunicipioSedeDesc": "PASTO", "DireccionSede": "Cra 25 #16 -37 Centro medico La Casona", "EmailSede": "notificaciones@artmedica.co", "TelefonoSede": "Linea de atencion Nacional 3009120074, Call center 6044444994 opcion 1, WhatsApp 3223986072", "ClasePrestadorDesc": "Instituciones Prestadoras de Servicios de Salud - IPS", "FechaCorte": "Fecha corte REPS: Jul 4 20 23 1 :19P M", "address_geocoding": "Cra 25 #16 -37 C entro m edico La Casona, PASTO, Narino, COLOMBIA", "status": "OK", "latitude": 1.214502, "longitude": -77.280194 }, "geometry": { "type": "Point", "coordinates": [ -77.280194, 1.214502 ] } },
{ "type": "Feature", "properties": { "CodigoPrestador": 5200102611, "primary_hc": "x", "NombrePrestador": "IPS MEDICA INTEGRAL SAS", "CodigoHabilitacionSede": 520010000000.0, "NombreSede": "IPS MEDICA INTEGRAL", "TipoIdentificacion": "NI", "NumeroIdentificacion": 901083150, "NaturalezaJuridica": "Privada", "ESE": null, "MunicipioPrestador": 52001, "DepartamentoPrestadorDesc": "Narino", "MunicipioPrestadorDesc": "PASTO", "DireccionPrestador": "CARRERA 40 N¬∞ 18 - 46 BARRIO PALERMO", "MunicipioSede": 52001, "DepartamentoSedeDesc": "Narino", "MunicipioSedeDesc": "PASTO", "DireccionSede": "CARRERA 40 N¬∞ 18 - 46", "EmailSede": "ipsmedicaintegralpasto@gmail.com", "TelefonoSede": "3215619837", "ClasePrestadorDesc": "Instituciones Prestadoras de Servicios de Salud - IPS", "FechaCorte": "Fecha corte REPS: Jul 4 2023 1:19PM", "address_geocoding": "CARRERA 40 N¬∞ 18 - 46, PASTO, Narino, COLOMBIA", "status": "OK", "latitude": 1.2262169, "longitude": -77.285119 }, "geometry": { "type": "Point", "coordinates": [ -77.285119, 1.2262169 ] } },
{ "type": "Feature", "properties": { "CodigoPrestador": 5200103191, "primary_hc": "x", "NombrePrestador": "PREVENTIS IPS", "CodigoHabilitacionSede": 520010000000.0, "NombreSede": "PREVENTIS IPS", "TipoIdentificacion": "NI", "NumeroIdentificacion": 901425678, "NaturalezaJuridica": "Privada", "ESE": null, "MunicipioPrestador": 52001, "DepartamentoPrestadorDesc": "Narino", "MunicipioPrestadorDesc": "PASTO", "DireccionPrestador": "CARRERA 41  NUMERO 21-20", "MunicipioSede": 52001, "DepartamentoSedeDesc": "Narino", "MunicipioSedeDesc": "PASTO", "DireccionSede": "CARRERA 41 NUMERO 21-20", "EmailSede": "preventisips@gmail.com", "TelefonoSede": "7412876", "ClasePrestadorDesc": "Instituciones Prestadoras de Servicios de Salud - IPS", "FechaCorte": "Fecha corte REPS: Jul 4 2023 1:19PM", "address_geocoding": "CARRERA 41 NUMERO 21-20, PASTO, Narino, COLOMBIA", "status": "OK", "latitude": 1.225112, "longitude": -77.287305 }, "geometry": { "type": "Point", "coordinates": [ -77.287305, 1.225112 ] } },
{ "type": "Feature", "properties": { "CodigoPrestador": 5200103229, "primary_hc": "x", "NombrePrestador": "IPS CENTRO DE EXCELENCIA MEDICA SAS", "CodigoHabilitacionSede": 520010000000.0, "NombreSede": "IPS CENTRO DE EXCELENCIA MEDICA SAS Sede Pasto", "TipoIdentificacion": "NI", "NumeroIdentificacion": 901481124, "NaturalezaJuridica": "Privada", "ESE": null, "MunicipioPrestador": 52001, "DepartamentoPrestadorDesc": "Narino", "MunicipioPrestadorDesc": "PASTO", "DireccionPrestador": "Carrera 33 no. 20-27 Local 304 Edificio V1501 Avenida los Estudiantes - Riviera", "MunicipioSede": 52001, "DepartamentoSedeDesc": "Narino", "MunicipioSedeDesc": "PASTO", "DireccionSede": "Carrera 33 no. 20-27 Local 304 Edificio V1501 Avenida los Estudiantes - Riviera", "EmailSede": "cdemips@gmail.com", "TelefonoSede": "3127772092", "ClasePrestadorDesc": "Instituciones Prestadoras de Servicios de Salud - IPS", "FechaCorte": " Fech a cort e REPS: Jul-04 2023 1 :19PM", "address_geocoding": "Carrera 33 no. 20-27 Local 304 Edificio V1501 Avenida los Estudiantes - Riviera, PASTO, Narino, COLOMBIA", "status": "OK", "latitude": 1.2242239, "longitude": -77.2808026 }, "geometry": { "type": "Point", "coordinates": [ -77.2808026, 1.2242239 ] } },
{ "type": "Feature", "properties": { "CodigoPrestador": 5200103252, "primary_hc": "x", "NombrePrestador": "IPS SERVICLINICA DE NARI√ëO S.A.S", "CodigoHabilitacionSede": 520010000000.0, "NombreSede": "IPS SERVICLINICA DE NARI√ëO S.A.S", "TipoIdentificacion": "NI", "NumeroIdentificacion": 901469788, "NaturalezaJuridica": "Privada", "ESE": null, "MunicipioPrestador": 52001, "DepartamentoPrestadorDesc": "Narino", "MunicipioPrestadorDesc": "PASTO", "DireccionPrestador": "CARRERA 28 NO. 19-39 LOCAL 2 B/LAS CUADRAS", "MunicipioSede": 52001, "DepartamentoSedeDesc": "Narino", "MunicipioSedeDesc": "PASTO", "DireccionSede": "CARRERA 28 NO. 19-39 LOCAL 2", "EmailSede": "ipsserviclinica@gmail.com", "TelefonoSede": "3164830843", "ClasePrestadorDesc": "Instituciones Prestadoras de Servicios de Salud - IPS", "FechaCorte": "Fecha corte REPS: Jul 4 2023 1:19PM", "address_geocoding": "CARRERA 28 NO. 19-39 LOCAL 2, PASTO, Narino, COLOMBIA\" ", "status": "OK", "latitude": 1.218122, "longitude": -77.2788516 }, "geometry": { "type": "Point", "coordinates": [ -77.2788516, 1.218122 ] } },
{ "type": "Feature", "properties": { "CodigoPrestador": 5200103508, "primary_hc": "x", "NombrePrestador": "IPS GENHOSPI S.A.S", "CodigoHabilitacionSede": 520010000000.0, "NombreSede": "IPS GENHOSPI S.A.S", "TipoIdentificacion": "NI", "NumeroIdentificacion": 900331412, "NaturalezaJuridica": "Privada", "ESE": null, "MunicipioPrestador": 52001, "DepartamentoPrestadorDesc": "Narino", "MunicipioPrestadorDesc": "PASTO", "DireccionPrestador": "CALLE 18 NUMERO 42A - 75", "MunicipioSede": 52001, "DepartamentoSedeDesc": "Narino", "MunicipioSedeDesc": "PASTO", "DireccionSede": "CALLE 18A NUMERO 42 A - 75", "EmailSede": "servcliente@genhospi.com.co", "TelefonoSede": "3164544629", "ClasePrestadorDesc": "Instituciones Prestadoras de Servicios de Salud - IPS", "FechaCorte": "Fecha corte REPS: Jul 4 2023 1:19PM", "address_geocoding": "CALLE 18A NUMERO 42 A - 75, PASTO, Narino, COLOMBIA", "status": "OK", "latitude": 1.228165, "longitude": -77.2875679 }, "geometry": { "type": "Point", "coordinates": [ -77.2875679, 1.228165 ] } },
{ "type": "Feature", "properties": { "CodigoPrestador": 5200103538, "primary_hc": "x", "NombrePrestador": "SURMEDICALHOME IPS", "CodigoHabilitacionSede": 520010000000.0, "NombreSede": "SURMEDICAL BARRIO LOS ANDES", "TipoIdentificacion": "NI", "NumeroIdentificacion": 901682833, "NaturalezaJuridica": "Privada", "ESE": null, "MunicipioPrestador": 52001, "DepartamentoPrestadorDesc": "Narino", "MunicipioPrestadorDesc": "PASTO", "DireccionPrestador": "CRA 36 No. 1 oeste 23 los andes", "MunicipioSede": 52001, "DepartamentoSedeDesc": "Narino", "MunicipioSedeDesc": "PASTO", "DireccionSede": "CARRERA 36 No 1 OESTE 23 LOS ANDES", "EmailSede": "surmedicalhomeips@gmail.com", "TelefonoSede": "3207480518", "ClasePrestadorDesc": "Instituciones Prestadoras de Servicios de Salud - IPS", "FechaCorte": "Fecha corte REPS: Jul 4 2023 1:19PM", "address_geocoding": "CARRERA 36 No 1 OESTE 23 LOS ANDES, PASTO, Narino, COLOMBIA", "status": "OK", "latitude": 1.2136549, "longitude": -77.2943 }, "geometry": { "type": "Point", "coordinates": [ -77.2943, 1.2136549 ] } }
]
}
