{
"type": "FeatureCollection",
"name": "healthcare_facilities_abuja_emoc",
"crs": { "type": "name", "properties": { "name": "urn:ogc:def:crs:OGC:1.3:CRS84" } },
"features": [
{ "type": "Feature", "properties": { "orig_order": 693, "state": 3, "lga": "Abuja Municipal Area Council", "ward": "Wuse", "urban_conurb": 3, "facility_code": "37/06/1/1/1/0042", "ontime_code": 100302001, "facility_name": "House Clinic (Asokoro)", "owner": 1, "specific_owner": 1, "facility_level": 0, "operating_times": true, "cemoc_verified": true, "verif_indiv": false, "verif_org": false, "verif_web": false, "verif_on_reg": false, "verif_phone": false, "verif_onground": true, "alt_name_fac": "State House Clinic/The State House Medical Centre", "latitude": 9.06225, "longitude": 7.51872, "operation_status": "Operational", "registration_status": "Unknown", "license_status": "Unknown", "local_validation": "Public Comprehensive EmOC", "hcf_id": 0 }, "geometry": { "type": "Point", "coordinates": [ 7.51872, 9.06225 ] } },
{ "type": "Feature", "properties": { "orig_order": 694, "state": 3, "lga": "Abuja Municipal Area Council", "ward": "Wuse", "urban_conurb": 3, "facility_code": "37/06/1/1/2/0114", "ontime_code": 100302002, "facility_name": "Dr. Hassan's Clinic and Diagnostic Centre", "owner": 2, "specific_owner": 2, "facility_level": 0, "operating_times": true, "cemoc_verified": true, "verif_indiv": false, "verif_org": false, "verif_web": true, "verif_on_reg": false, "verif_phone": false, "verif_onground": false, "alt_name_fac": null, "latitude": 9.09403, "longitude": 7.49555, "operation_status": "Operational", "registration_status": "Unknown", "license_status": "Unknown", "local_validation": "Private Comprehensive EmOC", "hcf_id": 1 }, "geometry": { "type": "Point", "coordinates": [ 7.49555, 9.09403 ] } },
{ "type": "Feature", "properties": { "orig_order": 695, "state": 3, "lga": "Abuja Municipal Area Council", "ward": "Wuse", "urban_conurb": 3, "facility_code": "37/06/1/2/1/0006", "ontime_code": 100302003, "facility_name": "Maitama General Hospital", "owner": 1, "specific_owner": 1, "facility_level": 1, "operating_times": true, "cemoc_verified": true, "verif_indiv": true, "verif_org": false, "verif_web": false, "verif_on_reg": false, "verif_phone": false, "verif_onground": false, "alt_name_fac": null, "latitude": 9.08631, "longitude": 7.48139, "operation_status": "Operational", "registration_status": "Unknown", "license_status": "Unknown", "local_validation": "Public Comprehensive EmOC", "hcf_id": 2 }, "geometry": { "type": "Point", "coordinates": [ 7.48139, 9.08631 ] } },
{ "type": "Feature", "properties": { "orig_order": 696, "state": 3, "lga": "Abuja Municipal Area Council", "ward": "Wuse", "urban_conurb": 3, "facility_code": "37/06/1/1/2/0323", "ontime_code": 100302004, "facility_name": "Wuse Clinic and Maternity", "owner": 2, "specific_owner": 2, "facility_level": 0, "operating_times": true, "cemoc_verified": true, "verif_indiv": false, "verif_org": false, "verif_web": false, "verif_on_reg": false, "verif_phone": false, "verif_onground": false, "alt_name_fac": null, "latitude": 9.06944, "longitude": 7.47898, "operation_status": "Operational", "registration_status": "Unknown", "license_status": "Unknown", "local_validation": "Private Comprehensive EmOC", "hcf_id": 3 }, "geometry": { "type": "Point", "coordinates": [ 7.47898, 9.06944 ] } },
{ "type": "Feature", "properties": { "orig_order": 697, "state": 3, "lga": "Abuja Municipal Area Council", "ward": "Wuse", "urban_conurb": 3, "facility_code": "37/06/1/2/2/0002", "ontime_code": 100302005, "facility_name": "Chivar Clinic and Urology", "owner": 2, "specific_owner": 2, "facility_level": 1, "operating_times": true, "cemoc_verified": true, "verif_indiv": false, "verif_org": false, "verif_web": true, "verif_on_reg": false, "verif_phone": false, "verif_onground": false, "alt_name_fac": "Chivar Specialist hospital and Centre", "latitude": 9.06196, "longitude": 7.47493, "operation_status": "Operational", "registration_status": "Unknown", "license_status": "Unknown", "local_validation": "Private Comprehensive EmOC", "hcf_id": 4 }, "geometry": { "type": "Point", "coordinates": [ 7.47493, 9.06196 ] } },
{ "type": "Feature", "properties": { "orig_order": 698, "state": 3, "lga": "Abuja Municipal Area Council", "ward": "Wuse", "urban_conurb": 3, "facility_code": "37/06/1/3/2/0001", "ontime_code": 100302006, "facility_name": "King's Care Hospital and Maternity (Wuse)", "owner": 2, "specific_owner": 2, "facility_level": 2, "operating_times": true, "cemoc_verified": true, "verif_indiv": false, "verif_org": false, "verif_web": true, "verif_on_reg": false, "verif_phone": false, "verif_onground": false, "alt_name_fac": null, "latitude": 9.06577, "longitude": 7.47397, "operation_status": "Operational", "registration_status": "Unknown", "license_status": "Unknown", "local_validation": "Private Comprehensive EmOC", "hcf_id": 5 }, "geometry": { "type": "Point", "coordinates": [ 7.47397, 9.06577 ] } },
{ "type": "Feature", "properties": { "orig_order": 699, "state": 3, "lga": "Abuja Municipal Area Council", "ward": "Wuse", "urban_conurb": 3, "facility_code": "37/06/1/2/2/0038", "ontime_code": 100302007, "facility_name": "Sami Wadata Clinic (Wuse)", "owner": 2, "specific_owner": 2, "facility_level": 0, "operating_times": true, "cemoc_verified": true, "verif_indiv": false, "verif_org": false, "verif_web": false, "verif_on_reg": false, "verif_phone": false, "verif_onground": true, "alt_name_fac": null, "latitude": 9.08665, "longitude": 7.47042, "operation_status": "Operational", "registration_status": "Registered", "license_status": "Licensed", "local_validation": "Private Comprehensive EmOC", "hcf_id": 6 }, "geometry": { "type": "Point", "coordinates": [ 7.47042, 9.08665 ] } },
{ "type": "Feature", "properties": { "orig_order": 700, "state": 3, "lga": "Abuja Municipal Area Council", "ward": "Wuse", "urban_conurb": 3, "facility_code": "37/06/1/2/1/0013", "ontime_code": 100302008, "facility_name": "Wuse General Hospital", "owner": 1, "specific_owner": 1, "facility_level": 1, "operating_times": true, "cemoc_verified": true, "verif_indiv": true, "verif_org": false, "verif_web": false, "verif_on_reg": false, "verif_phone": false, "verif_onground": false, "alt_name_fac": null, "latitude": 9.06294, "longitude": 7.4689, "operation_status": "Operational", "registration_status": "Not Applicable", "license_status": "Not Applicable", "local_validation": "Public Comprehensive EmOC", "hcf_id": 7 }, "geometry": { "type": "Point", "coordinates": [ 7.4689, 9.06294 ] } },
{ "type": "Feature", "properties": { "orig_order": 701, "state": 3, "lga": "Abuja Municipal Area Council", "ward": "Wuse", "urban_conurb": 3, "facility_code": "37/06/1/1/2/0250", "ontime_code": 100302009, "facility_name": "Queens Clinic and Maternity", "owner": 2, "specific_owner": 2, "facility_level": 0, "operating_times": true, "cemoc_verified": true, "verif_indiv": false, "verif_org": false, "verif_web": true, "verif_on_reg": false, "verif_phone": false, "verif_onground": false, "alt_name_fac": null, "latitude": 9.06984, "longitude": 7.46265, "operation_status": "Operational", "registration_status": "Unknown", "license_status": "Unknown", "local_validation": "Private Comprehensive EmOC", "hcf_id": 8 }, "geometry": { "type": "Point", "coordinates": [ 7.46265, 9.06984 ] } },
{ "type": "Feature", "properties": { "orig_order": 702, "state": 3, "lga": "Abuja Municipal Area Council", "ward": "City Centre", "urban_conurb": 3, "facility_code": "37/06/1/3/1/0002", "ontime_code": 100302010, "facility_name": "National Hospital (Abuja)", "owner": 1, "specific_owner": 1, "facility_level": 2, "operating_times": true, "cemoc_verified": true, "verif_indiv": true, "verif_org": false, "verif_web": false, "verif_on_reg": false, "verif_phone": false, "verif_onground": false, "alt_name_fac": null, "latitude": 9.03906, "longitude": 7.46155, "operation_status": "Operational", "registration_status": "Registered", "license_status": "Licensed", "local_validation": "Public Comprehensive EmOC", "hcf_id": 9 }, "geometry": { "type": "Point", "coordinates": [ 7.46155, 9.03906 ] } },
{ "type": "Feature", "properties": { "orig_order": 703, "state": 3, "lga": "Abuja Municipal Area Council", "ward": "Wuse", "urban_conurb": 3, "facility_code": "37/06/1/1/2/0084", "ontime_code": 100302011, "facility_name": "City Hospital", "owner": 2, "specific_owner": 2, "facility_level": 0, "operating_times": true, "cemoc_verified": true, "verif_indiv": false, "verif_org": false, "verif_web": false, "verif_on_reg": false, "verif_phone": false, "verif_onground": true, "alt_name_fac": null, "latitude": 9.06458, "longitude": 7.45948, "operation_status": "Operational", "registration_status": "Unknown", "license_status": "Unknown", "local_validation": "Private Comprehensive EmOC", "hcf_id": 10 }, "geometry": { "type": "Point", "coordinates": [ 7.45948, 9.06458 ] } },
{ "type": "Feature", "properties": { "orig_order": 704, "state": 3, "lga": "Abuja Municipal Area Council", "ward": "Wuse", "urban_conurb": 3, "facility_code": "37/06/1/1/2/0182", "ontime_code": 100302012, "facility_name": "Leblon Clinic And Maternity", "owner": 2, "specific_owner": 2, "facility_level": 0, "operating_times": true, "cemoc_verified": true, "verif_indiv": false, "verif_org": false, "verif_web": false, "verif_on_reg": false, "verif_phone": true, "verif_onground": false, "alt_name_fac": null, "latitude": 9.06041, "longitude": 7.41914, "operation_status": "Operational", "registration_status": "Unknown", "license_status": "Unknown", "local_validation": "Private Comprehensive EmOC", "hcf_id": 11 }, "geometry": { "type": "Point", "coordinates": [ 7.41914, 9.06041 ] } },
{ "type": "Feature", "properties": { "orig_order": 705, "state": 3, "lga": "Abuja Municipal Area Council", "ward": "Gwarimpa", "urban_conurb": 3, "facility_code": "37/06/1/3/2/0002", "ontime_code": 100302013, "facility_name": "Nisa Premier Hospital", "owner": 2, "specific_owner": 2, "facility_level": 2, "operating_times": true, "cemoc_verified": true, "verif_indiv": true, "verif_org": false, "verif_web": false, "verif_on_reg": false, "verif_phone": false, "verif_onground": false, "alt_name_fac": null, "latitude": 9.06735, "longitude": 7.41149, "operation_status": "Operational", "registration_status": "Unknown", "license_status": "Unknown", "local_validation": "Private Comprehensive EmOC", "hcf_id": 12 }, "geometry": { "type": "Point", "coordinates": [ 7.41149, 9.06735 ] } },
{ "type": "Feature", "properties": { "orig_order": 706, "state": 3, "lga": "Abuja Municipal Area Council", "ward": "Gwarimpa", "urban_conurb": 3, "facility_code": "37/06/1/3/1/0001", "ontime_code": 100302014, "facility_name": "Jabi Federal Medical Centre", "owner": 1, "specific_owner": 1, "facility_level": 2, "operating_times": true, "cemoc_verified": true, "verif_indiv": true, "verif_org": false, "verif_web": false, "verif_on_reg": false, "verif_phone": false, "verif_onground": false, "alt_name_fac": null, "latitude": 9.01514, "longitude": 7.40872, "operation_status": "Operational", "registration_status": "Not Applicable", "license_status": "Not Applicable", "local_validation": "Public Comprehensive EmOC", "hcf_id": 13 }, "geometry": { "type": "Point", "coordinates": [ 7.40872, 9.01514 ] } },
{ "type": "Feature", "properties": { "orig_order": 707, "state": 3, "lga": "Abuja Municipal Area Council", "ward": "Jiwa", "urban_conurb": 3, "facility_code": "37/06/1/3/2/0003", "ontime_code": 100302015, "facility_name": "Nizamiya Hospital", "owner": 2, "specific_owner": 2, "facility_level": 2, "operating_times": true, "cemoc_verified": true, "verif_indiv": true, "verif_org": false, "verif_web": false, "verif_on_reg": false, "verif_phone": false, "verif_onground": false, "alt_name_fac": null, "latitude": 9.059194, "longitude": 7.390654, "operation_status": "Operational", "registration_status": "Unknown", "license_status": "Unknown", "local_validation": "Private Comprehensive EmOC", "hcf_id": 14 }, "geometry": { "type": "Point", "coordinates": [ 7.390654, 9.059194 ] } },
{ "type": "Feature", "properties": { "orig_order": 708, "state": 3, "lga": "Abuja Municipal Area Council", "ward": "Gui", "urban_conurb": 3, "facility_code": "37/06/1/2/1/0009", "ontime_code": 100302016, "facility_name": "Nigeria Military Clinic", "owner": 2, "specific_owner": 2, "facility_level": 1, "operating_times": true, "cemoc_verified": true, "verif_indiv": true, "verif_org": false, "verif_web": false, "verif_on_reg": false, "verif_phone": false, "verif_onground": false, "alt_name_fac": null, "latitude": 8.88136, "longitude": 7.23066, "operation_status": "Operational", "registration_status": "Registered", "license_status": "Licensed", "local_validation": "Public Comprehensive EmOC", "hcf_id": 15 }, "geometry": { "type": "Point", "coordinates": [ 7.23066, 8.88136 ] } },
{ "type": "Feature", "properties": { "orig_order": 709, "state": 3, "lga": "Abuja Municipal Area Council", "ward": "Gui", "urban_conurb": 3, "facility_code": "37/06/1/2/1/0007", "ontime_code": 100302017, "facility_name": "Mararaba Charity Hospital", "owner": 2, "specific_owner": 2, "facility_level": 1, "operating_times": true, "cemoc_verified": true, "verif_indiv": false, "verif_org": false, "verif_web": true, "verif_on_reg": false, "verif_phone": false, "verif_onground": false, "alt_name_fac": null, "latitude": 8.88561, "longitude": 7.21538, "operation_status": "Operational", "registration_status": "Registered", "license_status": "Licensed", "local_validation": "Private Comprehensive EmOC", "hcf_id": 16 }, "geometry": { "type": "Point", "coordinates": [ 7.21538, 8.88561 ] } },
{ "type": "Feature", "properties": { "orig_order": 710, "state": 3, "lga": "Abuja Municipal Area Council", "ward": "Gui", "urban_conurb": 3, "facility_code": "37/06/1/2/1/0003", "ontime_code": 100302018, "facility_name": "General Hospital Maitama (Mdh)", "owner": 1, "specific_owner": 1, "facility_level": 1, "operating_times": true, "cemoc_verified": true, "verif_indiv": true, "verif_org": false, "verif_web": false, "verif_on_reg": false, "verif_phone": false, "verif_onground": false, "alt_name_fac": null, "latitude": 9.0969, "longitude": 7.215, "operation_status": "Operational", "registration_status": "Unknown", "license_status": "Unknown", "local_validation": "Public Comprehensive EmOC", "hcf_id": 17 }, "geometry": { "type": "Point", "coordinates": [ 7.215, 9.0969 ] } },
{ "type": "Feature", "properties": { "orig_order": 711, "state": 3, "lga": "Abuja Municipal Area Council", "ward": "City Centre", "urban_conurb": 3, "facility_code": "37/06/1/2/1/0012", "ontime_code": 100302019, "facility_name": "Abuja Police Hospital", "owner": 2, "specific_owner": 6, "facility_level": 1, "operating_times": true, "cemoc_verified": true, "verif_indiv": true, "verif_org": false, "verif_web": false, "verif_on_reg": false, "verif_phone": false, "verif_onground": false, "alt_name_fac": null, "latitude": 9.09693, "longitude": 7.21426, "operation_status": "Operational", "registration_status": "Registered", "license_status": "Licensed", "local_validation": "Public Comprehensive EmOC", "hcf_id": 18 }, "geometry": { "type": "Point", "coordinates": [ 7.21426, 9.09693 ] } },
{ "type": "Feature", "properties": { "orig_order": 712, "state": 3, "lga": "Abuja Municipal Area Council", "ward": "Karshi", "urban_conurb": 3, "facility_code": "37/06/1/2/1/0005", "ontime_code": 100302020, "facility_name": "Karshi General Hospital", "owner": 1, "specific_owner": 1, "facility_level": 1, "operating_times": true, "cemoc_verified": true, "verif_indiv": true, "verif_org": false, "verif_web": false, "verif_on_reg": false, "verif_phone": false, "verif_onground": false, "alt_name_fac": null, "latitude": 8.53366, "longitude": 7.13223, "operation_status": "Operational", "registration_status": "Registered", "license_status": "Licensed", "local_validation": "Public Comprehensive EmOC", "hcf_id": 19 }, "geometry": { "type": "Point", "coordinates": [ 7.13223, 8.53366 ] } },
{ "type": "Feature", "properties": { "orig_order": 713, "state": 3, "lga": "Abuja Municipal Area Council", "ward": "Nyanya", "urban_conurb": 3, "facility_code": "37/06/1/2/1/0011", "ontime_code": 100302021, "facility_name": "Nyanya General Hospital", "owner": 1, "specific_owner": 1, "facility_level": 1, "operating_times": true, "cemoc_verified": true, "verif_indiv": true, "verif_org": false, "verif_web": false, "verif_on_reg": false, "verif_phone": false, "verif_onground": false, "alt_name_fac": null, "latitude": 8.92007, "longitude": 7.12343, "operation_status": "Operational", "registration_status": "Registered", "license_status": "Licensed", "local_validation": "Public Comprehensive EmOC", "hcf_id": 20 }, "geometry": { "type": "Point", "coordinates": [ 7.12343, 8.92007 ] } },
{ "type": "Feature", "properties": { "orig_order": 714, "state": 3, "lga": "Abuja Municipal Area Council", "ward": "City Centre", "urban_conurb": 3, "facility_code": "37/06/1/2/1/0001", "ontime_code": 100302022, "facility_name": "Asokoro General Hospital", "owner": 1, "specific_owner": 1, "facility_level": 1, "operating_times": true, "cemoc_verified": true, "verif_indiv": true, "verif_org": false, "verif_web": false, "verif_on_reg": false, "verif_phone": false, "verif_onground": false, "alt_name_fac": null, "latitude": 8.93483, "longitude": 7.07897, "operation_status": "Operational", "registration_status": "Registered", "license_status": "Licensed", "local_validation": "Public Comprehensive EmOC", "hcf_id": 21 }, "geometry": { "type": "Point", "coordinates": [ 7.07897, 8.93483 ] } },
{ "type": "Feature", "properties": { "orig_order": 715, "state": 3, "lga": "Abuja Municipal Area Council", "ward": "Gwarimpa", "urban_conurb": 3, "facility_code": "37/06/1/2/1/0004", "ontime_code": 100302023, "facility_name": "Gwarimpa General Hospital", "owner": 1, "specific_owner": 1, "facility_level": 1, "operating_times": true, "cemoc_verified": true, "verif_indiv": true, "verif_org": false, "verif_web": false, "verif_on_reg": false, "verif_phone": false, "verif_onground": false, "alt_name_fac": null, "latitude": 8.94395, "longitude": 7.07721, "operation_status": "Operational", "registration_status": "Registered", "license_status": "Licensed", "local_validation": "Public Comprehensive EmOC", "hcf_id": 22 }, "geometry": { "type": "Point", "coordinates": [ 7.07721, 8.94395 ] } },
{ "type": "Feature", "properties": { "orig_order": 716, "state": 3, "lga": "Abuja Municipal Area Council", "ward": "Gwarimpa", "urban_conurb": 3, "facility_code": "37/06/1/1/1/0010", "ontime_code": 100302024, "facility_name": "Federal Staff Hospital (Abuja)", "owner": 2, "specific_owner": 2, "facility_level": 1, "operating_times": true, "cemoc_verified": true, "verif_indiv": true, "verif_org": false, "verif_web": false, "verif_on_reg": false, "verif_phone": false, "verif_onground": false, "alt_name_fac": null, "latitude": 8.96262, "longitude": 7.07708, "operation_status": "Operational", "registration_status": "Registered", "license_status": "Licensed", "local_validation": "Public Comprehensive EmOC", "hcf_id": 23 }, "geometry": { "type": "Point", "coordinates": [ 7.07708, 8.96262 ] } }
]
}
