{
"type": "FeatureCollection",
"name": "healthcare_facilities_harare",
"crs": { "type": "name", "properties": { "name": "urn:ogc:def:crs:OGC:1.3:CRS84" } },
"features": [
{ "type": "Feature", "properties": { "Longitude": 31.0988539, "Latitude": -18.0284612, "Facility_name": "St.Michael's (Chihumbiri)", "Province": "Harare", "District": "Chitungwiza", "Ward": "23", "Ownership_type": "Private", "Ownership": "Independent practice", "EmOC_status": "Not designated", "Services_offered": "Basic outpatient & maternal/child health services", "Facility_level": "Primary", "Facility_type": "Private clinic" }, "geometry": { "type": "Point", "coordinates": [ 31.0988539, -18.0284612 ] } },
{ "type": "Feature", "properties": { "Longitude": 31.0989627, "Latitude": -18.0285465, "Facility_name": "Michael's 24 Hour Accident, Emergency & Maternity", "Province": "Harare", "District": "Chitungwiza", "Ward": "23", "Ownership_type": "Private", "Ownership": "Independent practice", "EmOC_status": "Not designated", "Services_offered": "Full obstetric & surgical services", "Facility_level": "Secondary", "Facility_type": "Private hospital" }, "geometry": { "type": "Point", "coordinates": [ 31.0989627, -18.0285465 ] } },
{ "type": "Feature", "properties": { "Longitude": 31.0701387, "Latitude": -18.0141297, "Facility_name": "Citimed/Chitungwiza South Med Hospital", "Province": "Harare", "District": "Chitungwiza", "Ward": "13", "Ownership_type": "Private", "Ownership": "Group / Corporate owned", "EmOC_status": "Not designated", "Services_offered": "Full obstetric & surgical services", "Facility_level": "Secondary", "Facility_type": "Private hospital" }, "geometry": { "type": "Point", "coordinates": [ 31.0701387, -18.0141297 ] } },
{ "type": "Feature", "properties": { "Longitude": 31.0704544, "Latitude": -17.9987624, "Facility_name": "Chidodo Clinic", "Province": "Harare", "District": "Chitungwiza", "Ward": "14", "Ownership_type": "Public", "Ownership": "Local council", "EmOC_status": "Not designated", "Services_offered": "Basic outpatient & maternal/child health services", "Facility_level": "Primary", "Facility_type": "Municipal clinic" }, "geometry": { "type": "Point", "coordinates": [ 31.0704544, -17.9987624 ] } },
{ "type": "Feature", "properties": { "Longitude": 31.211887, "Latitude": -17.8259766, "Facility_name": "Tafara Family 24 Clinic", "Province": "Harare", "District": "Harare", "Ward": "46", "Ownership_type": "Private", "Ownership": "Independent practice", "EmOC_status": "Not designated", "Services_offered": "Basic outpatient & maternal/child health services", "Facility_level": "Primary", "Facility_type": "Private clinic" }, "geometry": { "type": "Point", "coordinates": [ 31.211887, -17.8259766 ] } },
{ "type": "Feature", "properties": { "Longitude": 31.0282242, "Latitude": -17.8609765, "Facility_name": "Gershon Dental Clinic", "Province": "Harare", "District": "Harare", "Ward": "11", "Ownership_type": "Private", "Ownership": "Independent practice", "EmOC_status": "Not applicable", "Services_offered": "Dental and oral health services", "Facility_level": "Primary", "Facility_type": "Dental clinic" }, "geometry": { "type": "Point", "coordinates": [ 31.0282242, -17.8609765 ] } },
{ "type": "Feature", "properties": { "Longitude": 31.1045308, "Latitude": -17.932156, "Facility_name": "Manyame Air Base Clinic", "Province": "Harare", "District": "Harare rural", "Ward": "1", "Ownership_type": "Public", "Ownership": "Military owned - Zimbabwe Defence Forces (ZDF)", "EmOC_status": "Not designated", "Services_offered": "Basic outpatient & maternal/child health services", "Facility_level": "Primary", "Facility_type": "Service clinic" }, "geometry": { "type": "Point", "coordinates": [ 31.1045308, -17.932156 ] } },
{ "type": "Feature", "properties": { "Longitude": 30.9684476, "Latitude": -17.8582889, "Facility_name": "Kambuzuma Municipality Clinic", "Province": "Harare", "District": "Harare", "Ward": "14", "Ownership_type": "Public", "Ownership": "Local council", "EmOC_status": "Not designated", "Services_offered": "Basic outpatient & maternal/child health services", "Facility_level": "Primary", "Facility_type": "Municipal clinic" }, "geometry": { "type": "Point", "coordinates": [ 30.9684476, -17.8582889 ] } },
{ "type": "Feature", "properties": { "Longitude": 31.0698341, "Latitude": -17.8559466, "Facility_name": "1 Commando Hospital", "Province": "Harare", "District": "Harare", "Ward": "2", "Ownership_type": "Public", "Ownership": "Military owned - Zimbabwe Defence Forces (ZDF)", "EmOC_status": "Not designated", "Services_offered": "Full obstetric & surgical services", "Facility_level": "Secondary", "Facility_type": "Service hospital" }, "geometry": { "type": "Point", "coordinates": [ 31.0698341, -17.8559466 ] } },
{ "type": "Feature", "properties": { "Longitude": 30.9900685, "Latitude": -17.9247904, "Facility_name": "Hopley Satellite Clinic", "Province": "Harare", "District": "Harare rural", "Ward": "1", "Ownership_type": "Public", "Ownership": "Local council", "EmOC_status": "Not designated", "Services_offered": "Basic outpatient & maternal/child health services", "Facility_level": "Primary", "Facility_type": "Municipal clinic" }, "geometry": { "type": "Point", "coordinates": [ 30.9900685, -17.9247904 ] } },
{ "type": "Feature", "properties": { "Longitude": 31.1455031, "Latitude": -17.7691146, "Facility_name": "Topcare Pharmacy", "Province": "Harare", "District": "Harare", "Ward": "9", "Ownership_type": "Private", "Ownership": "Independent practice", "EmOC_status": "Not applicable", "Services_offered": "Pharmaceutical dispensing & counseling services", "Facility_level": "Primary", "Facility_type": "Pharmacy" }, "geometry": { "type": "Point", "coordinates": [ 31.1455031, -17.7691146 ] } },
{ "type": "Feature", "properties": { "Longitude": 31.1288486, "Latitude": -17.8104512, "Facility_name": "Greendale Family Health Services", "Province": "Harare", "District": "Harare", "Ward": "9", "Ownership_type": "Private", "Ownership": "Independent practice", "EmOC_status": "Not designated", "Services_offered": "Basic outpatient & maternal/child health services", "Facility_level": "Primary", "Facility_type": "Private clinic" }, "geometry": { "type": "Point", "coordinates": [ 31.1288486, -17.8104512 ] } },
{ "type": "Feature", "properties": { "Longitude": 31.0305442, "Latitude": -17.8902672, "Facility_name": "Waterfalls Primary Care Clinic", "Province": "Harare", "District": "Harare", "Ward": "23", "Ownership_type": "Public", "Ownership": "Local council", "EmOC_status": "Not designated", "Services_offered": "Basic outpatient & maternal/child health services", "Facility_level": "Primary", "Facility_type": "Municipal clinic" }, "geometry": { "type": "Point", "coordinates": [ 31.0305442, -17.8902672 ] } },
{ "type": "Feature", "properties": { "Longitude": 30.9944021, "Latitude": -17.8841736, "Facility_name": "Highfields Polyclinic", "Province": "Harare", "District": "Harare", "Ward": "25", "Ownership_type": "Public", "Ownership": "Local council", "EmOC_status": "Basic", "Services_offered": "Outpatient, maternity, and minor surgical services", "Facility_level": "Secondary", "Facility_type": "Polyclinic" }, "geometry": { "type": "Point", "coordinates": [ 30.9944021, -17.8841736 ] } },
{ "type": "Feature", "properties": { "Longitude": 30.9804661, "Latitude": -17.8946423, "Facility_name": "Highfields Western Triangle Satellite Clinic", "Province": "Harare", "District": "Harare", "Ward": "26", "Ownership_type": "Public", "Ownership": "Local council", "EmOC_status": "Not designated", "Services_offered": "Basic outpatient & maternal/child health services", "Facility_level": "Primary", "Facility_type": "Municipal clinic" }, "geometry": { "type": "Point", "coordinates": [ 30.9804661, -17.8946423 ] } },
{ "type": "Feature", "properties": { "Longitude": 30.9293672, "Latitude": -17.8668366, "Facility_name": "Mufakose Satellite Clinic", "Province": "Harare", "District": "Harare", "Ward": "35", "Ownership_type": "Public", "Ownership": "Local council", "EmOC_status": "Not designated", "Services_offered": "Basic outpatient & maternal/child health services", "Facility_level": "Primary", "Facility_type": "Municipal clinic" }, "geometry": { "type": "Point", "coordinates": [ 30.9293672, -17.8668366 ] } },
{ "type": "Feature", "properties": { "Longitude": 31.0353282, "Latitude": -17.8596062, "Facility_name": "Mbare Polyclinic", "Province": "Harare", "District": "Harare", "Ward": "11", "Ownership_type": "Public", "Ownership": "Local council", "EmOC_status": "Basic", "Services_offered": "Outpatient, maternity, and minor surgical services", "Facility_level": "Secondary", "Facility_type": "Polyclinic" }, "geometry": { "type": "Point", "coordinates": [ 31.0353282, -17.8596062 ] } },
{ "type": "Feature", "properties": { "Longitude": 30.9359634, "Latitude": -17.9080918, "Facility_name": "Glenview Satellite Clinic", "Province": "Harare", "District": "Harare", "Ward": "32", "Ownership_type": "Public", "Ownership": "Local council", "EmOC_status": "Not designated", "Services_offered": "Basic outpatient & maternal/child health services", "Facility_level": "Primary", "Facility_type": "Municipal clinic" }, "geometry": { "type": "Point", "coordinates": [ 30.9359634, -17.9080918 ] } },
{ "type": "Feature", "properties": { "Longitude": 31.0077501, "Latitude": -17.8641337, "Facility_name": "Southerton Primary Care Clinic", "Province": "Harare", "District": "Harare", "Ward": "13", "Ownership_type": "Public", "Ownership": "Local council", "EmOC_status": "Not designated", "Services_offered": "Basic outpatient & maternal/child health services", "Facility_level": "Primary", "Facility_type": "Municipal clinic" }, "geometry": { "type": "Point", "coordinates": [ 31.0077501, -17.8641337 ] } },
{ "type": "Feature", "properties": { "Longitude": 31.1564263, "Latitude": -17.8847555, "Facility_name": "Overspill Clinic", "Province": "Harare", "District": "Epworth", "Ward": "6", "Ownership_type": "Public", "Ownership": "Local council", "EmOC_status": "Not designated", "Services_offered": "Basic outpatient & maternal/child health services", "Facility_level": "Primary", "Facility_type": "Municipal clinic" }, "geometry": { "type": "Point", "coordinates": [ 31.1564263, -17.8847555 ] } },
{ "type": "Feature", "properties": { "Longitude": 30.9496744, "Latitude": -17.9047947, "Facility_name": "Glenview Makomva HMMAS", "Province": "Harare", "District": "Harare", "Ward": "30", "Ownership_type": "Private", "Ownership": "Group / Corporate owned", "EmOC_status": "Not designated", "Services_offered": "Basic outpatient & maternal/child health services", "Facility_level": "Primary", "Facility_type": "Private medical center" }, "geometry": { "type": "Point", "coordinates": [ 30.9496744, -17.9047947 ] } },
{ "type": "Feature", "properties": { "Longitude": 30.9398051, "Latitude": -17.9146145, "Facility_name": "Panashe Medical Center", "Province": "Harare", "District": "Harare", "Ward": "32", "Ownership_type": "Private", "Ownership": "Independent practice", "EmOC_status": "Not designated", "Services_offered": "Basic outpatient & maternal/child health services", "Facility_level": "Primary", "Facility_type": "Private medical center" }, "geometry": { "type": "Point", "coordinates": [ 30.9398051, -17.9146145 ] } },
{ "type": "Feature", "properties": { "Longitude": 30.9508545, "Latitude": -17.9077236, "Facility_name": "Glenview Polyclinic", "Province": "Harare", "District": "Harare", "Ward": "31", "Ownership_type": "Public", "Ownership": "Local council", "EmOC_status": "Basic", "Services_offered": "Outpatient, maternity, and minor surgical services", "Facility_level": "Secondary", "Facility_type": "Polyclinic" }, "geometry": { "type": "Point", "coordinates": [ 30.9508545, -17.9077236 ] } },
{ "type": "Feature", "properties": { "Longitude": 31.0544037, "Latitude": -17.8684279, "Facility_name": "Sunningdale Satellite Clinic", "Province": "Harare", "District": "Harare", "Ward": "10", "Ownership_type": "Public", "Ownership": "Local council", "EmOC_status": "Not designated", "Services_offered": "Basic outpatient & maternal/child health services", "Facility_level": "Primary", "Facility_type": "Municipal clinic" }, "geometry": { "type": "Point", "coordinates": [ 31.0544037, -17.8684279 ] } },
{ "type": "Feature", "properties": { "Longitude": 31.0242284, "Latitude": -17.8200878, "Facility_name": "Belvedere Family Health Services", "Province": "Harare", "District": "Harare", "Ward": "5", "Ownership_type": "Private", "Ownership": "Independent practice", "EmOC_status": "Not designated", "Services_offered": "Basic outpatient & maternal/child health services", "Facility_level": "Primary", "Facility_type": "Private clinic" }, "geometry": { "type": "Point", "coordinates": [ 31.0242284, -17.8200878 ] } },
{ "type": "Feature", "properties": { "Longitude": 31.0863881, "Latitude": -17.8257133, "Facility_name": "Eastlea Family Health Services", "Province": "Harare", "District": "Harare", "Ward": "2", "Ownership_type": "Private", "Ownership": "Independent practice", "EmOC_status": "Not designated", "Services_offered": "Basic outpatient & maternal/child health services", "Facility_level": "Primary", "Facility_type": "Private clinic" }, "geometry": { "type": "Point", "coordinates": [ 31.0863881, -17.8257133 ] } },
{ "type": "Feature", "properties": { "Longitude": 31.0436421, "Latitude": -17.8189459, "Facility_name": "Michael Gelfand Hospital", "Province": "Harare", "District": "Harare", "Ward": "6", "Ownership_type": "Private", "Ownership": "Independent practice", "EmOC_status": "Not designated", "Services_offered": "Full obstetric & surgical services", "Facility_level": "Secondary", "Facility_type": "Private hospital" }, "geometry": { "type": "Point", "coordinates": [ 31.0436421, -17.8189459 ] } },
{ "type": "Feature", "properties": { "Longitude": 31.0427798, "Latitude": -17.8182151, "Facility_name": "Samuel Leon Clinic", "Province": "Harare", "District": "Harare", "Ward": "6", "Ownership_type": "Private", "Ownership": "Independent practice", "EmOC_status": "Not designated", "Services_offered": "Basic outpatient & maternal/child health services", "Facility_level": "Primary", "Facility_type": "Private clinic" }, "geometry": { "type": "Point", "coordinates": [ 31.0427798, -17.8182151 ] } },
{ "type": "Feature", "properties": { "Longitude": 30.9745242, "Latitude": -17.8523322, "Facility_name": "CureMed", "Province": "Harare", "District": "Harare", "Ward": "14", "Ownership_type": "Private", "Ownership": "Independent practice", "EmOC_status": "Not applicable", "Services_offered": "Pharmaceutical dispensing & counseling services", "Facility_level": "Primary", "Facility_type": "Pharmacy" }, "geometry": { "type": "Point", "coordinates": [ 30.9745242, -17.8523322 ] } },
{ "type": "Feature", "properties": { "Longitude": 31.0622722, "Latitude": -18.0176, "Facility_name": "Chitungwiza General Hospital", "Province": "Harare", "District": "Chitungwiza", "Ward": "13", "Ownership_type": "Public", "Ownership": "Government / Ministry of Health and Child Care (MoHCC)", "EmOC_status": "Comprehensive", "Services_offered": "Full obstetric & surgical services", "Facility_level": "Tertiary", "Facility_type": "General hospital" }, "geometry": { "type": "Point", "coordinates": [ 31.0622722, -18.0176 ] } },
{ "type": "Feature", "properties": { "Longitude": 31.0580713, "Latitude": -18.006806, "Facility_name": "Zengeza 3 Clinic", "Province": "Harare", "District": "Chitungwiza", "Ward": "9", "Ownership_type": "Public", "Ownership": "Local council", "EmOC_status": "Not designated", "Services_offered": "Basic outpatient & maternal/child health services", "Facility_level": "Primary", "Facility_type": "Municipal clinic" }, "geometry": { "type": "Point", "coordinates": [ 31.0580713, -18.006806 ] } },
{ "type": "Feature", "properties": { "Longitude": 31.1045647, "Latitude": -18.0151237, "Facility_name": "Seke North Clinic", "Province": "Harare", "District": "Chitungwiza", "Ward": "25", "Ownership_type": "Public", "Ownership": "Local council", "EmOC_status": "Not designated", "Services_offered": "Basic outpatient & maternal/child health services", "Facility_level": "Primary", "Facility_type": "Municipal clinic" }, "geometry": { "type": "Point", "coordinates": [ 31.1045647, -18.0151237 ] } },
{ "type": "Feature", "properties": { "Longitude": 31.0761122, "Latitude": -18.0311077, "Facility_name": "Seke South Clinic", "Province": "Harare", "District": "Chitungwiza", "Ward": "18", "Ownership_type": "Public", "Ownership": "Local council", "EmOC_status": "Not designated", "Services_offered": "Basic outpatient & maternal/child health services", "Facility_level": "Primary", "Facility_type": "Municipal clinic" }, "geometry": { "type": "Point", "coordinates": [ 31.0761122, -18.0311077 ] } },
{ "type": "Feature", "properties": { "Longitude": 31.0430949, "Latitude": -17.994566, "Facility_name": "St. Mary's Clinic", "Province": "Harare", "District": "Chitungwiza", "Ward": "3", "Ownership_type": "Public", "Ownership": "Local council", "EmOC_status": "Not designated", "Services_offered": "Basic outpatient & maternal/child health services", "Facility_level": "Primary", "Facility_type": "Municipal clinic" }, "geometry": { "type": "Point", "coordinates": [ 31.0430949, -17.994566 ] } },
{ "type": "Feature", "properties": { "Longitude": 31.0439062, "Latitude": -17.9956719, "Facility_name": "24Hr St Mary's Medical Centre", "Province": "Harare", "District": "Chitungwiza", "Ward": "3", "Ownership_type": "Private", "Ownership": "Independent practice", "EmOC_status": "Not designated", "Services_offered": "Full obstetric & surgical services", "Facility_level": "Secondary", "Facility_type": "Private hospital" }, "geometry": { "type": "Point", "coordinates": [ 31.0439062, -17.9956719 ] } },
{ "type": "Feature", "properties": { "Longitude": 31.0494487, "Latitude": -17.9906106, "Facility_name": "Manyame Park 24hr Medical Centre", "Province": "Harare", "District": "Chitungwiza", "Ward": "2", "Ownership_type": "Private", "Ownership": "Independent practice", "EmOC_status": "Not designated", "Services_offered": "Full obstetric & surgical services", "Facility_level": "Secondary", "Facility_type": "Private hospital" }, "geometry": { "type": "Point", "coordinates": [ 31.0494487, -17.9906106 ] } },
{ "type": "Feature", "properties": { "Longitude": 31.0149005, "Latitude": -17.8284115, "Facility_name": "Belvedere Medical Center (BMC)", "Province": "Harare", "District": "Harare", "Ward": "5", "Ownership_type": "Private", "Ownership": "Group / Corporate owned", "EmOC_status": "Not designated", "Services_offered": "Full obstetric & surgical services", "Facility_level": "Secondary", "Facility_type": "Private hospital" }, "geometry": { "type": "Point", "coordinates": [ 31.0149005, -17.8284115 ] } },
{ "type": "Feature", "properties": { "Longitude": 31.0169011, "Latitude": -17.818159, "Facility_name": "Belvedere Maternity Hospital", "Province": "Harare", "District": "Harare", "Ward": "5", "Ownership_type": "Private", "Ownership": "Group / Corporate owned", "EmOC_status": "Not designated", "Services_offered": "Maternity, obstetric & maternal/child health services", "Facility_level": "Secondary", "Facility_type": "Private hospital" }, "geometry": { "type": "Point", "coordinates": [ 31.0169011, -17.818159 ] } },
{ "type": "Feature", "properties": { "Longitude": 30.9705867, "Latitude": -17.8544629, "Facility_name": "Kambuzuma Polyclinic", "Province": "Harare", "District": "Harare", "Ward": "14", "Ownership_type": "Public", "Ownership": "Local council", "EmOC_status": "Basic", "Services_offered": "Outpatient, maternity, and minor surgical services", "Facility_level": "Secondary", "Facility_type": "Polyclinic" }, "geometry": { "type": "Point", "coordinates": [ 30.9705867, -17.8544629 ] } },
{ "type": "Feature", "properties": { "Longitude": 30.9628144, "Latitude": -17.858924, "Facility_name": "St. Wilfred's Medical Center", "Province": "Harare", "District": "Harare", "Ward": "14", "Ownership_type": "Private", "Ownership": "Independent practice", "EmOC_status": "Not designated", "Services_offered": "Basic outpatient & maternal/child health services", "Facility_level": "Primary", "Facility_type": "Private medical center" }, "geometry": { "type": "Point", "coordinates": [ 30.9628144, -17.858924 ] } },
{ "type": "Feature", "properties": { "Longitude": 31.0858322, "Latitude": -17.8190242, "Facility_name": "Highlands Primary Care Clinic", "Province": "Harare", "District": "Harare", "Ward": "2", "Ownership_type": "Public", "Ownership": "Local council", "EmOC_status": "Not designated", "Services_offered": "Basic outpatient & maternal/child health services", "Facility_level": "Primary", "Facility_type": "Municipal clinic" }, "geometry": { "type": "Point", "coordinates": [ 31.0858322, -17.8190242 ] } },
{ "type": "Feature", "properties": { "Longitude": 31.0894797, "Latitude": -17.7990762, "Facility_name": "Highlands Clinic", "Province": "Harare", "District": "Harare", "Ward": "8", "Ownership_type": "Public", "Ownership": "Local council", "EmOC_status": "Not designated", "Services_offered": "Basic outpatient & maternal/child health services", "Facility_level": "Primary", "Facility_type": "Municipal clinic" }, "geometry": { "type": "Point", "coordinates": [ 31.0894797, -17.7990762 ] } },
{ "type": "Feature", "properties": { "Longitude": 31.1966445, "Latitude": -17.8355468, "Facility_name": "Mabvuku Polyclinic", "Province": "Harare", "District": "Harare", "Ward": "20", "Ownership_type": "Public", "Ownership": "Local council", "EmOC_status": "Basic", "Services_offered": "Outpatient, maternity, and minor surgical services", "Facility_level": "Secondary", "Facility_type": "Polyclinic" }, "geometry": { "type": "Point", "coordinates": [ 31.1966445, -17.8355468 ] } },
{ "type": "Feature", "properties": { "Longitude": 31.2134571, "Latitude": -17.8317694, "Facility_name": "Tafara Family Health Services", "Province": "Harare", "District": "Harare", "Ward": "20", "Ownership_type": "Public", "Ownership": "Local council", "EmOC_status": "Not designated", "Services_offered": "Basic outpatient & maternal/child health services", "Facility_level": "Primary", "Facility_type": "Municipal clinic" }, "geometry": { "type": "Point", "coordinates": [ 31.2134571, -17.8317694 ] } },
{ "type": "Feature", "properties": { "Longitude": 31.1842292, "Latitude": -17.8387607, "Facility_name": "Mabvuku Satellite Clinic", "Province": "Harare", "District": "Harare", "Ward": "21", "Ownership_type": "Public", "Ownership": "Local council", "EmOC_status": "Not designated", "Services_offered": "Basic outpatient & maternal/child health services", "Facility_level": "Primary", "Facility_type": "Municipal clinic" }, "geometry": { "type": "Point", "coordinates": [ 31.1842292, -17.8387607 ] } },
{ "type": "Feature", "properties": { "Longitude": 31.086431, "Latitude": -17.8789073, "Facility_name": "Hatfield Polyclinic", "Province": "Harare", "District": "Harare", "Ward": "22", "Ownership_type": "Public", "Ownership": "Local council", "EmOC_status": "Basic", "Services_offered": "Outpatient, maternity, and minor surgical services", "Facility_level": "Secondary", "Facility_type": "Polyclinic" }, "geometry": { "type": "Point", "coordinates": [ 31.086431, -17.8789073 ] } },
{ "type": "Feature", "properties": { "Longitude": 31.0425442, "Latitude": -17.8590504, "Facility_name": "Matapi Primary Care Clinic", "Province": "Harare", "District": "Harare", "Ward": "3", "Ownership_type": "Public", "Ownership": "Local council", "EmOC_status": "Not designated", "Services_offered": "Basic outpatient & maternal/child health services", "Facility_level": "Primary", "Facility_type": "Municipal clinic" }, "geometry": { "type": "Point", "coordinates": [ 31.0425442, -17.8590504 ] } },
{ "type": "Feature", "properties": { "Longitude": 31.0290557, "Latitude": -17.7818492, "Facility_name": "Avondale Satellite Clinic", "Province": "Harare", "District": "Harare", "Ward": "7", "Ownership_type": "Public", "Ownership": "Local council", "EmOC_status": "Not designated", "Services_offered": "Basic outpatient & maternal/child health services", "Facility_level": "Primary", "Facility_type": "Municipal clinic" }, "geometry": { "type": "Point", "coordinates": [ 31.0290557, -17.7818492 ] } },
{ "type": "Feature", "properties": { "Longitude": 30.9990429, "Latitude": -17.79133, "Facility_name": "Mabelreign Satellite Clinic", "Province": "Harare", "District": "Harare", "Ward": "16", "Ownership_type": "Public", "Ownership": "Local council", "EmOC_status": "Not designated", "Services_offered": "Basic outpatient & maternal/child health services", "Facility_level": "Primary", "Facility_type": "Municipal clinic" }, "geometry": { "type": "Point", "coordinates": [ 30.9990429, -17.79133 ] } },
{ "type": "Feature", "properties": { "Longitude": 30.9981294, "Latitude": -17.7565795, "Facility_name": "Malborough Clinic", "Province": "Harare", "District": "Harare", "Ward": "41", "Ownership_type": "Public", "Ownership": "Local council", "EmOC_status": "Not designated", "Services_offered": "Basic outpatient & maternal/child health services", "Facility_level": "Primary", "Facility_type": "Municipal clinic" }, "geometry": { "type": "Point", "coordinates": [ 30.9981294, -17.7565795 ] } },
{ "type": "Feature", "properties": { "Longitude": 31.1073806, "Latitude": -17.6977927, "Facility_name": "Hatcliffe Polyclinic", "Province": "Harare", "District": "Harare", "Ward": "Peri-urban/Informal", "Ownership_type": "Public", "Ownership": "Local council", "EmOC_status": "Basic", "Services_offered": "Outpatient, maternity, and minor surgical services", "Facility_level": "Secondary", "Facility_type": "Polyclinic" }, "geometry": { "type": "Point", "coordinates": [ 31.1073806, -17.6977927 ] } },
{ "type": "Feature", "properties": { "Longitude": 31.0093389, "Latitude": -17.8608142, "Facility_name": "First Mutual Southerton Medical Center", "Province": "Harare", "District": "Harare", "Ward": "13", "Ownership_type": "Private", "Ownership": "Group / Corporate owned", "EmOC_status": "Not designated", "Services_offered": "Basic outpatient & maternal/child health services", "Facility_level": "Primary", "Facility_type": "Private medical center" }, "geometry": { "type": "Point", "coordinates": [ 31.0093389, -17.8608142 ] } },
{ "type": "Feature", "properties": { "Longitude": 31.0123815, "Latitude": -17.860447, "Facility_name": "Harare Central Hospital", "Province": "Harare", "District": "Harare", "Ward": "13", "Ownership_type": "Public", "Ownership": "Government / Ministry of Health and Child Care (MoHCC)", "EmOC_status": "Comprehensive", "Services_offered": "Full obstetric & surgical services", "Facility_level": "Quaternary", "Facility_type": "Central hospital" }, "geometry": { "type": "Point", "coordinates": [ 31.0123815, -17.860447 ] } },
{ "type": "Feature", "properties": { "Longitude": 31.0393, "Latitude": -17.8666, "Facility_name": "Mbare Hostels Clinic", "Province": "Harare", "District": "Harare", "Ward": "3", "Ownership_type": "Public", "Ownership": "Local council", "EmOC_status": "Not designated", "Services_offered": "Basic outpatient & maternal/child health services", "Facility_level": "Primary", "Facility_type": "Municipal clinic" }, "geometry": { "type": "Point", "coordinates": [ 31.0393, -17.8666 ] } },
{ "type": "Feature", "properties": { "Longitude": 30.9689806, "Latitude": -17.9059035, "Facility_name": "Glennorah Satellite Clinic", "Province": "Harare", "District": "Harare", "Ward": "28", "Ownership_type": "Public", "Ownership": "Local council", "EmOC_status": "Not designated", "Services_offered": "Basic outpatient & maternal/child health services", "Facility_level": "Primary", "Facility_type": "Municipal clinic" }, "geometry": { "type": "Point", "coordinates": [ 30.9689806, -17.9059035 ] } },
{ "type": "Feature", "properties": { "Longitude": 30.9353756, "Latitude": -17.8914985, "Facility_name": "Budiriro Polyclinic", "Province": "Harare", "District": "Harare", "Ward": "33", "Ownership_type": "Public", "Ownership": "Local council", "EmOC_status": "Basic", "Services_offered": "Outpatient, maternity, and minor surgical services", "Facility_level": "Secondary", "Facility_type": "Polyclinic" }, "geometry": { "type": "Point", "coordinates": [ 30.9353756, -17.8914985 ] } },
{ "type": "Feature", "properties": { "Longitude": 30.9863558, "Latitude": -17.906475, "Facility_name": "Rutsanana Polyclinic", "Province": "Harare", "District": "Harare", "Ward": "27", "Ownership_type": "Public", "Ownership": "Local council", "EmOC_status": "Basic", "Services_offered": "Outpatient, maternity, and minor surgical services", "Facility_level": "Secondary", "Facility_type": "Polyclinic" }, "geometry": { "type": "Point", "coordinates": [ 30.9863558, -17.906475 ] } },
{ "type": "Feature", "properties": { "Longitude": 30.9861346, "Latitude": -17.9069971, "Facility_name": "Rutsanana Maternity Clinic", "Province": "Harare", "District": "Harare", "Ward": "27", "Ownership_type": "Public", "Ownership": "Local council", "EmOC_status": "Basic", "Services_offered": "Maternity, obstetric & maternal/child health services", "Facility_level": "Secondary", "Facility_type": "Maternity clinic" }, "geometry": { "type": "Point", "coordinates": [ 30.9861346, -17.9069971 ] } },
{ "type": "Feature", "properties": { "Longitude": 30.9844873, "Latitude": -17.8927072, "Facility_name": "Highfield Clinic and Maternity", "Province": "Harare", "District": "Harare", "Ward": "25", "Ownership_type": "Public", "Ownership": "Local council", "EmOC_status": "Basic", "Services_offered": "Maternity, obstetric & maternal/child health services", "Facility_level": "Secondary", "Facility_type": "Maternity clinic" }, "geometry": { "type": "Point", "coordinates": [ 30.9844873, -17.8927072 ] } },
{ "type": "Feature", "properties": { "Longitude": 30.9881415, "Latitude": -17.8934628, "Facility_name": "Highfield Medical and Dental Center", "Province": "Harare", "District": "Harare", "Ward": "25", "Ownership_type": "Private", "Ownership": "Group / Corporate owned", "EmOC_status": "Not designated", "Services_offered": "Basic outpatient & maternal/child health services", "Facility_level": "Primary", "Facility_type": "Private medical center" }, "geometry": { "type": "Point", "coordinates": [ 30.9881415, -17.8934628 ] } },
{ "type": "Feature", "properties": { "Longitude": 31.029374, "Latitude": -17.8601313, "Facility_name": "Beatrice Road Infectious Diseases Hospital", "Province": "Harare", "District": "Harare", "Ward": "11", "Ownership_type": "Public", "Ownership": "Local council", "EmOC_status": "Not designated", "Services_offered": "Infectious diseases treatment & specialized medical services", "Facility_level": "Secondary", "Facility_type": "Infectious diseases hospital" }, "geometry": { "type": "Point", "coordinates": [ 31.029374, -17.8601313 ] } },
{ "type": "Feature", "properties": { "Longitude": 31.0476048, "Latitude": -17.771293, "Facility_name": "Mt. Pleasant Clinic", "Province": "Harare", "District": "Harare", "Ward": "17", "Ownership_type": "Public", "Ownership": "Local council", "EmOC_status": "Not designated", "Services_offered": "Basic outpatient & maternal/child health services", "Facility_level": "Primary", "Facility_type": "Municipal clinic" }, "geometry": { "type": "Point", "coordinates": [ 31.0476048, -17.771293 ] } },
{ "type": "Feature", "properties": { "Longitude": 31.0429668, "Latitude": -17.8120131, "Facility_name": "Parirenyatwa Hospital", "Province": "Harare", "District": "Harare", "Ward": "6", "Ownership_type": "Public", "Ownership": "Government / Ministry of Health and Child Care (MoHCC)", "EmOC_status": "Comprehensive", "Services_offered": "Full obstetric & surgical services", "Facility_level": "Quaternary", "Facility_type": "Central hospital" }, "geometry": { "type": "Point", "coordinates": [ 31.0429668, -17.8120131 ] } },
{ "type": "Feature", "properties": { "Longitude": 30.9285039, "Latitude": -17.832204, "Facility_name": "Kuwadzana Polyclinic", "Province": "Harare", "District": "Harare", "Ward": "37", "Ownership_type": "Public", "Ownership": "Local council", "EmOC_status": "Basic", "Services_offered": "Outpatient, maternity, and minor surgical services", "Facility_level": "Secondary", "Facility_type": "Polyclinic" }, "geometry": { "type": "Point", "coordinates": [ 30.9285039, -17.832204 ] } },
{ "type": "Feature", "properties": { "Longitude": 30.9780836, "Latitude": -17.8337783, "Facility_name": "Warren Park Polyclinic", "Province": "Harare", "District": "Harare", "Ward": "15", "Ownership_type": "Public", "Ownership": "Local council", "EmOC_status": "Basic", "Services_offered": "Outpatient, maternity, and minor surgical services", "Facility_level": "Secondary", "Facility_type": "Polyclinic" }, "geometry": { "type": "Point", "coordinates": [ 30.9780836, -17.8337783 ] } },
{ "type": "Feature", "properties": { "Longitude": 31.0544416, "Latitude": -17.84704, "Facility_name": "Arcadia Primary Care Clinic", "Province": "Harare", "District": "Harare", "Ward": "2", "Ownership_type": "Private", "Ownership": "Group / Corporate owned", "EmOC_status": "Not designated", "Services_offered": "Basic outpatient & maternal/child health services", "Facility_level": "Primary", "Facility_type": "Private clinic" }, "geometry": { "type": "Point", "coordinates": [ 31.0544416, -17.84704 ] } },
{ "type": "Feature", "properties": { "Longitude": 31.0655226, "Latitude": -17.8399935, "Facility_name": "Braeside Family Health Services", "Province": "Harare", "District": "Harare", "Ward": "2", "Ownership_type": "Private", "Ownership": "Group / Corporate owned", "EmOC_status": "Not designated", "Services_offered": "Basic outpatient & maternal/child health services", "Facility_level": "Primary", "Facility_type": "Private clinic" }, "geometry": { "type": "Point", "coordinates": [ 31.0655226, -17.8399935 ] } },
{ "type": "Feature", "properties": { "Longitude": 31.0286679, "Latitude": -17.8193563, "Facility_name": "Wilkins Infectious Diseases Hospital", "Province": "Harare", "District": "Harare", "Ward": "5", "Ownership_type": "Public", "Ownership": "Local council", "EmOC_status": "Not designated", "Services_offered": "Infectious diseases treatment & specialized medical services", "Facility_level": "Secondary", "Facility_type": "Infectious diseases hospital" }, "geometry": { "type": "Point", "coordinates": [ 31.0286679, -17.8193563 ] } },
{ "type": "Feature", "properties": { "Longitude": 31.2317015, "Latitude": -17.9019062, "Facility_name": "Ruwa Rehabilitation Center", "Province": "Mashonaland East", "District": "Goromonzi", "Ward": "Peri-urban/Informal", "Ownership_type": "Public", "Ownership": "Government / Ministry of Health and Child Care (MoHCC)", "EmOC_status": "Not designated", "Services_offered": "Rehabilitation services", "Facility_level": "Secondary", "Facility_type": "Rehabilitation hospital" }, "geometry": { "type": "Point", "coordinates": [ 31.2317015, -17.9019062 ] } },
{ "type": "Feature", "properties": { "Longitude": 31.2416787, "Latitude": -17.896701, "Facility_name": "Ruwa Polyclinic", "Province": "Mashonaland East", "District": "Goromonzi", "Ward": "Peri-urban/Informal", "Ownership_type": "Public", "Ownership": "Local council", "EmOC_status": "Basic", "Services_offered": "Outpatient, maternity, and minor surgical services", "Facility_level": "Secondary", "Facility_type": "Polyclinic" }, "geometry": { "type": "Point", "coordinates": [ 31.2416787, -17.896701 ] } },
{ "type": "Feature", "properties": { "Longitude": 31.2374688, "Latitude": -17.8900971, "Facility_name": "Ruwa Clinic", "Province": "Mashonaland East", "District": "Goromonzi", "Ward": "Peri-urban/Informal", "Ownership_type": "Public", "Ownership": "Local council", "EmOC_status": "Not designated", "Services_offered": "Basic outpatient & maternal/child health services", "Facility_level": "Primary", "Facility_type": "Municipal clinic" }, "geometry": { "type": "Point", "coordinates": [ 31.2374688, -17.8900971 ] } },
{ "type": "Feature", "properties": { "Longitude": 31.241766802000001, "Latitude": -17.7879121, "Facility_name": "St. Anne's Hospital", "Province": "Harare", "District": "Harare", "Ward": "7", "Ownership_type": "Private", "Ownership": "Group / Corporate owned", "EmOC_status": "Not designated", "Services_offered": "Full obstetric & surgical services", "Facility_level": "Secondary", "Facility_type": "General hospital" }, "geometry": { "type": "Point", "coordinates": [ 31.241766802, -17.7879121 ] } },
{ "type": "Feature", "properties": { "Longitude": 31.1393594, "Latitude": -17.8996738, "Facility_name": "MSF Epworth", "Province": "Harare", "District": "Harare rural", "Ward": "1", "Ownership_type": "Private", "Ownership": "Group / Corporate owned", "EmOC_status": "Not designated", "Services_offered": "Basic outpatient & maternal/child health services", "Facility_level": "Primary", "Facility_type": "Private medical center" }, "geometry": { "type": "Point", "coordinates": [ 31.1393594, -17.8996738 ] } },
{ "type": "Feature", "properties": { "Longitude": 31.1394943, "Latitude": -17.9000885, "Facility_name": "Epworth Polyclinic Maternity Wing", "Province": "Harare", "District": "Harare rural", "Ward": "1", "Ownership_type": "Public", "Ownership": "Local council", "EmOC_status": "Basic", "Services_offered": "Maternity, obstetric & maternal/child health services", "Facility_level": "Secondary", "Facility_type": "Maternity clinic" }, "geometry": { "type": "Point", "coordinates": [ 31.1394943, -17.9000885 ] } },
{ "type": "Feature", "properties": { "Longitude": 31.1273558, "Latitude": -17.8794561, "Facility_name": "Epworth Mission Clinic", "Province": "Harare", "District": "Epworth", "Ward": "1", "Ownership_type": "Private", "Ownership": "Mission owned", "EmOC_status": "Not designated", "Services_offered": "Basic outpatient & maternal/child health services", "Facility_level": "Primary", "Facility_type": "Mission clinic" }, "geometry": { "type": "Point", "coordinates": [ 31.1273558, -17.8794561 ] } },
{ "type": "Feature", "properties": { "Longitude": 30.9347622, "Latitude": -17.7581774, "Facility_name": "Mt. Hampden Clinic", "Province": "Mashonaland West", "District": "Zvimba", "Ward": "Peri-urban/Informal", "Ownership_type": "Public", "Ownership": "Government / Ministry of Health and Child Care (MoHCC)", "EmOC_status": "Not designated", "Services_offered": "Basic outpatient & maternal/child health services", "Facility_level": "Primary", "Facility_type": "Municipal clinic" }, "geometry": { "type": "Point", "coordinates": [ 30.9347622, -17.7581774 ] } },
{ "type": "Feature", "properties": { "Longitude": 31.1061524, "Latitude": -17.84646, "Facility_name": "Zimbabwe Republic Police Masasa Clinic", "Province": "Harare", "District": "Harare", "Ward": "9", "Ownership_type": "Public", "Ownership": "Police owned – Zimbabwe Republic Police (ZRP Medical Services)", "EmOC_status": "Not designated", "Services_offered": "Outpatient, maternity, and minor surgical services", "Facility_level": "Secondary", "Facility_type": "Service clinic" }, "geometry": { "type": "Point", "coordinates": [ 31.1061524, -17.84646 ] } },
{ "type": "Feature", "properties": { "Longitude": 30.9794739, "Latitude": -17.8336903, "Facility_name": "Suburban 24HR", "Province": "Harare", "District": "Harare", "Ward": "15", "Ownership_type": "Public", "Ownership": "Local council", "EmOC_status": "Not designated", "Services_offered": "Basic outpatient & maternal/child health services", "Facility_level": "Primary", "Facility_type": "Municipal clinic" }, "geometry": { "type": "Point", "coordinates": [ 30.9794739, -17.8336903 ] } },
{ "type": "Feature", "properties": { "Longitude": 30.9277829, "Latitude": -17.8041471, "Facility_name": "Dzivarasekwa Polyclinic", "Province": "Harare", "District": "Harare", "Ward": "39", "Ownership_type": "Public", "Ownership": "Local council", "EmOC_status": "Basic", "Services_offered": "Outpatient, maternity, and minor surgical services", "Facility_level": "Secondary", "Facility_type": "Polyclinic" }, "geometry": { "type": "Point", "coordinates": [ 30.9277829, -17.8041471 ] } },
{ "type": "Feature", "properties": { "Longitude": 30.9280996, "Latitude": -17.8040537, "Facility_name": "Rujeko clinic", "Province": "Harare", "District": "Harare", "Ward": "39", "Ownership_type": "Public", "Ownership": "Local council", "EmOC_status": "Not designated", "Services_offered": "Basic outpatient & maternal/child health services", "Facility_level": "Primary", "Facility_type": "Municipal clinic" }, "geometry": { "type": "Point", "coordinates": [ 30.9280996, -17.8040537 ] } },
{ "type": "Feature", "properties": { "Longitude": 31.043889, "Latitude": -17.9947618, "Facility_name": "Sewer Section6 Huruyadzo", "Province": "Harare", "District": "Chitungwiza", "Ward": "3", "Ownership_type": "Private", "Ownership": "Independent practice", "EmOC_status": "Not applicable", "Services_offered": "Pharmaceutical dispensing & counseling services", "Facility_level": "Primary", "Facility_type": "Pharmacy" }, "geometry": { "type": "Point", "coordinates": [ 31.043889, -17.9947618 ] } },
{ "type": "Feature", "properties": { "Longitude": 31.0370865, "Latitude": -17.8036857, "Facility_name": "Shamrock Pharmacy", "Province": "Harare", "District": "Harare", "Ward": "7", "Ownership_type": "Private", "Ownership": "Independent practice", "EmOC_status": "Not applicable", "Services_offered": "Pharmaceutical dispensing & counseling services", "Facility_level": "Primary", "Facility_type": "Pharmacy" }, "geometry": { "type": "Point", "coordinates": [ 31.0370865, -17.8036857 ] } },
{ "type": "Feature", "properties": { "Longitude": 31.0378612, "Latitude": -17.8035034, "Facility_name": "KenLink Pharmacy", "Province": "Harare", "District": "Harare", "Ward": "7", "Ownership_type": "Private", "Ownership": "Independent practice", "EmOC_status": "Not applicable", "Services_offered": "Pharmaceutical dispensing & counseling services", "Facility_level": "Primary", "Facility_type": "Pharmacy" }, "geometry": { "type": "Point", "coordinates": [ 31.0378612, -17.8035034 ] } },
{ "type": "Feature", "properties": { "Longitude": 31.0374339, "Latitude": -17.8039429, "Facility_name": "Venus Dental and Medical Surgery", "Province": "Harare", "District": "Harare", "Ward": "7", "Ownership_type": "Private", "Ownership": "Independent practice", "EmOC_status": "Not designated", "Services_offered": "Basic outpatient & maternal/child health services", "Facility_level": "Primary", "Facility_type": "Private medical center" }, "geometry": { "type": "Point", "coordinates": [ 31.0374339, -17.8039429 ] } },
{ "type": "Feature", "properties": { "Longitude": 31.0377694, "Latitude": -17.8041958, "Facility_name": "Lost City Pharmacy", "Province": "Harare", "District": "Harare", "Ward": "7", "Ownership_type": "Private", "Ownership": "Independent practice", "EmOC_status": "Not applicable", "Services_offered": "Pharmaceutical dispensing & counseling services", "Facility_level": "Primary", "Facility_type": "Pharmacy" }, "geometry": { "type": "Point", "coordinates": [ 31.0377694, -17.8041958 ] } },
{ "type": "Feature", "properties": { "Longitude": 31.0398158, "Latitude": -17.821668, "Facility_name": "West end Clinic", "Province": "Harare", "District": "Harare", "Ward": "6", "Ownership_type": "Private", "Ownership": "Group / Corporate owned", "EmOC_status": "Not designated", "Services_offered": "Basic outpatient & maternal/child health services", "Facility_level": "Primary", "Facility_type": "Private medical center" }, "geometry": { "type": "Point", "coordinates": [ 31.0398158, -17.821668 ] } },
{ "type": "Feature", "properties": { "Longitude": 31.0395684, "Latitude": -17.8208736, "Facility_name": "PSMI West End Hospital", "Province": "Harare", "District": "Harare", "Ward": "6", "Ownership_type": "Private", "Ownership": "Group / Corporate owned", "EmOC_status": "Not designated", "Services_offered": "Full obstetric & surgical services", "Facility_level": "Secondary", "Facility_type": "Private hospital" }, "geometry": { "type": "Point", "coordinates": [ 31.0395684, -17.8208736 ] } },
{ "type": "Feature", "properties": { "Longitude": 31.0399044, "Latitude": -17.8200605, "Facility_name": "Diagnostic Radiology & M.R.I Center", "Province": "Harare", "District": "Harare", "Ward": "6", "Ownership_type": "Private", "Ownership": "Independent practice", "EmOC_status": "Not applicable", "Services_offered": "Diagnostic imaging (X-ray, CT, MRI, ultrasound)", "Facility_level": "Secondary", "Facility_type": "Private medical center" }, "geometry": { "type": "Point", "coordinates": [ 31.0399044, -17.8200605 ] } },
{ "type": "Feature", "properties": { "Longitude": 31.0470606, "Latitude": -17.8187013, "Facility_name": "Baines Hospital", "Province": "Harare", "District": "Harare", "Ward": "6", "Ownership_type": "Private", "Ownership": "Group / Corporate owned", "EmOC_status": "Not designated", "Services_offered": "Full obstetric & surgical services", "Facility_level": "Secondary", "Facility_type": "Private hospital" }, "geometry": { "type": "Point", "coordinates": [ 31.0470606, -17.8187013 ] } },
{ "type": "Feature", "properties": { "Longitude": 31.0442987, "Latitude": -17.828813, "Facility_name": "Adventist Medical Clinic", "Province": "Harare", "District": "Harare", "Ward": "6", "Ownership_type": "Private", "Ownership": "Mission owned", "EmOC_status": "Not designated", "Services_offered": "Basic outpatient & maternal/child health services", "Facility_level": "Primary", "Facility_type": "Mission clinic" }, "geometry": { "type": "Point", "coordinates": [ 31.0442987, -17.828813 ] } },
{ "type": "Feature", "properties": { "Longitude": 30.925481, "Latitude": -17.7827157, "Facility_name": "ZNA Presidential Guard (Dzivarasekwa Clinic)", "Province": "Harare", "District": "Harare", "Ward": "40", "Ownership_type": "Public", "Ownership": "Military owned - Zimbabwe Defence Forces (ZDF)", "EmOC_status": "Not designated", "Services_offered": "Outpatient, maternity, and minor surgical services", "Facility_level": "Secondary", "Facility_type": "Service clinic" }, "geometry": { "type": "Point", "coordinates": [ 30.925481, -17.7827157 ] } },
{ "type": "Feature", "properties": { "Longitude": 31.1215226, "Latitude": -17.7468112, "Facility_name": "Borrowdale Satellite Clinic", "Province": "Harare", "District": "Harare", "Ward": "18", "Ownership_type": "Public", "Ownership": "Local council", "EmOC_status": "Not designated", "Services_offered": "Basic outpatient & maternal/child health services", "Facility_level": "Primary", "Facility_type": "Municipal clinic" }, "geometry": { "type": "Point", "coordinates": [ 31.1215226, -17.7468112 ] } },
{ "type": "Feature", "properties": { "Longitude": 31.0438865, "Latitude": -17.8154557, "Facility_name": "Harare Government Dental Center", "Province": "Harare", "District": "Harare", "Ward": "6", "Ownership_type": "Public", "Ownership": "Government / Ministry of Health and Child Care (MoHCC)", "EmOC_status": "Not applicable", "Services_offered": "Dental and oral health services", "Facility_level": "Secondary", "Facility_type": "Government specialist clinic" }, "geometry": { "type": "Point", "coordinates": [ 31.0438865, -17.8154557 ] } },
{ "type": "Feature", "properties": { "Longitude": 31.0439596, "Latitude": -17.816395, "Facility_name": "School of Dental Therapy and Technology", "Province": "Harare", "District": "Harare", "Ward": "6", "Ownership_type": "Public", "Ownership": "Government / Ministry of Health and Child Care (MoHCC)", "EmOC_status": "Not applicable", "Services_offered": "Dental and oral health services", "Facility_level": "Secondary", "Facility_type": "Government specialist clinic" }, "geometry": { "type": "Point", "coordinates": [ 31.0439596, -17.816395 ] } },
{ "type": "Feature", "properties": { "Longitude": 31.0440095, "Latitude": -17.8325377, "Facility_name": "Red Cross Clinic", "Province": "Harare", "District": "Harare", "Ward": "6", "Ownership_type": "Private", "Ownership": "Group / Corporate owned", "EmOC_status": "Not designated", "Services_offered": "Basic outpatient & maternal/child health services", "Facility_level": "Primary", "Facility_type": "Private clinic" }, "geometry": { "type": "Point", "coordinates": [ 31.0440095, -17.8325377 ] } },
{ "type": "Feature", "properties": { "Longitude": 31.0556202, "Latitude": -17.825395, "Facility_name": "PSMI Dental Clinic", "Province": "Harare", "District": "Harare", "Ward": "6", "Ownership_type": "Private", "Ownership": "Group / Corporate owned", "EmOC_status": "Not designated", "Services_offered": "Dental and oral health services", "Facility_level": "Primary", "Facility_type": "Dental clinic" }, "geometry": { "type": "Point", "coordinates": [ 31.0556202, -17.825395 ] } },
{ "type": "Feature", "properties": { "Longitude": 31.0651037, "Latitude": -17.7931197, "Facility_name": "Avicenna Medical Center", "Province": "Harare", "District": "Harare", "Ward": "7", "Ownership_type": "Private", "Ownership": "Independent practice", "EmOC_status": "Not designated", "Services_offered": "Basic outpatient & maternal/child health services", "Facility_level": "Primary", "Facility_type": "Private medical center" }, "geometry": { "type": "Point", "coordinates": [ 31.0651037, -17.7931197 ] } },
{ "type": "Feature", "properties": { "Longitude": 31.068236, "Latitude": -17.7905399, "Facility_name": "Gunhill Medical Village", "Province": "Harare", "District": "Harare", "Ward": "7", "Ownership_type": "Private", "Ownership": "Group / Corporate owned", "EmOC_status": "Not designated", "Services_offered": "Basic outpatient & maternal/child health services", "Facility_level": "Primary", "Facility_type": "Private medical center" }, "geometry": { "type": "Point", "coordinates": [ 31.068236, -17.7905399 ] } },
{ "type": "Feature", "properties": { "Longitude": 31.0922494, "Latitude": -17.7632562, "Facility_name": "Borrowdale Trauma Center", "Province": "Harare", "District": "Harare", "Ward": "17", "Ownership_type": "Private", "Ownership": "Group / Corporate owned", "EmOC_status": "Not applicable", "Services_offered": "Full obstetric & surgical services", "Facility_level": "Tertiary", "Facility_type": "Private hospital" }, "geometry": { "type": "Point", "coordinates": [ 31.0922494, -17.7632562 ] } },
{ "type": "Feature", "properties": { "Longitude": 31.1257399, "Latitude": -17.8056144, "Facility_name": "Greenwood Pharmacy", "Province": "Harare", "District": "Harare", "Ward": "9", "Ownership_type": "Private", "Ownership": "Group / Corporate owned", "EmOC_status": "Not applicable", "Services_offered": "Pharmaceutical dispensing & counseling services", "Facility_level": "Primary", "Facility_type": "Pharmacy" }, "geometry": { "type": "Point", "coordinates": [ 31.1257399, -17.8056144 ] } },
{ "type": "Feature", "properties": { "Longitude": 31.1367633, "Latitude": -17.9356277, "Facility_name": "Sheena Clinic", "Province": "Mashonaland East", "District": "Goromonzi", "Ward": "Peri-urban/Informal", "Ownership_type": "Private", "Ownership": "Independent practice", "EmOC_status": "Not designated", "Services_offered": "Basic outpatient & maternal/child health services", "Facility_level": "Primary", "Facility_type": "Private clinic" }, "geometry": { "type": "Point", "coordinates": [ 31.1367633, -17.9356277 ] } },
{ "type": "Feature", "properties": { "Longitude": 30.998034, "Latitude": -17.7896803, "Facility_name": "Mabelreign 24hr Maternity Clinic", "Province": "Harare", "District": "Harare", "Ward": "16", "Ownership_type": "Private", "Ownership": "Independent practice", "EmOC_status": "Not designated", "Services_offered": "Maternity, obstetric & maternal/child health services", "Facility_level": "Secondary", "Facility_type": "Maternity clinic" }, "geometry": { "type": "Point", "coordinates": [ 30.998034, -17.7896803 ] } },
{ "type": "Feature", "properties": { "Longitude": 30.9989594, "Latitude": -17.78946, "Facility_name": "Divine Pharmacy", "Province": "Harare", "District": "Harare", "Ward": "16", "Ownership_type": "Private", "Ownership": "Group / Corporate owned", "EmOC_status": "Not applicable", "Services_offered": "Pharmaceutical dispensing & counseling services", "Facility_level": "Primary", "Facility_type": "Pharmacy" }, "geometry": { "type": "Point", "coordinates": [ 30.9989594, -17.78946 ] } },
{ "type": "Feature", "properties": { "Longitude": 31.0880972, "Latitude": -17.7598383, "Facility_name": "QV Pharmacy", "Province": "Harare", "District": "Harare", "Ward": "17", "Ownership_type": "Private", "Ownership": "Group / Corporate owned", "EmOC_status": "Not applicable", "Services_offered": "Pharmaceutical dispensing & counseling services", "Facility_level": "Primary", "Facility_type": "Pharmacy" }, "geometry": { "type": "Point", "coordinates": [ 31.0880972, -17.7598383 ] } },
{ "type": "Feature", "properties": { "Longitude": 31.1194635, "Latitude": -17.7827497, "Facility_name": "Medicine Chest", "Province": "Harare", "District": "Harare", "Ward": "8", "Ownership_type": "Private", "Ownership": "Group / Corporate owned", "EmOC_status": "Not applicable", "Services_offered": "Pharmaceutical dispensing & counseling services", "Facility_level": "Primary", "Facility_type": "Pharmacy" }, "geometry": { "type": "Point", "coordinates": [ 31.1194635, -17.7827497 ] } },
{ "type": "Feature", "properties": { "Longitude": 31.1090037, "Latitude": -17.8582471, "Facility_name": "Msasa Park Clinic", "Province": "Harare", "District": "Harare", "Ward": "22", "Ownership_type": "Private", "Ownership": "Independent practice", "EmOC_status": "Not designated", "Services_offered": "Full obstetric & surgical services", "Facility_level": "Secondary", "Facility_type": "Private clinic" }, "geometry": { "type": "Point", "coordinates": [ 31.1090037, -17.8582471 ] } },
{ "type": "Feature", "properties": { "Longitude": 30.8977438, "Latitude": -17.8257683, "Facility_name": "Kuwadzana 4 Satellite Clinic", "Province": "Harare", "District": "Harare", "Ward": "44", "Ownership_type": "Public", "Ownership": "Local council", "EmOC_status": "Not designated", "Services_offered": "Basic outpatient & maternal/child health services", "Facility_level": "Primary", "Facility_type": "Municipal clinic" }, "geometry": { "type": "Point", "coordinates": [ 30.8977438, -17.8257683 ] } },
{ "type": "Feature", "properties": { "Longitude": 31.1458099, "Latitude": -17.85445889, "Facility_name": "Zimbabwe National Army Msasa Clinic", "Province": "Harare", "District": "Harare", "Ward": "9", "Ownership_type": "Public", "Ownership": "Military owned - Zimbabwe Defence Forces (ZDF)", "EmOC_status": "Not designated", "Services_offered": "Outpatient, maternity, and minor surgical services", "Facility_level": "Secondary", "Facility_type": "Service clinic" }, "geometry": { "type": "Point", "coordinates": [ 31.1458099, -17.85445889 ] } },
{ "type": "Feature", "properties": { "Longitude": 30.9619537, "Latitude": -17.8573031, "Facility_name": "Section 5", "Province": "Harare", "District": "Harare", "Ward": "14", "Ownership_type": "Private", "Ownership": "Independent practice", "EmOC_status": "Not designated", "Services_offered": "Basic outpatient & maternal/child health services", "Facility_level": "Primary", "Facility_type": "Private clinic" }, "geometry": { "type": "Point", "coordinates": [ 30.9619537, -17.8573031 ] } },
{ "type": "Feature", "properties": { "Longitude": 31.050074, "Latitude": -17.81772, "Facility_name": "Trinity Pharmacy", "Province": "Harare", "District": "Harare", "Ward": "6", "Ownership_type": "Private", "Ownership": "Group / Corporate owned", "EmOC_status": "Not applicable", "Services_offered": "Pharmaceutical dispensing & counseling services", "Facility_level": "Primary", "Facility_type": "Pharmacy" }, "geometry": { "type": "Point", "coordinates": [ 31.050074, -17.81772 ] } },
{ "type": "Feature", "properties": { "Longitude": 31.1716781, "Latitude": -17.8086276, "Facility_name": "Support Unit Hospital", "Province": "Harare", "District": "Harare", "Ward": "9", "Ownership_type": "Public", "Ownership": "Police owned – Zimbabwe Republic Police (ZRP Medical Services)", "EmOC_status": "Not designated", "Services_offered": "Full obstetric & surgical services", "Facility_level": "Secondary", "Facility_type": "Service hospital" }, "geometry": { "type": "Point", "coordinates": [ 31.1716781, -17.8086276 ] } },
{ "type": "Feature", "properties": { "Longitude": 30.9913296, "Latitude": -17.893105, "Facility_name": "Medbright Pharmacy", "Province": "Harare", "District": "Harare", "Ward": "24", "Ownership_type": "Private", "Ownership": "Independent practice", "EmOC_status": "Not applicable", "Services_offered": "Pharmaceutical dispensing & counseling services", "Facility_level": "Primary", "Facility_type": "Pharmacy" }, "geometry": { "type": "Point", "coordinates": [ 30.9913296, -17.893105 ] } },
{ "type": "Feature", "properties": { "Longitude": 31.0550294, "Latitude": -17.8198661, "Facility_name": "Dr. Danso", "Province": "Harare", "District": "Harare", "Ward": "6", "Ownership_type": "Private", "Ownership": "Independent practice", "EmOC_status": "Not designated", "Services_offered": "Basic outpatient & maternal/child health services", "Facility_level": "Primary", "Facility_type": "Private clinic" }, "geometry": { "type": "Point", "coordinates": [ 31.0550294, -17.8198661 ] } },
{ "type": "Feature", "properties": { "Longitude": 31.042533, "Latitude": -17.8057796, "Facility_name": "Health Point", "Province": "Harare", "District": "Harare", "Ward": "6", "Ownership_type": "Private", "Ownership": "Group / Corporate owned", "EmOC_status": "Not designated", "Services_offered": "Outpatient, maternity, and minor surgical services", "Facility_level": "Secondary", "Facility_type": "Private hospital" }, "geometry": { "type": "Point", "coordinates": [ 31.042533, -17.8057796 ] } },
{ "type": "Feature", "properties": { "Longitude": 31.0905042, "Latitude": -17.9208772, "Facility_name": "Kentucky Prison Clinic", "Province": "Harare", "District": "Harare rural", "Ward": "1", "Ownership_type": "Public", "Ownership": "Police owned – Zimbabwe Republic Police (ZRP Medical Services)", "EmOC_status": "Not designated", "Services_offered": "Basic outpatient & maternal/child health services", "Facility_level": "Primary", "Facility_type": "Service clinic" }, "geometry": { "type": "Point", "coordinates": [ 31.0905042, -17.9208772 ] } },
{ "type": "Feature", "properties": { "Longitude": 31.0435592, "Latitude": -17.8308036, "Facility_name": "HealthLink Pharmacy", "Province": "Harare", "District": "Harare", "Ward": "6", "Ownership_type": "Private", "Ownership": "Group / Corporate owned", "EmOC_status": "Not applicable", "Services_offered": "Pharmaceutical dispensing & counseling services", "Facility_level": "Primary", "Facility_type": "Pharmacy" }, "geometry": { "type": "Point", "coordinates": [ 31.0435592, -17.8308036 ] } },
{ "type": "Feature", "properties": { "Longitude": 30.9236258, "Latitude": -17.8810764, "Facility_name": "Budiriro Satellite Clinic", "Province": "Harare", "District": "Harare", "Ward": "43", "Ownership_type": "Public", "Ownership": "Local council", "EmOC_status": "Not designated", "Services_offered": "Basic outpatient & maternal/child health services", "Facility_level": "Primary", "Facility_type": "Municipal clinic" }, "geometry": { "type": "Point", "coordinates": [ 30.9236258, -17.8810764 ] } },
{ "type": "Feature", "properties": { "Longitude": 31.0395316, "Latitude": -17.8217487, "Facility_name": "Westend Extension", "Province": "Harare", "District": "Harare", "Ward": "6", "Ownership_type": "Private", "Ownership": "Group / Corporate owned", "EmOC_status": "Not designated", "Services_offered": "Full obstetric & surgical services", "Facility_level": "Secondary", "Facility_type": "Private hospital" }, "geometry": { "type": "Point", "coordinates": [ 31.0395316, -17.8217487 ] } },
{ "type": "Feature", "properties": { "Longitude": 30.9862102, "Latitude": -17.9055881, "Facility_name": "Glennorah Polyclinic", "Province": "Harare", "District": "Harare", "Ward": "27", "Ownership_type": "Public", "Ownership": "Local council", "EmOC_status": "Basic", "Services_offered": "Outpatient, maternity, and minor surgical services", "Facility_level": "Secondary", "Facility_type": "Polyclinic" }, "geometry": { "type": "Point", "coordinates": [ 30.9862102, -17.9055881 ] } },
{ "type": "Feature", "properties": { "Longitude": 30.9406984, "Latitude": -17.9151676, "Facility_name": "KJellssons Medical & Maternity Centre", "Province": "Harare", "District": "Harare", "Ward": "32", "Ownership_type": "Private", "Ownership": "Independent practice", "EmOC_status": "Not designated", "Services_offered": "Maternity, obstetric & maternal/child health services", "Facility_level": "Secondary", "Facility_type": "Maternity clinic" }, "geometry": { "type": "Point", "coordinates": [ 30.9406984, -17.9151676 ] } },
{ "type": "Feature", "properties": { "Longitude": 31.0410957, "Latitude": -17.802172, "Facility_name": "Dr M.F Dube Specialist Psychiatrist", "Province": "Harare", "District": "Harare", "Ward": "7", "Ownership_type": "Private", "Ownership": "Independent practice", "EmOC_status": "Not applicable", "Services_offered": "Psychiatric services", "Facility_level": "Primary", "Facility_type": "Private medical center" }, "geometry": { "type": "Point", "coordinates": [ 31.0410957, -17.802172 ] } },
{ "type": "Feature", "properties": { "Longitude": 31.0819289, "Latitude": -17.9346125, "Facility_name": "Kabrit Clinic", "Province": "Harare", "District": "Harare", "Ward": "1", "Ownership_type": "Public", "Ownership": "Local council", "EmOC_status": "Not designated", "Services_offered": "Basic outpatient & maternal/child health services", "Facility_level": "Primary", "Facility_type": "Municipal clinic" }, "geometry": { "type": "Point", "coordinates": [ 31.0819289, -17.9346125 ] } },
{ "type": "Feature", "properties": { "Longitude": 31.0495657, "Latitude": -17.8291792, "Facility_name": "FHC Pharmacy", "Province": "Harare", "District": "Harare", "Ward": "6", "Ownership_type": "Private", "Ownership": "Group / Corporate owned", "EmOC_status": "Not applicable", "Services_offered": "Pharmaceutical dispensing & counseling services", "Facility_level": "Primary", "Facility_type": "Pharmacy" }, "geometry": { "type": "Point", "coordinates": [ 31.0495657, -17.8291792 ] } },
{ "type": "Feature", "properties": { "Longitude": 31.0495256, "Latitude": -17.8287553, "Facility_name": "Bestzone Pharmacy", "Province": "Harare", "District": "Harare", "Ward": "6", "Ownership_type": "Private", "Ownership": "Group / Corporate owned", "EmOC_status": "Not applicable", "Services_offered": "Pharmaceutical dispensing & counseling services", "Facility_level": "Primary", "Facility_type": "Pharmacy" }, "geometry": { "type": "Point", "coordinates": [ 31.0495256, -17.8287553 ] } },
{ "type": "Feature", "properties": { "Longitude": 31.0443196, "Latitude": -17.808853, "Facility_name": "Prescription Hope Pharmacy", "Province": "Harare", "District": "Harare", "Ward": "6", "Ownership_type": "Private", "Ownership": "Independent practice", "EmOC_status": "Not applicable", "Services_offered": "Pharmaceutical dispensing & counseling services", "Facility_level": "Primary", "Facility_type": "Pharmacy" }, "geometry": { "type": "Point", "coordinates": [ 31.0443196, -17.808853 ] } },
{ "type": "Feature", "properties": { "Longitude": 31.1914571, "Latitude": -17.795279, "Facility_name": "Zimbabwe Prison and Correctional Services Clinic", "Province": "Harare", "District": "Harare", "Ward": "9", "Ownership_type": "Public", "Ownership": "Prison Services – Zimbabwe Prisons and Correctional Services (ZPCS)", "EmOC_status": "Not designated", "Services_offered": "Basic outpatient & maternal/child health services", "Facility_level": "Primary", "Facility_type": "Service clinic" }, "geometry": { "type": "Point", "coordinates": [ 31.1914571, -17.795279 ] } },
{ "type": "Feature", "properties": { "Longitude": 31.0502403, "Latitude": -17.8312876, "Facility_name": "Booties", "Province": "Harare", "District": "Harare", "Ward": "6", "Ownership_type": "Private", "Ownership": "Group / Corporate owned", "EmOC_status": "Not applicable", "Services_offered": "Pharmaceutical dispensing & counseling services", "Facility_level": "Primary", "Facility_type": "Pharmacy" }, "geometry": { "type": "Point", "coordinates": [ 31.0502403, -17.8312876 ] } },
{ "type": "Feature", "properties": { "Longitude": 31.0520437, "Latitude": -17.7903469, "Facility_name": "Health First Family Clinic - Dr J Chagonda", "Province": "Harare", "District": "Harare", "Ward": "7", "Ownership_type": "Private", "Ownership": "Independent practice", "EmOC_status": "Not designated", "Services_offered": "Basic outpatient & maternal/child health services", "Facility_level": "Primary", "Facility_type": "Private clinic" }, "geometry": { "type": "Point", "coordinates": [ 31.0520437, -17.7903469 ] } },
{ "type": "Feature", "properties": { "Longitude": 31.0487757, "Latitude": -17.7919888, "Facility_name": "Dr. D Djordjevic", "Province": "Harare", "District": "Harare", "Ward": "7", "Ownership_type": "Private", "Ownership": "Independent practice", "EmOC_status": "Comprehensive", "Services_offered": "Full obstetric & surgical services", "Facility_level": "Secondary", "Facility_type": "Private medical center" }, "geometry": { "type": "Point", "coordinates": [ 31.0487757, -17.7919888 ] } },
{ "type": "Feature", "properties": { "Longitude": 31.0560003, "Latitude": -17.7823232, "Facility_name": "University of Zimbabwe Students Clinic", "Province": "Harare", "District": "Harare", "Ward": "17", "Ownership_type": "Public", "Ownership": "Government / Ministry of Higher and Tertiary Education, Innovation, Science and Technology Development", "EmOC_status": "Not designated", "Services_offered": "Basic outpatient & maternal/child health services", "Facility_level": "Primary", "Facility_type": "Service clinic" }, "geometry": { "type": "Point", "coordinates": [ 31.0560003, -17.7823232 ] } },
{ "type": "Feature", "properties": { "Longitude": 31.0341161, "Latitude": -17.800039, "Facility_name": "Health mode Pharmacy", "Province": "Harare", "District": "Harare", "Ward": "7", "Ownership_type": "Private", "Ownership": "Group / Corporate owned", "EmOC_status": "Not applicable", "Services_offered": "Pharmaceutical dispensing & counseling services", "Facility_level": "Primary", "Facility_type": "Pharmacy" }, "geometry": { "type": "Point", "coordinates": [ 31.0341161, -17.800039 ] } },
{ "type": "Feature", "properties": { "Longitude": 31.0437533, "Latitude": -17.8292937, "Facility_name": "Greenwood Pharmacy", "Province": "Harare", "District": "Harare", "Ward": "6", "Ownership_type": "Private", "Ownership": "Group / Corporate owned", "EmOC_status": "Not applicable", "Services_offered": "Pharmaceutical dispensing & counseling services", "Facility_level": "Primary", "Facility_type": "Pharmacy" }, "geometry": { "type": "Point", "coordinates": [ 31.0437533, -17.8292937 ] } }
]
}
