{
"type": "FeatureCollection",
"name": "healthcare_facilities_harare_emoc",
"crs": { "type": "name", "properties": { "name": "urn:ogc:def:crs:OGC:1.3:CRS84" } },
"features": [
{ "type": "Feature", "properties": { "Longitude": 30.9944021, "Latitude": -17.8841736, "Facility_name": "Highfields Polyclinic", "Province": "Harare", "District": "Harare", "Ward": "25", "Ownership_type": "Public", "Ownership": "Local council", "EmOC_status": "Basic", "Services_offered": "Outpatient, maternity, and minor surgical services", "Facility_level": "Secondary", "Facility_type": "Polyclinic", "local_validation": "Public Basic EmOC", "hcf_id": 0 }, "geometry": { "type": "Point", "coordinates": [ 30.9944021, -17.8841736 ] } },
{ "type": "Feature", "properties": { "Longitude": 31.0353282, "Latitude": -17.8596062, "Facility_name": "Mbare Polyclinic", "Province": "Harare", "District": "Harare", "Ward": "11", "Ownership_type": "Public", "Ownership": "Local council", "EmOC_status": "Basic", "Services_offered": "Outpatient, maternity, and minor surgical services", "Facility_level": "Secondary", "Facility_type": "Polyclinic", "local_validation": "Public Basic EmOC", "hcf_id": 1 }, "geometry": { "type": "Point", "coordinates": [ 31.0353282, -17.8596062 ] } },
{ "type": "Feature", "properties": { "Longitude": 30.9508545, "Latitude": -17.9077236, "Facility_name": "Glenview Polyclinic", "Province": "Harare", "District": "Harare", "Ward": "31", "Ownership_type": "Public", "Ownership": "Local council", "EmOC_status": "Basic", "Services_offered": "Outpatient, maternity, and minor surgical services", "Facility_level": "Secondary", "Facility_type": "Polyclinic", "local_validation": "Public Basic EmOC", "hcf_id": 2 }, "geometry": { "type": "Point", "coordinates": [ 30.9508545, -17.9077236 ] } },
{ "type": "Feature", "properties": { "Longitude": 31.0622722, "Latitude": -18.0176, "Facility_name": "Chitungwiza General Hospital", "Province": "Harare", "District": "Chitungwiza", "Ward": "13", "Ownership_type": "Public", "Ownership": "Government / Ministry of Health and Child Care (MoHCC)", "EmOC_status": "Comprehensive", "Services_offered": "Full obstetric & surgical services", "Facility_level": "Tertiary", "Facility_type": "General hospital", "local_validation": "Public Comprehensive EmOC", "hcf_id": 3 }, "geometry": { "type": "Point", "coordinates": [ 31.0622722, -18.0176 ] } },
{ "type": "Feature", "properties": { "Longitude": 30.9705867, "Latitude": -17.8544629, "Facility_name": "Kambuzuma Polyclinic", "Province": "Harare", "District": "Harare", "Ward": "14", "Ownership_type": "Public", "Ownership": "Local council", "EmOC_status": "Basic", "Services_offered": "Outpatient, maternity, and minor surgical services", "Facility_level": "Secondary", "Facility_type": "Polyclinic", "local_validation": "Public Basic EmOC", "hcf_id": 4 }, "geometry": { "type": "Point", "coordinates": [ 30.9705867, -17.8544629 ] } },
{ "type": "Feature", "properties": { "Longitude": 31.1966445, "Latitude": -17.8355468, "Facility_name": "Mabvuku Polyclinic", "Province": "Harare", "District": "Harare", "Ward": "20", "Ownership_type": "Public", "Ownership": "Local council", "EmOC_status": "Basic", "Services_offered": "Outpatient, maternity, and minor surgical services", "Facility_level": "Secondary", "Facility_type": "Polyclinic", "local_validation": "Public Basic EmOC", "hcf_id": 5 }, "geometry": { "type": "Point", "coordinates": [ 31.1966445, -17.8355468 ] } },
{ "type": "Feature", "properties": { "Longitude": 31.086431, "Latitude": -17.8789073, "Facility_name": "Hatfield Polyclinic", "Province": "Harare", "District": "Harare", "Ward": "22", "Ownership_type": "Public", "Ownership": "Local council", "EmOC_status": "Basic", "Services_offered": "Outpatient, maternity, and minor surgical services", "Facility_level": "Secondary", "Facility_type": "Polyclinic", "local_validation": "Public Basic EmOC", "hcf_id": 6 }, "geometry": { "type": "Point", "coordinates": [ 31.086431, -17.8789073 ] } },
{ "type": "Feature", "properties": { "Longitude": 31.1073806, "Latitude": -17.6977927, "Facility_name": "Hatcliffe Polyclinic", "Province": "Harare", "District": "Harare", "Ward": "Peri-urban/Informal", "Ownership_type": "Public", "Ownership": "Local council", "EmOC_status": "Basic", "Services_offered": "Outpatient, maternity, and minor surgical services", "Facility_level": "Secondary", "Facility_type": "Polyclinic", "local_validation": "Public Basic EmOC", "hcf_id": 7 }, "geometry": { "type": "Point", "coordinates": [ 31.1073806, -17.6977927 ] } },
{ "type": "Feature", "properties": { "Longitude": 31.0123815, "Latitude": -17.860447, "Facility_name": "Harare Central Hospital", "Province": "Harare", "District": "Harare", "Ward": "13", "Ownership_type": "Public", "Ownership": "Government / Ministry of Health and Child Care (MoHCC)", "EmOC_status": "Comprehensive", "Services_offered": "Full obstetric & surgical services", "Facility_level": "Quaternary", "Facility_type": "Central hospital", "local_validation": "Public Comprehensive EmOC", "hcf_id": 8 }, "geometry": { "type": "Point", "coordinates": [ 31.0123815, -17.860447 ] } },
{ "type": "Feature", "properties": { "Longitude": 30.9353756, "Latitude": -17.8914985, "Facility_name": "Budiriro Polyclinic", "Province": "Harare", "District": "Harare", "Ward": "33", "Ownership_type": "Public", "Ownership": "Local council", "EmOC_status": "Basic", "Services_offered": "Outpatient, maternity, and minor surgical services", "Facility_level": "Secondary", "Facility_type": "Polyclinic", "local_validation": "Public Basic EmOC", "hcf_id": 9 }, "geometry": { "type": "Point", "coordinates": [ 30.9353756, -17.8914985 ] } },
{ "type": "Feature", "properties": { "Longitude": 30.9863558, "Latitude": -17.906475, "Facility_name": "Rutsanana Polyclinic", "Province": "Harare", "District": "Harare", "Ward": "27", "Ownership_type": "Public", "Ownership": "Local council", "EmOC_status": "Basic", "Services_offered": "Outpatient, maternity, and minor surgical services", "Facility_level": "Secondary", "Facility_type": "Polyclinic", "local_validation": "Public Basic EmOC", "hcf_id": 10 }, "geometry": { "type": "Point", "coordinates": [ 30.9863558, -17.906475 ] } },
{ "type": "Feature", "properties": { "Longitude": 30.9861346, "Latitude": -17.9069971, "Facility_name": "Rutsanana Maternity Clinic", "Province": "Harare", "District": "Harare", "Ward": "27", "Ownership_type": "Public", "Ownership": "Local council", "EmOC_status": "Basic", "Services_offered": "Maternity, obstetric & maternal/child health services", "Facility_level": "Secondary", "Facility_type": "Maternity clinic", "local_validation": "Public Basic EmOC", "hcf_id": 11 }, "geometry": { "type": "Point", "coordinates": [ 30.9861346, -17.9069971 ] } },
{ "type": "Feature", "properties": { "Longitude": 30.9844873, "Latitude": -17.8927072, "Facility_name": "Highfield Clinic and Maternity", "Province": "Harare", "District": "Harare", "Ward": "25", "Ownership_type": "Public", "Ownership": "Local council", "EmOC_status": "Basic", "Services_offered": "Maternity, obstetric & maternal/child health services", "Facility_level": "Secondary", "Facility_type": "Maternity clinic", "local_validation": "Public Basic EmOC", "hcf_id": 12 }, "geometry": { "type": "Point", "coordinates": [ 30.9844873, -17.8927072 ] } },
{ "type": "Feature", "properties": { "Longitude": 31.0429668, "Latitude": -17.8120131, "Facility_name": "Parirenyatwa Hospital", "Province": "Harare", "District": "Harare", "Ward": "6", "Ownership_type": "Public", "Ownership": "Government / Ministry of Health and Child Care (MoHCC)", "EmOC_status": "Comprehensive", "Services_offered": "Full obstetric & surgical services", "Facility_level": "Quaternary", "Facility_type": "Central hospital", "local_validation": "Public Comprehensive EmOC", "hcf_id": 13 }, "geometry": { "type": "Point", "coordinates": [ 31.0429668, -17.8120131 ] } },
{ "type": "Feature", "properties": { "Longitude": 30.9285039, "Latitude": -17.832204, "Facility_name": "Kuwadzana Polyclinic", "Province": "Harare", "District": "Harare", "Ward": "37", "Ownership_type": "Public", "Ownership": "Local council", "EmOC_status": "Basic", "Services_offered": "Outpatient, maternity, and minor surgical services", "Facility_level": "Secondary", "Facility_type": "Polyclinic", "local_validation": "Public Basic EmOC", "hcf_id": 14 }, "geometry": { "type": "Point", "coordinates": [ 30.9285039, -17.832204 ] } },
{ "type": "Feature", "properties": { "Longitude": 30.9780836, "Latitude": -17.8337783, "Facility_name": "Warren Park Polyclinic", "Province": "Harare", "District": "Harare", "Ward": "15", "Ownership_type": "Public", "Ownership": "Local council", "EmOC_status": "Basic", "Services_offered": "Outpatient, maternity, and minor surgical services", "Facility_level": "Secondary", "Facility_type": "Polyclinic", "local_validation": "Public Basic EmOC", "hcf_id": 15 }, "geometry": { "type": "Point", "coordinates": [ 30.9780836, -17.8337783 ] } },
{ "type": "Feature", "properties": { "Longitude": 31.2416787, "Latitude": -17.896701, "Facility_name": "Ruwa Polyclinic", "Province": "Mashonaland East", "District": "Goromonzi", "Ward": "Peri-urban/Informal", "Ownership_type": "Public", "Ownership": "Local council", "EmOC_status": "Basic", "Services_offered": "Outpatient, maternity, and minor surgical services", "Facility_level": "Secondary", "Facility_type": "Polyclinic", "local_validation": "Public Basic EmOC", "hcf_id": 16 }, "geometry": { "type": "Point", "coordinates": [ 31.2416787, -17.896701 ] } },
{ "type": "Feature", "properties": { "Longitude": 31.1394943, "Latitude": -17.9000885, "Facility_name": "Epworth Polyclinic Maternity Wing", "Province": "Harare", "District": "Harare rural", "Ward": "1", "Ownership_type": "Public", "Ownership": "Local council", "EmOC_status": "Basic", "Services_offered": "Maternity, obstetric & maternal/child health services", "Facility_level": "Secondary", "Facility_type": "Maternity clinic", "local_validation": "Public Basic EmOC", "hcf_id": 17 }, "geometry": { "type": "Point", "coordinates": [ 31.1394943, -17.9000885 ] } },
{ "type": "Feature", "properties": { "Longitude": 30.9277829, "Latitude": -17.8041471, "Facility_name": "Dzivarasekwa Polyclinic", "Province": "Harare", "District": "Harare", "Ward": "39", "Ownership_type": "Public", "Ownership": "Local council", "EmOC_status": "Basic", "Services_offered": "Outpatient, maternity, and minor surgical services", "Facility_level": "Secondary", "Facility_type": "Polyclinic", "local_validation": "Public Basic EmOC", "hcf_id": 18 }, "geometry": { "type": "Point", "coordinates": [ 30.9277829, -17.8041471 ] } },
{ "type": "Feature", "properties": { "Longitude": 30.9862102, "Latitude": -17.9055881, "Facility_name": "Glennorah Polyclinic", "Province": "Harare", "District": "Harare", "Ward": "27", "Ownership_type": "Public", "Ownership": "Local council", "EmOC_status": "Basic", "Services_offered": "Outpatient, maternity, and minor surgical services", "Facility_level": "Secondary", "Facility_type": "Polyclinic", "local_validation": "Public Basic EmOC", "hcf_id": 19 }, "geometry": { "type": "Point", "coordinates": [ 30.9862102, -17.9055881 ] } },
{ "type": "Feature", "properties": { "Longitude": 31.0487757, "Latitude": -17.7919888, "Facility_name": "Dr. D Djordjevic", "Province": "Harare", "District": "Harare", "Ward": "7", "Ownership_type": "Private", "Ownership": "Independent practice", "EmOC_status": "Comprehensive", "Services_offered": "Full obstetric & surgical services", "Facility_level": "Secondary", "Facility_type": "Private medical center", "local_validation": "Private Comprehensive EmOC", "hcf_id": 20 }, "geometry": { "type": "Point", "coordinates": [ 31.0487757, -17.7919888 ] } }
]
}
